####018000415####
SAPO31 LPMG 042230
METAR LPFR 042230Z 24012KT 9999 FEW018 FEW020CB SCT030 14/08 Q0999=
METAR LPMA 042230Z VRB01KT 9999 SCT018 14/06 Q1008 RS0804KT 051507KT
232704KT=
METAR LPPR 042230Z 22007KT 180V270 9999 FEW015 FEW020CB BKN027 09/07
Q0994=
METAR LPPS 042230Z 31019G30KT 9999 SCT015 FEW018CB SCT030 14/07
Q1007=
METAR LPPT 042230Z 21005KT 180V250 9999 -SHRA FEW018 FEW029TCU 11/07
Q0997 NOSIG=
####018000598####
SAFR41 LFPW 042230
METAR
LFBA 042230Z AUTO 23003KT 150V300 9999NDV -RA NSC 08/05 Q0993=
LFBG 042230Z AUTO 17012KT 9999NDV // NCD 09/04 Q0989=
LFBH 042230Z AUTO 16011KT 9999NDV NSC 10/06 Q0987=
LFBI 042230Z AUTO 17013KT 9999NDV -RA FEW033 09/03 Q0989=
LFBL 042230Z AUTO 19012KT 9999NDV -RA FEW007 07/03 Q0991=
LFKF 042230Z AUTO 22007KT 180V260 9999NDV OVC023/// 13/11 Q1005=
LFLB 042230Z AUTO 00000KT 4200NDV BR NCD M00/M01 Q0997=
LFMD 042230Z AUTO 02003KT 350V060 3700NDV -RA BR BKN023 BKN049
BKN076 09/09 Q1003=
LFTH 042230Z AUTO 19006KT 9999NDV BKN015 BKN021 12/10 Q1002=
####018000475####
SAFR57 LFPW 042230
METAR
LFBC 042230Z AUTO 18014KT 9999NDV // NSC 10/04 Q0989=
LFMI 042230Z AUTO 15012KT 9999NDV NSC 12/09 Q0999=
LFMO 042230Z AUTO 12008KT 9999NDV // NCD 10/08 Q0999=
LFOJ 042230Z AUTO 14007KT 9999NDV // NCD 05/02 Q0990=
LFQI 042230Z AUTO 10007KT 2800NDV // NCD 00/00 Q0993=
LFSI 042230Z AUTO 13006KT 9999NDV // NCD 04/03 Q0994=
LFSO 042230Z AUTO 16007KT 8000NDV // NSC 02/02 Q0995=
LFSX 042230Z AUTO 07005KT 5000NDV // NCD 00/M00 Q0996=
####018000710####
SAFR40 LFPW 042230
METAR
LFGJ 042230Z AUTO 05004KT 4000NDV BR NSC M00/M01 Q0995=
LFOE 042230Z AUTO 09007KT 060V120 4300NDV // BKN040///
BKN047///
OVC056/// 02/01 Q0990=
LFOH 042230Z AUTO 11011KT 4100NDV -SNRA BR FEW014/// SCT020///
OVC041/// //////TCU 03/01 Q0988=
LFOP 042230Z AUTO 13013KT 4900NDV -RA BR FEW049/// BKN058///
BKN070/// 01/00 Q0990=
LFRH 042230Z AUTO 18009KT 9999NDV FEW002 SCT023 BKN033 08/06
Q0984=
LFRK 042230Z AUTO 13005KT 3000NDV -SNRA BR BKN030///
BKN035/// //////TCU 02/02 Q0988=
LFRO 042230Z AUTO 14007KT 6000NDV FEW006 OVC038 06/05 Q0984=
LFRT 042230Z AUTO 14007KT 9999NDV FEW014 SCT039 06/05 Q0984=
LFRZ 042230Z AUTO 13005KT 9999NDV NSC 06/04 Q0986=
####018000118####
SANC01 NWWU 042230
METAR NWWU 042230Z AUTO 31021G31KT 4000NDV -RA BR SCT011///
BKN017/// BKN025/// 26/25 Q1001=
####018000548####
SARO41 LROM 042230
METAR LRAR 042230Z AUTO 23008KT 2700 BR SCT003 BKN005 06/06 Q1004=
METAR LRBC 042230Z AUTO 00000KT 0150 R34/0500N FG VV001 ///// Q1002=
METAR LRBM 042230Z NIL=
METAR COR LRCL 042230Z VRB02KT 8000 BKN053 04/03 Q1002 0819//95=
METAR LRIA 042230Z NIL=
METAR LROD 042230Z AUTO 20010KT 6000 BKN007 BKN021 08/07 Q1002 REDZ=
METAR LRSB 042230Z NIL=
METAR LRSM 042230Z AUTO 19004KT 9999 BKN023 OVC029 07/05 Q1001 REDZ=
METAR LRSV 042230Z AUTO 18004KT 130V220 6000 OVC090 04/02 Q1001
REUP=
METAR LRTM 042230Z NIL=
####018000093####
SPUS81 KWBC 042235
SPECI
PABE 042231Z 03011KT 1 1/2SM -SN BKN017 OVC025 M19/M22 A2939=
####018001751####
SAEU KAWN 042200 RRX
METAR LFBA 042230Z AUTO 23003KT 150V300 9999NDV -RA NSC 08/05 Q0993=
METAR LFBE 042230Z AUTO 13014KT 9999NDV -RA FEW025/// SCT036/// //////CB
      09/06 Q0991=
METAR LFBI 042230Z AUTO 17013KT 9999NDV -RA FEW033 09/03 Q0989=
METAR LFBL 042230Z AUTO 19012KT 9999NDV -RA FEW007 07/03 Q0991=
METAR LFBP 042230Z AUTO 26006KT 200V330 9999NDV NSC 09/03 Q0992=
METAR LFCR 042230Z AUTO 14017KT 9999NDV NSC 05/03 Q0993=
METAR LFGJ 042230Z AUTO 05004KT 4000NDV BR NSC M00/M01 Q0995=
METAR LFJL 042230Z AUTO 13012KT 7000NDV NSC 02/01 Q0996=
METAR LFKF 042230Z AUTO 22007KT 180V260 9999NDV OVC023/// 13/11 Q1005=
METAR LFLB 042230Z AUTO 00000KT 4200NDV BR NCD M00/M01 Q0997=
METAR LFMD 042230Z AUTO 02003KT 350V060 3700NDV -RA BR BKN023 BKN049
      BKN076 09/09 Q1003=
METAR LFMH 042230Z AUTO 22002KT 9999NDV BKN040/// 02/01 Q0994=
METAR LFMI 042230Z AUTO 15012KT 9999NDV NSC 12/09 Q0999=
METAR LFMK 042230Z AUTO 10012KT 9000NDV FEW007/// OVC017/// 07/05 Q0994=
METAR LFMP 042230Z AUTO VRB02KT 8000NDV NSC 05/04 Q0995=
METAR LFOP 042230Z AUTO 13013KT 4900NDV -RA BR FEW049/// BKN058///
      BKN070/// 01/00 Q0990=
METAR LFRC 042230Z AUTO 13011KT 1400NDV R28/P1500 -RA BR OVC002 03/02
      Q0986=
METAR LFRH 042230Z AUTO 18009KT 9999NDV FEW002 SCT023 BKN033 08/06
      Q0984=
METAR LFRN 042230Z AUTO 14009KT 9999NDV NSC 05/04 Q0986=
METAR LFRO 042230Z AUTO 14007KT 6000NDV FEW006 OVC038 06/05 Q0984=
METAR LFRQ 042230Z AUTO 15002KT 1200NDV R28/P2000 BR FEW038 SCT210
      05/04 Q0983=
METAR LFRT 042230Z AUTO 14007KT 9999NDV FEW014 SCT039 06/05 Q0984=
METAR LFRZ 042230Z AUTO 13005KT 9999NDV NSC 06/04 Q0986=
METAR LFTH 042230Z AUTO 19006KT 9999NDV BKN015 BKN021 12/10 Q1002=
####018000158####
SARO42 LROM 042230
METAR LRCV 042230Z AUTO 24004KT 0500 R09/0900V1400U FG VV002 04/04
Q1004=
METAR LRTC 042230Z AUTO 15006KT 9999 BKN170 08/07 Q1003=
####018000127####
SAAK41 KNKA 042235
SPECI PAOO 042230Z AUTO 07015KT 1 1/2SM -SN BR SCT003 OVC010 M13/M16 
    A2930 RMK AO2 TSNO P0000 $=
####018000147####
SAKY31 RUMS 042230
METAR UAFM 042230Z 29003MPS 4100 SN BR OVC005 M02/M02 Q1029
R26/690542 TEMPO 1500 SN BR OVC003=
METAR UAFO 042230Z NIL=
####018000168####
SATA31 RUMS 042230
METAR UTDD 042230Z 28001MPS 1800 SN BR BKN004 OVC030 M01/M01
Q1027 09690338 TEMPO 1000 BR SN RMK QBB120 QFE701/0935=
METAR UTDL 042230Z NIL=
####018000028####
SATR31 RUMS 042230
NIL=
####018000729####
SACI31 ZBBB 042230
METAR ZBAA 042230Z 01002MPS CAVOK M07/M11 Q1025 NOSIG=
ZBSJ NIL=
METAR ZBTJ 042230Z 36002MPS 2500 BR SKC M05/M05 Q1024 NOSIG=
METAR ZBYN 042230Z 00000MPS 2000 BR NSC M06/M07 Q1021 NOSIG=
METAR ZGGG 042230Z 00000MPS 2500 BR SKC 14/11 Q1018 NOSIG=
METAR ZSHC 042230Z 03002MPS 0600 R07/0750V1200N FG SCT005 BKN026
 07/06 Q1024
 NOSIG=
METAR ZSPD 042230Z 05002MPS 350V110 3500 BR BKN030 08/06 Q1023
 NOSIG=
METAR ZSSS 042230Z 33001MPS 2100 BR OVC026 09/08 Q1023 NOSIG=
ZWSH NIL=
METAR ZWWW 042230Z VRB01MPS 0700 R07/1600N FZFG BKN009 M06/M07 Q1024
 NOSIG=
METAR ZYTL 042230Z 34007MPS 3000 BR SKC 00/M03 Q1023 NOSIG=
METAR ZYTX 042230Z 35003MPS 3000 BR OVC033 M02/M04 Q1024 NOSIG=
####018000127####
SARA36 RUMS 042200 RRA
METAR USCC 042200Z 28005MPS 5000 -SHSN SCT020CB OVC070 M08/M11
  Q1004 NOSIG RMK QFE733 88400250=
####018000646####
SAKZ31 RUMS 042230
METAR UAAA 042230Z 22002MPS 2900 -SN BR OVC017 M01/M02 Q1028
734/0537 234/0542 NOSIG=
UACC 042230Z 22012MPS 1100 R22/P1500 SN BLSN OVC012 M15/M16
Q1014 228/0060 TEMPO 23015MPS 0600 SN BLSN RMK QFE729/0973=
METAR UAKK 042230Z NIL=
METAR UAOO 042230Z NIL=
METAR UARR 042230Z NIL=
UATE 042230Z 12008MPS 9999 OVC027 01/M00 Q1024 NOSIG RMK
QFE766/1021 120///70=
UATG 042230Z 16003MPS 9000 NSC M12/M12 Q1026
14CLRD70 NOSIG RMK QFE771/1028=
UATT 042230Z 18004MPS 5000 -SN NSC M14/M16 Q1021 13490148
NOSIG RMK QFE746/0995=
METAR UAUU 042230Z 27006MPS CAVOK M11/M14 Q1008 33CLRD60
NOSIG RMK QFE741/0988=
####018000116####
SAAY31 RUMS 042230
METAR UDSG 042230Z NIL=
UDYZ 042230Z 00000MPS 2300 BR BKN100 M02/M03 Q1024 09000070 NOSIG=
####018000239####
SABY31 UMMN 042230
UMBB NIL=
METAR UMGG 042230Z 15002MPS 2500 BR OVC002 M02/M02 Q1003
R11/190052 TEMPO 2000 RMK QBB070=
UMMM NIL=
METAR UMMS 042230Z 00000MPS 0250 R31/0750N FZFG VV001
M00/M00 Q1001 31820335 NOSIG RMK QBB050=
####018000108####
SPCN43 CWAO 042230
SPECI CYYL 042230Z AUTO 25007KT 9SM -SN FEW025 FEW036 FEW047 FEW080
M08/M10 A2945=
####018000115####
SPUR30 UKMS 042232
SPECI UKHH 042232Z 17004MPS 150V210 2900 BR OVC003
02/02 Q1006 08950332 TEMPO 1200 OVC004=
####018000102####
SPCN43 CWAO 042231
SPECI CYNE 042231Z AUTO 17018G33KT 3/4SM BKN001 OVC006 OVC015 M12/M14
A2970=
####018002967####
SAUS20 KNKA 042235
METAR KAFJ 042235Z AUTO 30006KT 2 1/2SM SCT016 BKN022 OVC039 M09/M11 
    A3030 RMK AO1=
METAR KAIZ 042235Z AUTO 17003KT 10SM CLR M01/M18 A3054 RMK AO1=
METAR KAQP 042233Z AUTO 15011KT 10SM CLR M09/M12 A3027 RMK AO2=
METAR KARG 042235Z AUTO 11006KT 10SM CLR M01/M13 A3059 RMK AO1=
METAR KAUO 042235Z AUTO 32012G18KT 10SM CLR 01/M14 A3043 RMK AO1=
METAR KAWO 042235Z AUTO 00000KT 10SM CLR 15/03 A2994 RMK AO1=
METAR KBFW 042233Z AUTO 21004KT 10SM CLR M12/M19 A3036 RMK AO2=
METAR KBHB 042235Z AUTO 00000KT 10SM CLR M11/M14 A2995 RMK AO1=
METAR KBKX 042235Z AUTO 17015G20KT 10SM CLR M06/M12 A3024 RMK AO1=
METAR KBLM 042235Z AUTO 31005KT 10SM CLR M04/M13 A3005 RMK AO1=
METAR KBTP 042235Z AUTO 32007KT 10SM BKN026 OVC032 M10/M15 A3024 RMK 
    AO1=
METAR KBVX 042235Z AUTO 11004KT 10SM CLR 03/M17 A3056 RMK AO1=
METAR KCGZ 042235Z AUTO 24006KT 10SM CLR 27/M06 A3008 RMK AO1=
METAR KCIU 042235Z AUTO 33006KT 10SM CLR M18/M23 A3043 RMK AO1=
SPECI KCLE 042234Z 31009KT 3/4SM -SN SCT009 OVC019 M11/M13 A3039 RMK 
    AO2 CIG 012 NE P0000 $=
METAR KCOD 042235Z 00000KT 10SM CLR 06/M04 A3010 RMK AO1=
METAR KCOE 042235Z AUTO 03006KT 10SM CLR 01/00 A3010 RMK AO1=
METAR KCVN 042235Z 20014G17KT 10SM CLR 17/M10 A3034 RMK AO1=
METAR KCVO 042235Z AUTO 00000KT 10SM CLR 12/05 A2997 RMK AO1=
METAR KCWI 042235Z AUTO 00000KT 10SM CLR M11/M17 A3057 RMK AO1=
METAR KDVL 042235Z AUTO 18018G25KT 10SM CLR M08/M12 A2990 RMK AO1=
METAR KDYR 042235Z AUTO 32006KT 10SM CLR M03/M14 A3061 RMK AO1=
METAR KEAR 042235Z AUTO 18015KT 10SM CLR 06/M08 A3022 RMK AO1=
METAR KEEN 042235Z AUTO 35011G14KT 10SM CLR M08/M20 A3002 RMK AO1=
METAR KEHR 042235Z AUTO 31007KT 290V010 10SM CLR M08/M15 A3060 RMK 
    AO1=
METAR KENV 042235Z AUTO 08004KT 10SM CLR 05/M02 A3027 RMK AO1=
METAR KESC 042235Z AUTO 01004KT 10SM CLR M10/M18 A3047 RMK AO1=
METAR KETH 042234Z AUTO 14013KT 10SM CLR M08/M12 A3024 RMK AO2=
METAR KEUL 042235Z AUTO 14008KT 10SM CLR 08/M03 A3023 RMK AO1=
METAR KEWK 042235Z AUTO 19013KT 10SM CLR 05/M12 A3034 RMK AO1=
METAR KFAM 042235Z AUTO 36003KT 10SM CLR M04/M16 A3055 RMK AO1=
METAR KFKL 042235Z AUTO 10SM BKN022 M13/M18 A3023 RMK AO1=
METAR KFLP 042235Z AUTO 09003KT 10SM SCT100 02/M17 A3053 RMK AO1=
METAR KFNL 042235Z AUTO 15008KT 10SM CLR 18/M12 A3016 RMK AO1=
METAR KFOD 042235Z AUTO 18008KT 10SM CLR M08/M15 A3040 RMK AO2 PWINO 
    FZRANO RVRNO=
METAR KFOZ 042233Z AUTO 17009KT 10SM CLR M11/M20 A3025 RMK AO2=
METAR KFRM 042235Z 19015KT 10SM CLR M10/M15 A3040 RMK AO1=
METAR KGAD 042235Z AUTO 34011G14KT 10SM CLR M01/M18 A3051 RMK AO1=
METAR KGAI 042235Z 34004KT 10SM SCT044 OVC060 M02/M11 A3016 RMK AO1=
METAR KGBD 042235Z AUTO 15012KT 10SM CLR 09/M09 A3028 RMK AO1=
METAR KGDV 042235Z AUTO 17010KT 10SM CLR 05/M03 A2992 RMK AO1=
METAR KGPZ 042235Z AUTO 15010KT 10SM CLR M12/M22 A3027 RMK AO1=
METAR KGUC 042235Z AUTO 00000KT 10SM CLR M06/M11 A3046 RMK AO1=
####018000552####
SAUS20 KNKA 042235
METAR KTVF 042235Z AUTO 16018G25KT 10SM OVC014 M11/M16 A3015 RMK AO1=
METAR KVBT 042235Z AUTO 15003KT 10SM BKN110 03/M14 A3048 RMK AO1=
METAR KVIS 042235Z 34006KT 10SM CLR 23/07 A2991 RMK AO1=
METAR KVWU 042233Z AUTO 13008KT 10SM CLR M10/M19 A3021 RMK AO2=
METAR KWVL 042235Z AUTO 34009KT 10SM CLR M09/M17 A2992 RMK AO1=
METAR KWWD 042235Z AUTO 34006KT 10SM CLR M02/M11 A3012 RMK AO1=
METAR KXVG 042234Z AUTO 17008KT 10SM CLR M12/M21 A3028 RMK AO2=
METAR KYKN 042235Z AUTO 17014G20KT 10SM CLR 00/M09 A3027 RMK AO1=
####018002998####
SAUS20 KNKA 042235
METAR KGXY 042235Z AUTO 10004KT 10SM CLR 18/M10 A3016 RMK AO1=
METAR KHDN 042235Z 11003KT 10SM CLR M01/M08 A3035 RMK AO1=
METAR KHEZ 042235Z AUTO 04006KT 10SM CLR 05/M12 A3056 RMK AO1=
METAR KHNB 042235Z AUTO 30008KT 10SM CLR M08/M16 A3058 RMK AO1=
METAR KHYS 042235Z AUTO 17009KT 10SM CLR 11/M07 A3025 RMK AO1=
METAR KIWD 042235Z AUTO 00000KT 10SM CLR M12/M18 A3037 RMK AO1=
METAR KJHW 042235Z 31007KT 2 1/2SM OVC025 M13/M18 A3017 RMK AO1=
METAR KKLS 042235Z AUTO 14006KT 10SM CLR 14/01 A2994 RMK AO1=
METAR KLBL 042235Z 25007KT 10SM CLR 19/M06 A3023 RMK AO1=
METAR KLCI 042235Z AUTO 30010G14KT 280V340 10SM CLR M09/M20 A2997 
    RMK AO1=
METAR KLEW 042235Z 32008KT 10SM CLR M08/M19 A2998 RMK AO1=
METAR KLGD 042235Z AUTO 17018G24KT 10SM CLR 08/M05 A3010 RMK AO1=
METAR KLKV 042235Z AUTO 17004KT 10SM CLR 09/01 A3007 RMK AO1=
METAR KMBL 042235Z AUTO 06007KT 10SM CLR M11/M18 A3046 RMK AO1=
METAR KMJX 042235Z AUTO 32004KT 10SM CLR M04/M11 A3007 RMK AO1=
METAR KMKT 042235Z AUTO 17009KT 10SM CLR M09/M15 A3039 RMK AO1=
METAR KMML 042235Z AUTO 16014KT 10SM CLR M07/M13 A3028 RMK AO1=
METAR KMNM 042235Z AUTO 00000KT 10SM CLR M09/M21 A3049 RMK AO1=
METAR KMRF 042235Z AUTO 14009KT 10SM CLR 18/M12 A3038 RMK AO1=
METAR KMTW 042235Z AUTO 26007KT 10SM CLR M12/M19 A3049 RMK AO1=
METAR KMVN 042235Z AUTO 00000KT 10SM CLR M07/M16 A3060 RMK AO1=
METAR KMZH 042235Z AUTO 00000KT 10SM CLR M12/M20 A3036 RMK AO2=
METAR KOKK 042235Z AUTO 28008KT 10SM FEW018 FEW027 M08/M16 A3045 RMK 
    AO1=
METAR KOLU 042235Z AUTO 17010KT 10SM CLR 01/M10 A3030 RMK AO1=
METAR KORB 042234Z AUTO 16007KT 10SM CLR M11/M20 A3025 RMK AO2=
METAR KOTG 042235Z AUTO 16011G18KT 10SM CLR M08/M14 A3028 RMK AO1=
METAR KPIB 042235Z AUTO 31005KT 10SM CLR 06/M13 A3053 RMK AO1=
METAR KPQI 042235Z AUTO 33007KT 10SM FEW090 BKN120 M12/M19 A2988 RMK 
    AO1=
METAR KPTN 042235Z AUTO 03007KT 10SM CLR 09/M07 A3056 RMK AO1=
METAR KPTV 042235Z AUTO 05005KT 10SM CLR 24/06 A2992 RMK AO1=
METAR KPVC 042235Z 32010KT 10SM BKN038 M05/M12 A3000 RMK AO1=
METAR KPVJ 042234Z AUTO 16006KT 10SM CLR 12/M06 A3044 RMK AO2
=
METAR KPWT 042235Z AUTO 02003KT 10SM CLR 12/04 A2997 RMK AO1=
METAR KRKD 042235Z AUTO 00000KT 10SM CLR M11/M16 A2996 RMK AO1=
METAR KRUT 042235Z AUTO 34004KT 10SM CLR M12/M19 A3004 RMK AO1=
METAR KSDY 042235Z AUTO 27006KT 10SM CLR 06/M01 A2989 RMK AO1=
METAR KSFM 042235Z 27007KT 10SM CLR M08/M18 A2999 RMK AO1=
METAR KSFZ 042235Z 32005KT 10SM CLR M06/M19 A2996 RMK AO1=
METAR KSGT 042235Z 00000KT 10SM CLR 02/M14 A3060 RMK AO1=
METAR KSGU 042235Z AUTO 09003KT 10SM CLR 20/M02 A3017 RMK AO1=
METAR KSKX 042235Z AUTO 00000KT 10SM CLR 09/M08 A3038 RMK AO1=
METAR KSLG 042235Z AUTO 16005KT 10SM SCT110 04/M12 A3047 RMK AO1=
METAR KSMN 042235Z AUTO 35003KT 9SM CLR 01/M05 A3021 RMK AO1=
METAR KSQI 042235Z AUTO 27004KT 10SM CLR M09/M18 A3056 RMK AO1=
METAR KSUE 042235Z AUTO 24005KT 10SM CLR M11/M19 A3045 RMK AO1=
####018001772####
SAEW KAWN 042200 RRO
METAR LFBC 042230Z AUTO 18014KT 9999NDV // NSC 10/04 Q0989=
METAR LFBG 042230Z AUTO 17012KT 9999NDV // NCD 09/04 Q0989=
METAR LFBI 042230Z AUTO 17013KT 9999NDV -RA FEW033 09/03 Q0989=
METAR LFBP 042230Z AUTO 26006KT 200V330 9999NDV NSC 09/03 Q0992=
METAR LFCR 042230Z AUTO 14017KT 9999NDV NSC 05/03 Q0993=
METAR LFGJ 042230Z AUTO 05004KT 4000NDV BR NSC M00/M01 Q0995=
METAR LFJL 042230Z AUTO 13012KT 7000NDV NSC 02/01 Q0996=
METAR LFLY 042230Z AUTO 13005KT 090V170 9999NDV NCD 06/04 Q0996=
METAR LFMD 042230Z AUTO 02003KT 350V060 3700NDV -RA BR BKN023 BKN049
      BKN076 09/09 Q1003=
METAR LFMH 042230Z AUTO 22002KT 9999NDV BKN040/// 02/01 Q0994=
METAR LFMO 042230Z AUTO 12008KT 9999NDV // NCD 10/08 Q0999=
METAR LFMP 042230Z AUTO VRB02KT 8000NDV NSC 05/04 Q0995=
METAR LFOE 042230Z AUTO 09007KT 060V120 4300NDV // BKN040/// BKN047///
      OVC056/// 02/01 Q0990=
METAR LFOP 042230Z AUTO 13013KT 4900NDV -RA BR FEW049/// BKN058///
      BKN070/// 01/00 Q0990=
METAR LFQI 042230Z AUTO 10007KT 2800NDV // NCD 00/00 Q0993=
METAR LFRC 042230Z AUTO 13011KT 1400NDV R28/P1500 -RA BR OVC002 03/02
      Q0986=
METAR LFRN 042230Z AUTO 14009KT 9999NDV NSC 05/04 Q0986=
METAR LFRO 042230Z AUTO 14007KT 6000NDV FEW006 OVC038 06/05 Q0984=
METAR LFRQ 042230Z AUTO 15002KT 1200NDV R28/P2000 BR FEW038 SCT210
      05/04 Q0983=
METAR LFRT 042230Z AUTO 14007KT 9999NDV FEW014 SCT039 06/05 Q0984=
METAR LFRZ 042230Z AUTO 13005KT 9999NDV NSC 06/04 Q0986=
METAR LFSD 042230Z AUTO 02003KT 0150NDV R36/0550N FG VV/// 00/M00 Q0996=
METAR LFSI 042230Z AUTO 13006KT 9999NDV // NCD 04/03 Q0994=
METAR LFSX 042230Z AUTO 07005KT 5000NDV // NCD 00/M00 Q0996=
METAR LFTW 042230Z AUTO 12010KT 9000NDV NSC 09/09 Q0998=
####018000149####
SAXX69 KAWN 042200 RRG
METAR EQBP 042230Z AUTO 13001KT 9000 -SHSN FEW000 M02/// Q1017=
METAR EQTK 042230Z AUTO 16001KT 9999 VV/// 03/01 Q1020=
####018000363####
SAZZ40 KAWN 042200 RRV
METAR BIKF 042230Z 01015KT CAVOK M06/M11 Q1022=
METAR DBBB 042230Z 21010KT 8000 SCT012 28/26 Q1010 NOSIG=
METAR LQBK 042230Z 31002KT 0300 FG NSC 02/02 Q1003 NOSIG=
METAR PABA 042215Z AUTO 28008KT 10SM BKN009 BKN014 OVC028 M33/M37 A2999
      RMK AO1 T13281366=
METAR WSSS 042230Z VRB02KT 9999 FEW018 BKN160 24/23 Q1010 NOSIG=
####018000126####
SAUS17 KAWN 042200 RRF
METAR PABA 042215Z AUTO 28008KT 10SM BKN009 BKN014 OVC028 M33/M37 A2999
      RMK AO1 T13281366=
####018003744####
SAUS99 KWBC 042236
METAR
KAIT 042233Z AUTO 16009KT 10SM CLR M12/M17 A3032 RMK AO2=
KBBB 042233Z AUTO 18013G17KT 10SM CLR M08/M13 A3028 RMK AO2=
KFFM 042233Z AUTO 15017G20KT 10SM CLR M11/M16 A3024 RMK AO2=
KFGN 042234Z AUTO 15018KT 10SM CLR M14/M17 A3013 RMK AO2=
KGDB 042230Z AUTO 13015KT 10SM CLR M05/M13 A3031 RMK AO2
     T10501134=
KGHW 042233Z AUTO 14012KT 10SM CLR M10/M16 A3027 RMK AO2=
KMGG 042235Z AUTO 14008KT 10SM CLR M10/M16 A3038 RMK AO2
     T11051165=
KMOX 042234Z AUTO 15018KT 10SM CLR M09/M13 A3024 RMK AO2=
KMWM 042233Z AUTO 16014KT 10SM CLR M09/M14 A3032 RMK AO2=
KPNM 042233Z AUTO 16007KT 10SM CLR M11/M19 A3038 RMK AO2=
KPQN 042233Z AUTO 20017G22KT 10SM CLR M07/M11 A3023 RMK AO2=
KPWC 042233Z AUTO 16009KT 10SM CLR M13/M21 A3030 RMK AO2=
KTWM 042233Z AUTO 19005KT 10SM CLR M13/M19 A3035 RMK AO2=
KULM 042231Z AUTO 16011KT 10SM CLR M09/M16 A3037 RMK AO2=
KWWR 042234Z AUTO 20019KT 10SM CLR 17/M07 A3025 RMK AO2=
KAFJ 042235Z AUTO 30006KT 2 1/2SM SCT016 BKN022 OVC039 M09/M11
     A3030 RMK AO1=
KAIZ 042235Z AUTO 17003KT 10SM CLR M01/M18 A3054 RMK AO1=
KAQP 042233Z AUTO 15011KT 10SM CLR M09/M12 A3027 RMK AO2=
KARG 042235Z AUTO 11006KT 10SM CLR M01/M13 A3059 RMK AO1=
KAUO 042235Z AUTO 32012G18KT 10SM CLR 01/M14 A3043 RMK AO1=
KAWO 042235Z AUTO 00000KT 10SM CLR 15/03 A2994 RMK AO1=
KBFW 042233Z AUTO 21004KT 10SM CLR M12/M19 A3036 RMK AO2=
KBHB 042235Z AUTO 00000KT 10SM CLR M11/M14 A2995 RMK AO1=
KBKX 042235Z AUTO 17015G20KT 10SM CLR M06/M12 A3024 RMK AO1=
KBLM 042235Z AUTO 31005KT 10SM CLR M04/M13 A3005 RMK AO1=
KBTP 042235Z AUTO 32007KT 10SM BKN026 OVC032 M10/M15 A3024 RMK
     AO1=
KBVX 042235Z AUTO 11004KT 10SM CLR 03/M17 A3056 RMK AO1=
KCGZ 042235Z AUTO 24006KT 10SM CLR 27/M06 A3008 RMK AO1=
KCIU 042235Z AUTO 33006KT 10SM CLR M18/M23 A3043 RMK AO1=
KCOD 042235Z 00000KT 10SM CLR 06/M04 A3010 RMK AO1=
KCOE 042235Z AUTO 03006KT 10SM CLR 01/00 A3010 RMK AO1=
KCVN 042235Z 20014G17KT 10SM CLR 17/M10 A3034 RMK AO1=
KCVO 042235Z AUTO 00000KT 10SM CLR 12/05 A2997 RMK AO1=
KCWI 042235Z AUTO 00000KT 10SM CLR M11/M17 A3057 RMK AO1=
KDVL 042235Z AUTO 18018G25KT 10SM CLR M08/M12 A2990 RMK AO1=
KDYR 042235Z AUTO 32006KT 10SM CLR M03/M14 A3061 RMK AO1=
KEAR 042235Z AUTO 18015KT 10SM CLR 06/M08 A3022 RMK AO1=
KEEN 042235Z AUTO 35011G14KT 10SM CLR M08/M20 A3002 RMK AO1=
KEHR 042235Z AUTO 31007KT 290V010 10SM CLR M08/M15 A3060 RMK
     AO1=
KENV 042235Z AUTO 08004KT 10SM CLR 05/M02 A3027 RMK AO1=
KESC 042235Z AUTO 01004KT 10SM CLR M10/M18 A3047 RMK AO1=
KETH 042234Z AUTO 14013KT 10SM CLR M08/M12 A3024 RMK AO2=
KEUL 042235Z AUTO 14008KT 10SM CLR 08/M03 A3023 RMK AO1=
KEWK 042235Z AUTO 19013KT 10SM CLR 05/M12 A3034 RMK AO1=
KFAM 042235Z AUTO 36003KT 10SM CLR M04/M16 A3055 RMK AO1=
KFKL 042235Z AUTO 10SM BKN022 M13/M18 A3023 RMK AO1=
KFLP 042235Z AUTO 09003KT 10SM SCT100 02/M17 A3053 RMK AO1=
KFNL 042235Z AUTO 15008KT 10SM CLR 18/M12 A3016 RMK AO1=
KFOD 042235Z AUTO 18008KT 10SM CLR M08/M15 A3040 RMK AO2 PWINO
     FZRANO RVRNO=
KFOZ 042233Z AUTO 17009KT 10SM CLR M11/M20 A3025 RMK AO2=
KFRM 042235Z 19015KT 10SM CLR M10/M15 A3040 RMK AO1=
KGAD 042235Z AUTO 34011G14KT 10SM CLR M01/M18 A3051 RMK AO1=
KGAI 042235Z 34004KT 10SM SCT044 OVC060 M02/M11 A3016 RMK AO1=
KGBD 042235Z AUTO 15012KT 10SM CLR 09/M09 A3028 RMK AO1=
KGDV 042235Z AUTO 17010KT 10SM CLR 05/M03 A2992 RMK AO1=
KGPZ 042235Z AUTO 15010KT 10SM CLR M12/M22 A3027 RMK AO1=
KGUC 042235Z AUTO 00000KT 10SM CLR M06/M11 A3046 RMK AO1=
KTVF 042235Z AUTO 16018G25KT 10SM OVC014 M11/M16 A3015 RMK AO1=
KVBT 042235Z AUTO 15003KT 10SM BKN110 03/M14 A3048 RMK AO1=
KVIS 042235Z 34006KT 10SM CLR 23/07 A2991 RMK AO1=
####018000225####
SPUS99 KWBC 042236
SPECI
PAOO 042230Z AUTO 07015KT 1 1/2SM -SN BR SCT003 OVC010 M13/M16
     A2930 RMK AO2 TSNO P0000 $=
KCLE 042234Z 31009KT 3/4SM -SN SCT009 OVC019 M11/M13 A3039 RMK AO2
     CIG 012 NE P0000 $=
####018003040####
SAUS99 KWBC 042236 RRA
METAR
KVWU 042233Z AUTO 13008KT 10SM CLR M10/M19 A3021 RMK AO2=
KWVL 042235Z AUTO 34009KT 10SM CLR M09/M17 A2992 RMK AO1=
KWWD 042235Z AUTO 34006KT 10SM CLR M02/M11 A3012 RMK AO1=
KXVG 042234Z AUTO 17008KT 10SM CLR M12/M21 A3028 RMK AO2=
KYKN 042235Z AUTO 17014G20KT 10SM CLR 00/M09 A3027 RMK AO1=
KGXY 042235Z AUTO 10004KT 10SM CLR 18/M10 A3016 RMK AO1=
KHDN 042235Z 11003KT 10SM CLR M01/M08 A3035 RMK AO1=
KHEZ 042235Z AUTO 04006KT 10SM CLR 05/M12 A3056 RMK AO1=
KHNB 042235Z AUTO 30008KT 10SM CLR M08/M16 A3058 RMK AO1=
KHYS 042235Z AUTO 17009KT 10SM CLR 11/M07 A3025 RMK AO1=
KIWD 042235Z AUTO 00000KT 10SM CLR M12/M18 A3037 RMK AO1=
KJHW 042235Z 31007KT 2 1/2SM OVC025 M13/M18 A3017 RMK AO1=
KKLS 042235Z AUTO 14006KT 10SM CLR 14/01 A2994 RMK AO1=
KLBL 042235Z 25007KT 10SM CLR 19/M06 A3023 RMK AO1=
KLCI 042235Z AUTO 30010G14KT 280V340 10SM CLR M09/M20 A2997 RMK
     AO1=
KLEW 042235Z 32008KT 10SM CLR M08/M19 A2998 RMK AO1=
KLGD 042235Z AUTO 17018G24KT 10SM CLR 08/M05 A3010 RMK AO1=
KLKV 042235Z AUTO 17004KT 10SM CLR 09/01 A3007 RMK AO1=
KMBL 042235Z AUTO 06007KT 10SM CLR M11/M18 A3046 RMK AO1=
KMJX 042235Z AUTO 32004KT 10SM CLR M04/M11 A3007 RMK AO1=
KMKT 042235Z AUTO 17009KT 10SM CLR M09/M15 A3039 RMK AO1=
KMML 042235Z AUTO 16014KT 10SM CLR M07/M13 A3028 RMK AO1=
KMNM 042235Z AUTO 00000KT 10SM CLR M09/M21 A3049 RMK AO1=
KMRF 042235Z AUTO 14009KT 10SM CLR 18/M12 A3038 RMK AO1=
KMTW 042235Z AUTO 26007KT 10SM CLR M12/M19 A3049 RMK AO1=
KMVN 042235Z AUTO 00000KT 10SM CLR M07/M16 A3060 RMK AO1=
KMZH 042235Z AUTO 00000KT 10SM CLR M12/M20 A3036 RMK AO2=
KOKK 042235Z AUTO 28008KT 10SM FEW018 FEW027 M08/M16 A3045 RMK
     AO1=
KOLU 042235Z AUTO 17010KT 10SM CLR 01/M10 A3030 RMK AO1=
KORB 042234Z AUTO 16007KT 10SM CLR M11/M20 A3025 RMK AO2=
KOTG 042235Z AUTO 16011G18KT 10SM CLR M08/M14 A3028 RMK AO1=
KPIB 042235Z AUTO 31005KT 10SM CLR 06/M13 A3053 RMK AO1=
KPQI 042235Z AUTO 33007KT 10SM FEW090 BKN120 M12/M19 A2988 RMK
     AO1=
KPTN 042235Z AUTO 03007KT 10SM CLR 09/M07 A3056 RMK AO1=
KPTV 042235Z AUTO 05005KT 10SM CLR 24/06 A2992 RMK AO1=
KPVC 042235Z 32010KT 10SM BKN038 M05/M12 A3000 RMK AO1=
KPVJ 042234Z AUTO 16006KT 10SM CLR 12/M06 A3044 RMK AO2=
KPWT 042235Z AUTO 02003KT 10SM CLR 12/04 A2997 RMK AO1=
KRKD 042235Z AUTO 00000KT 10SM CLR M11/M16 A2996 RMK AO1=
KRUT 042235Z AUTO 34004KT 10SM CLR M12/M19 A3004 RMK AO1=
KSDY 042235Z AUTO 27006KT 10SM CLR 06/M01 A2989 RMK AO1=
KSFM 042235Z 27007KT 10SM CLR M08/M18 A2999 RMK AO1=
KSFZ 042235Z 32005KT 10SM CLR M06/M19 A2996 RMK AO1=
KSGT 042235Z 00000KT 10SM CLR 02/M14 A3060 RMK AO1=
KSGU 042235Z AUTO 09003KT 10SM CLR 20/M02 A3017 RMK AO1=
KSKX 042235Z AUTO 00000KT 10SM CLR 09/M08 A3038 RMK AO1=
KSLG 042235Z AUTO 16005KT 10SM SCT110 04/M12 A3047 RMK AO1=
KSMN 042235Z AUTO 35003KT 9SM CLR 01/M05 A3021 RMK AO1=
KSQI 042235Z AUTO 27004KT 10SM CLR M09/M18 A3056 RMK AO1=
KSUE 042235Z AUTO 24005KT 10SM CLR M11/M19 A3045 RMK AO1=
####018000537####
SARO41 LROM 042230
METAR LRAR 042230Z AUTO 23008KT 2700 BR SCT003 BKN005 06/06 Q1004=
METAR LRBC 042230Z AUTO 00000KT 0150 R34/0500N FG VV001 ///// Q1002=
METAR LRBM 042230Z NIL=
METAR COR LRCL 042230Z VRB02KT 8000 BKN053 04/03 Q1002 0819//95=
METAR LRIA 042230Z NIL=
METAR LROD 042230Z AUTO 20010KT 6000 BKN007 BKN021 08/07 Q1002 REDZ=
METAR LRSB 042230Z NIL=
METAR LRSM 042230Z AUTO 19004KT 9999 BKN023 OVC029 07/05 Q1001 REDZ=
METAR LRSV 042230Z AUTO 18004KT 130V220 6000 OVC090 04/02 Q1001
REUP=
METAR LRTM 042230Z NIL=
####018000087####
SAAF31 KWBC 042200 RRE
METAR
DBBB 042230Z 21010KT 8000 SCT012 28/26 Q1010 NOSIG=
####018000123####
SPXX60 KWBC 042236
SPECI
KNHK 042233Z 29008KT 5SM -SN SCT015 BKN030 BKN060 M01/M07 A3014
     RMK AO2 SNB06 P0000=
####018000155####
SARO42 LROM 042230
METAR LRCV 042230Z AUTO 24004KT 0500 R09/0900V1400U FG VV002 04/04
Q1004=
METAR LRTC 042230Z AUTO 15006KT 9999 BKN170 08/07 Q1003=
####018000270####
SAUS80 KWBC 042236
METAR
K3MW 042234Z AUTO 24007KT 10SM CLR 01/M11 A3043 RMK AO2=
KDVL 042235Z AUTO 18018G25KT 10SM CLR M08/M12 A2990 RMK AO1=
KEAR 042235Z AUTO 18015KT 10SM CLR 06/M08 A3022 RMK AO1=
KGPZ 042235Z AUTO 15010KT 10SM CLR M12/M22 A3027 RMK AO1=
####018000753####
SPUS70 KWBC 042236
SPECI
KDKK 042232Z AUTO 31004KT 1 3/4SM HZ FEW019 SCT025 OVC041 M12/M14
     A3029 RMK AO2 SNE10 P0000=
KDSV 042232Z AUTO 33008KT 8SM SCT026 BKN043 OVC055 M09/M14 A3021
     RMK AO2=
KFIG 042232Z AUTO 28011G19KT 1 1/4SM -SN BKN001 BKN008 OVC019
     M08/M11 A3010 RMK AO2 P0001=
KLPR 042232Z AUTO 26008KT 3SM -SN BKN022 OVC031 M12/M16 A3038 RMK
     AO2 P0000=
PAMB 042230Z AUTO 05009KT 1SM -SN BR OVC003 M11/M12 A2943 RMK AO2
     TSNO SNB02BLSNE02 P0000 $=
K7R3 042228Z 33005KT 10SM SKC 09/M07 A3054 RMK LAST=
PAOO 042230Z AUTO 07015KT 1 1/2SM -SN BR SCT003 OVC010 M13/M16
     A2930 RMK AO2 TSNO P0000 $=
KCLE 042234Z 31009KT 3/4SM -SN SCT009 OVC019 M11/M13 A3039 RMK AO2
     CIG 012 NE P0000 $=
####018000706####
SAAO31 KWBC 042230
METAR
GCFV 042230Z 28017KT 250V330 9999 FEW030 19/12 Q1015=
GCHI NIL=
GCLA NIL=
GCLP 042230Z 23003KT 9999 FEW035 16/08 Q1016 NOSIG=
GCRR 042230Z 22007KT 9999 FEW025 BKN048 16/12 Q1014=
GCTS 042230Z 36006KT 9999 FEW030 16/09 Q1016 NOSIG=
GCXO 042230Z 29025KT 9999 FEW006 SCT012 11/09 Q1016 NOSIG=
GEML NIL=
GMAA NIL=
GMAT NIL=
GMFF 042230Z NIL=
GMFO NIL=
GMME 042230Z 21014KT 5000 SCT013 BKN016 FEW020CB 13/10 Q1005
     RERA=
GMMN 042230Z 22020KT 6000 -RA BKN016 SCT080 12/10 Q1007 NOSIG=
GMMX 042230Z 16005KT 9999 SCT026 SCT100 09/06 Q1009=
GMOY NIL=
GMTA NIL=
GMTN NIL=
GMTT 042230Z 19015KT 5000 SCT008 BKN016 12/11 Q1002 NOSIG=
GSAI NIL=
####018000081####
SAAF33 KWBC 042200 RRB
METAR
FQBR 042200Z /////KT 9999 SCT018 27/23 Q1012=
####018003582####
SAUS70 KWBC 042236 RRA
METAR
KFRM 042235Z 19015KT 10SM CLR M10/M15 A3040 RMK AO1=
KGAD 042235Z AUTO 34011G14KT 10SM CLR M01/M18 A3051 RMK AO1=
KGAI 042235Z 34004KT 10SM SCT044 OVC060 M02/M11 A3016 RMK AO1=
KGBD 042235Z AUTO 15012KT 10SM CLR 09/M09 A3028 RMK AO1=
KGDV 042235Z AUTO 17010KT 10SM CLR 05/M03 A2992 RMK AO1=
KGUC 042235Z AUTO 00000KT 10SM CLR M06/M11 A3046 RMK AO1=
KTVF 042235Z AUTO 16018G25KT 10SM OVC014 M11/M16 A3015 RMK AO1=
KVBT 042235Z AUTO 15003KT 10SM BKN110 03/M14 A3048 RMK AO1=
KVIS 042235Z 34006KT 10SM CLR 23/07 A2991 RMK AO1=
KVWU 042233Z AUTO 13008KT 10SM CLR M10/M19 A3021 RMK AO2=
KWVL 042235Z AUTO 34009KT 10SM CLR M09/M17 A2992 RMK AO1=
KWWD 042235Z AUTO 34006KT 10SM CLR M02/M11 A3012 RMK AO1=
KXVG 042234Z AUTO 17008KT 10SM CLR M12/M21 A3028 RMK AO2=
KYKN 042235Z AUTO 17014G20KT 10SM CLR 00/M09 A3027 RMK AO1=
KGXY 042235Z AUTO 10004KT 10SM CLR 18/M10 A3016 RMK AO1=
KHDN 042235Z 11003KT 10SM CLR M01/M08 A3035 RMK AO1=
KHEZ 042235Z AUTO 04006KT 10SM CLR 05/M12 A3056 RMK AO1=
KHNB 042235Z AUTO 30008KT 10SM CLR M08/M16 A3058 RMK AO1=
KHYS 042235Z AUTO 17009KT 10SM CLR 11/M07 A3025 RMK AO1=
KIWD 042235Z AUTO 00000KT 10SM CLR M12/M18 A3037 RMK AO1=
KJHW 042235Z 31007KT 2 1/2SM OVC025 M13/M18 A3017 RMK AO1=
KKLS 042235Z AUTO 14006KT 10SM CLR 14/01 A2994 RMK AO1=
KLBL 042235Z 25007KT 10SM CLR 19/M06 A3023 RMK AO1=
KLCI 042235Z AUTO 30010G14KT 280V340 10SM CLR M09/M20 A2997 RMK
     AO1=
KLEW 042235Z 32008KT 10SM CLR M08/M19 A2998 RMK AO1=
KLGD 042235Z AUTO 17018G24KT 10SM CLR 08/M05 A3010 RMK AO1=
KLKV 042235Z AUTO 17004KT 10SM CLR 09/01 A3007 RMK AO1=
KMBL 042235Z AUTO 06007KT 10SM CLR M11/M18 A3046 RMK AO1=
KMJX 042235Z AUTO 32004KT 10SM CLR M04/M11 A3007 RMK AO1=
KMKT 042235Z AUTO 17009KT 10SM CLR M09/M15 A3039 RMK AO1=
KMML 042235Z AUTO 16014KT 10SM CLR M07/M13 A3028 RMK AO1=
KMNM 042235Z AUTO 00000KT 10SM CLR M09/M21 A3049 RMK AO1=
KMRF 042235Z AUTO 14009KT 10SM CLR 18/M12 A3038 RMK AO1=
KMTW 042235Z AUTO 26007KT 10SM CLR M12/M19 A3049 RMK AO1=
KMVN 042235Z AUTO 00000KT 10SM CLR M07/M16 A3060 RMK AO1=
KMZH 042235Z AUTO 00000KT 10SM CLR M12/M20 A3036 RMK AO2=
KOKK 042235Z AUTO 28008KT 10SM FEW018 FEW027 M08/M16 A3045 RMK
     AO1=
KOLU 042235Z AUTO 17010KT 10SM CLR 01/M10 A3030 RMK AO1=
KORB 042234Z AUTO 16007KT 10SM CLR M11/M20 A3025 RMK AO2=
KOTG 042235Z AUTO 16011G18KT 10SM CLR M08/M14 A3028 RMK AO1=
KPIB 042235Z AUTO 31005KT 10SM CLR 06/M13 A3053 RMK AO1=
KPQI 042235Z AUTO 33007KT 10SM FEW090 BKN120 M12/M19 A2988 RMK
     AO1=
KPTN 042235Z AUTO 03007KT 10SM CLR 09/M07 A3056 RMK AO1=
KPTV 042235Z AUTO 05005KT 10SM CLR 24/06 A2992 RMK AO1=
KPVC 042235Z 32010KT 10SM BKN038 M05/M12 A3000 RMK AO1=
KPVJ 042234Z AUTO 16006KT 10SM CLR 12/M06 A3044 RMK AO2=
KPWT 042235Z AUTO 02003KT 10SM CLR 12/04 A2997 RMK AO1=
KRKD 042235Z AUTO 00000KT 10SM CLR M11/M16 A2996 RMK AO1=
KRUT 042235Z AUTO 34004KT 10SM CLR M12/M19 A3004 RMK AO1=
KSDY 042235Z AUTO 27006KT 10SM CLR 06/M01 A2989 RMK AO1=
KSFM 042235Z 27007KT 10SM CLR M08/M18 A2999 RMK AO1=
KSFZ 042235Z 32005KT 10SM CLR M06/M19 A2996 RMK AO1=
KSGT 042235Z 00000KT 10SM CLR 02/M14 A3060 RMK AO1=
KSGU 042235Z AUTO 09003KT 10SM CLR 20/M02 A3017 RMK AO1=
KSKX 042235Z AUTO 00000KT 10SM CLR 09/M08 A3038 RMK AO1=
KSLG 042235Z AUTO 16005KT 10SM SCT110 04/M12 A3047 RMK AO1=
KSMN 042235Z AUTO 35003KT 9SM CLR 01/M05 A3021 RMK AO1=
KSQI 042235Z AUTO 27004KT 10SM CLR M09/M18 A3056 RMK AO1=
KSUE 042235Z AUTO 24005KT 10SM CLR M11/M19 A3045 RMK AO1=
####018000028####
SAAS31 KWBC 042230
NIL=
####018000426####
SAAS33 KWBC 042230
METAR
VBRR NIL=
VDPP 042230Z 21002KT 7000 FEW020 23/22 Q1009=
VDSR NIL=
VLVT NIL=
VTBA NIL=
VTBD NIL=
VTBU NIL=
VTCC NIL=
VTSP NIL=
VTSS NIL=
VVDN NIL=
VVGL NIL=
VVNB NIL=
VVTS NIL=
WBGG NIL=
WBKK NIL=
WMAM NIL=
WMKJ NIL=
WMKK NIL=
WMKP NIL=
WMSA NIL=
WPDL NIL=
WPEC NIL=
WSAP NIL=
WSSL NIL=
WSSS 042230Z VRB02KT 9999 FEW018 BKN160 24/23 Q1010 NOSIG=
####018000028####
SAAW33 KWBC 042230
NIL=
####018003707####
SAUS70 KWBC 042236
METAR
KOAJ 042235Z AUTO 32008G16KT 10SM CLR 02/M14 A3017 RMK AO2 PWINO
     FZRANO RVRNO=
KOCF 042235Z AUTO 31011G14KT 10SM CLR 07/M13 A3036 RMK AO1=
KRKR 042233Z AUTO 00000KT 10SM CLR 08/M07 A3051 RMK AO2=
KSOP 042235Z AUTO 32006G17KT 10SM CLR 00/M15 A3022 RMK AO1=
KSZT 042230Z AUTO 00000KT 10SM CLR M01/M01 A3010 RMK AO2=
KUDG 042235Z AUTO 31012KT 10SM CLR 01/M12 A3026 RMK AO1=
K04V 042232Z AUTO 14006KT 10SM CLR 02/M06 A3041 RMK AO2=
KAEG 042235Z AUTO 14007KT 10SM CLR 12/M13 A3035 RMK AO1=
KDUA 042235Z AUTO 18008KT 10SM CLR 12/M06 A3048 RMK AO2=
KGCM 042235Z AUTO 17007KT 10SM CLR 06/M10 A3049 RMK AO2=
KMKS 042235Z AUTO 31004KT 5SM HZ CLR 02/M13 A3028 RMK AO2=
KAIT 042233Z AUTO 16009KT 10SM CLR M12/M17 A3032 RMK AO2=
KBBB 042233Z AUTO 18013G17KT 10SM CLR M08/M13 A3028 RMK AO2=
KFFM 042233Z AUTO 15017G20KT 10SM CLR M11/M16 A3024 RMK AO2=
KFGN 042234Z AUTO 15018KT 10SM CLR M14/M17 A3013 RMK AO2=
KGDB 042230Z AUTO 13015KT 10SM CLR M05/M13 A3031 RMK AO2
     T10501134=
KGHW 042233Z AUTO 14012KT 10SM CLR M10/M16 A3027 RMK AO2=
KMGG 042235Z AUTO 14008KT 10SM CLR M10/M16 A3038 RMK AO2
     T11051165=
KMOX 042234Z AUTO 15018KT 10SM CLR M09/M13 A3024 RMK AO2=
KMWM 042233Z AUTO 16014KT 10SM CLR M09/M14 A3032 RMK AO2=
KPNM 042233Z AUTO 16007KT 10SM CLR M11/M19 A3038 RMK AO2=
KPQN 042233Z AUTO 20017G22KT 10SM CLR M07/M11 A3023 RMK AO2=
KPWC 042233Z AUTO 16009KT 10SM CLR M13/M21 A3030 RMK AO2=
KTWM 042233Z AUTO 19005KT 10SM CLR M13/M19 A3035 RMK AO2=
KULM 042231Z AUTO 16011KT 10SM CLR M09/M16 A3037 RMK AO2=
KWWR 042234Z AUTO 20019KT 10SM CLR 17/M07 A3025 RMK AO2=
KAFJ 042235Z AUTO 30006KT 2 1/2SM SCT016 BKN022 OVC039 M09/M11
     A3030 RMK AO1=
KAIZ 042235Z AUTO 17003KT 10SM CLR M01/M18 A3054 RMK AO1=
KAQP 042233Z AUTO 15011KT 10SM CLR M09/M12 A3027 RMK AO2=
KARG 042235Z AUTO 11006KT 10SM CLR M01/M13 A3059 RMK AO1=
KAUO 042235Z AUTO 32012G18KT 10SM CLR 01/M14 A3043 RMK AO1=
KAWO 042235Z AUTO 00000KT 10SM CLR 15/03 A2994 RMK AO1=
KBFW 042233Z AUTO 21004KT 10SM CLR M12/M19 A3036 RMK AO2=
KBHB 042235Z AUTO 00000KT 10SM CLR M11/M14 A2995 RMK AO1=
KBKX 042235Z AUTO 17015G20KT 10SM CLR M06/M12 A3024 RMK AO1=
KBLM 042235Z AUTO 31005KT 10SM CLR M04/M13 A3005 RMK AO1=
KBTP 042235Z AUTO 32007KT 10SM BKN026 OVC032 M10/M15 A3024 RMK
     AO1=
KBVX 042235Z AUTO 11004KT 10SM CLR 03/M17 A3056 RMK AO1=
KCGZ 042235Z AUTO 24006KT 10SM CLR 27/M06 A3008 RMK AO1=
KCIU 042235Z AUTO 33006KT 10SM CLR M18/M23 A3043 RMK AO1=
KCOD 042235Z 00000KT 10SM CLR 06/M04 A3010 RMK AO1=
KCOE 042235Z AUTO 03006KT 10SM CLR 01/00 A3010 RMK AO1=
KCVN 042235Z 20014G17KT 10SM CLR 17/M10 A3034 RMK AO1=
KCVO 042235Z AUTO 00000KT 10SM CLR 12/05 A2997 RMK AO1=
KCWI 042235Z AUTO 00000KT 10SM CLR M11/M17 A3057 RMK AO1=
KDYR 042235Z AUTO 32006KT 10SM CLR M03/M14 A3061 RMK AO1=
KEEN 042235Z AUTO 35011G14KT 10SM CLR M08/M20 A3002 RMK AO1=
KEHR 042235Z AUTO 31007KT 290V010 10SM CLR M08/M15 A3060 RMK
     AO1=
KENV 042235Z AUTO 08004KT 10SM CLR 05/M02 A3027 RMK AO1=
KESC 042235Z AUTO 01004KT 10SM CLR M10/M18 A3047 RMK AO1=
KETH 042234Z AUTO 14013KT 10SM CLR M08/M12 A3024 RMK AO2=
KEUL 042235Z AUTO 14008KT 10SM CLR 08/M03 A3023 RMK AO1=
KEWK 042235Z AUTO 19013KT 10SM CLR 05/M12 A3034 RMK AO1=
KFAM 042235Z AUTO 36003KT 10SM CLR M04/M16 A3055 RMK AO1=
KFKL 042235Z AUTO 10SM BKN022 M13/M18 A3023 RMK AO1=
KFLP 042235Z AUTO 09003KT 10SM SCT100 02/M17 A3053 RMK AO1=
KFNL 042235Z AUTO 15008KT 10SM CLR 18/M12 A3016 RMK AO1=
KFOD 042235Z AUTO 18008KT 10SM CLR M08/M15 A3040 RMK AO2 PWINO
     FZRANO RVRNO=
KFOZ 042233Z AUTO 17009KT 10SM CLR M11/M20 A3025 RMK AO2=
####018000098####
SAAS33 KWBC 042200 RRD
METAR
VTBU 042200Z 00000KT 4000 BR FEW020 SCT300 24/23 Q1010 A 2984=
####018000191####
SAAS32 KWBC 042230
METAR
RKPC NIL=
RKPK NIL=
RKSS NIL=
VHHH 042230Z 07006KT 7000 NSC 18/14 Q1018 NOSIG=
VMMC 042230Z 35002KT 9000 SKC 14/12 Q1018 NOSIG=
ZJSY NIL=
ZKPY NIL=
####018000028####
SAAW31 KWBC 042230
NIL=
####018000599####
SACI32 KWBC 042200 RRC
METAR
ZBAA 042230Z 01002MPS CAVOK M07/M11 Q1025 NOSIG=
ZBTJ 042230Z 36002MPS 2500 BR SKC M05/M05 Q1024 NOSIG=
ZBYN 042230Z 00000MPS 2000 BR NSC M06/M07 Q1021 NOSIG=
ZGGG 042230Z 00000MPS 2500 BR SKC 14/11 Q1018 NOSIG=
ZSHC 042230Z 03002MPS 0600 R07/0750V1200N FG SCT005 BKN026 07/06
     Q1024 NOSIG=
ZSPD 042230Z 05002MPS 350V110 3500 BR BKN030 08/06 Q1023 NOSIG=
ZSSS 042230Z 33001MPS 2100 BR OVC026 09/08 Q1023 NOSIG=
ZWWW 042230Z VRB01MPS 0700 R07/1600N FZFG BKN009 M06/M07 Q1024
     NOSIG=
ZYTL 042230Z 34007MPS 3000 BR SKC 00/M03 Q1023 NOSIG=
####018000778####
SAAW34 KWBC 042215 RRC
METAR
UAAA 042230Z 22002MPS 2900 -SN BR OVC017 M01/M02 Q1028 734/0537
     234/0542 NOSIG=
UACC 042230Z 22012MPS 1100 R22/P1500 SN BLSN OVC012 M15/M16 Q1014
     228/0060 TEMPO 23015MPS 0600 SN BLSN RMK QFE729/0973=
UAKK 042230Z NIL=
UAOO 042230Z NIL=
UARR 042230Z NIL=
UATE 042230Z 12008MPS 9999 OVC027 01/M00 Q1024 NOSIG RMK
     QFE766/1021 120///70=
UATG 042230Z 16003MPS 9000 NSC M12/M12 Q1026 14CLRD70 NOSIG RMK
     QFE771/1028=
UATT 042230Z 18004MPS 5000 -SN NSC M14/M16 Q1021 13490148 NOSIG
     RMK QFE746/0995=
UAUU 042230Z 27006MPS CAVOK M11/M14 Q1008 33CLRD60 NOSIG RMK
     QFE741/0988=
UTDD 042230Z 28001MPS 1800 SN BR BKN004 OVC030 M01/M01 Q1027
     09690338 TEMPO 1000 BR SN RMK QBB120 QFE701/0935=
####018000970####
SAEE31 KWBC 042230
METAR
EPGD 042230Z VRB02KT 2200 BR FEW002 BKN026 M02/M02 Q1000
     R11/190095=
EPKK 042230Z 06001KT 1800 -RA BR BKN013 OVC016 02/02 Q1001=
EPKT 042230Z 08002KT 0300 R27/0650N R09/0550N DZ FG VV001 02/01
     Q1000=
EPPO 042230Z 00000KT 1200 R29/P1500 R11/0800 BR OVC015 01/00 Q1001
     R11/190095=
EPQT NIL=
EPRZ 042230Z 00000KT 0900 R27/0450 R09/0500 -RA FG BKN020 OVC040
     02/02 Q1000=
EPSC 042230Z 15004KT 1300 R31/1500 BR SCT002 BKN003 M00/M00
     Q1000=
EPWA 042230Z 26003KT 2500 BR BKN003 01/00 Q1001 R88/2///95 BECMG
     1500 BR=
EYSA NIL=
UKBB 042230Z 12001MPS 0450 R36R/0550N FG VV001 00/00 Q1002
     86820547 NOSIG=
UKKK NIL=
UKLL 042230Z 00000MPS 0200 R13/0450D -RA FG VV003 02/01 Q1001
     13821055 NOSIG=
UKOO 042230Z 22004MPS CAVOK 07/06 Q1003 16290054 NOSIG=
UMII NIL=
UMMM NIL=
UMMS 042230Z 00000MPS 0250 R31/0750N FZFG VV001 M00/M00 Q1001
     31820335 NOSIG RMK QBB050=
####018001483####
SAEM31 KWBC 042230
METAR
KQLA NIL=
KQLH NIL=
KQLX NIL=
LATI NIL=
LDDU 042230Z 10004KT 8000 -RA SCT013 BKN030 11/10 Q1008=
LDDV NIL=
LDKT NIL=
LDOS 042230Z 20006KT CAVOK 05/04 Q1003=
LDPL 042230Z VRB03KT 6000 FEW007 SCT045 08/07 Q1005=
LDRI 042230Z NIL=
LDSP 042230Z VRB03KT 9999 FEW062 BKN075 09/07 Q1007=
LDZA 042230Z 23006KT 5000 BR NSC 01/01 Q1003 NOSIG=
LDZD 042230Z VRB01KT 8000 SCT020 BKN060 08/08 Q1006=
LJLJ NIL=
LJMB NIL=
LJPZ NIL=
LKIB NIL=
LKMT 042230Z 00000KT 0300 R22/0450D R04/0400N FG OVC002 03/02
     Q1001 NOSIG=
LKPR 042230Z VRB01KT 4500 BR OVC003 M01/M01 Q1000 TEMPO 3000 BR
     OVC002=
LKTB 042230Z 00000KT 0500 R28/0900D RA FG SCT001 OVC010 03/02
     Q1000 R28/29//95 NOSIG=
LKTT NIL=
LOAV NIL=
LOIH NIL=
LOIJ NIL=
LOLW NIL=
LOWG NIL=
LOWH NIL=
LOWI NIL=
LOWK NIL=
LOWL NIL=
LOWS NIL=
LOWW NIL=
LOWZ NIL=
LQSA NIL=
LWOH 042230Z 18003KT 9999 -RA OVC040 08/06 Q1009=
LWSK 042230Z 14001KT 9999 FEW050 SCT070 06/05 Q1007 NOSIG=
LYBE NIL=
LYDU NIL=
LYLJ NIL=
LYMB NIL=
LYNI NIL=
LYOH NIL=
LYOS NIL=
LYPG NIL=
LYPL NIL=
LYPR NIL=
LYPZ NIL=
LYRI NIL=
LYSA NIL=
LYSK NIL=
LYSP NIL=
LYTI NIL=
LYTV NIL=
LYZA NIL=
LYZD NIL=
LZIB 042230Z 15001KT 0100 R31/0600N R22/0450N FG BKN002 03/03
     Q1001=
LZKZ 042230Z 00000KT 5000 -RA BR BKN012 OVC020 04/03 Q1000=
LZTT 042230Z VRB01KT 1800 R27/0900VP2000D -RA BR BKN003 OVC023
     01/01 Q0999=
####018000640####
SAAW32 KWBC 042230
METAR
OEDF NIL=
OEDR NIL=
OEJN NIL=
OEMA NIL=
OERK NIL=
OIAA NIL=
OIAW NIL=
OIBB NIL=
OIBK NIL=
OICC NIL=
OICK NIL=
OICS NIL=
OIFM NIL=
OIFP NIL=
OIGG NIL=
OIHH NIL=
OIII NIL=
OIIM NIL=
OIIP NIL=
OIIX NIL=
OIKB NIL=
OIKK NIL=
OIMM NIL=
OINN NIL=
OINR NIL=
OINZ NIL=
OISM NIL=
OISS NIL=
OITL NIL=
OITR NIL=
OITT NIL=
OIYY NIL=
OIZH NIL=
OKBK 042230Z 32003KT 7000 NSC 12/00 Q1022 NOSIG=
ORBI NIL=
ORBS NIL=
ORMM NIL=
OSAP NIL=
OSDI NIL=
OSLK NIL=
OTBD 042230Z 31008KT 280V350 CAVOK 16/10 Q1020 NOSIG=
OTBH NIL=
OTMA NIL=
OTMS NIL=
####018001005####
SAFR31 KWBC 042230
METAR
LFAC NIL=
LFAT NIL=
LFBD 042230Z 16012KT 9999 FEW043 11/04 Q0989 NOSIG=
LFBH 042230Z AUTO 16011KT 9999NDV NSC 10/06 Q0987=
LFBI 042230Z AUTO 17013KT 9999NDV -RA FEW033 09/03 Q0989=
LFBO 042230Z 15015KT 120V180 CAVOK 08/05 Q0992 NOSIG=
LFBP 042230Z AUTO 26006KT 200V330 9999NDV NSC 09/03 Q0992=
LFBT 042230Z NIL=
LFBZ 042230Z AUTO 21009G19KT 160V300 9999NDV NSC 11/02 Q0991=
LFGJ 042230Z AUTO 05004KT 4000NDV BR NSC M00/M01 Q0995=
LFKB 042230Z 20004KT 9999 FEW030 BKN080 09/08 Q1004 NOSIG=
LFKC 042230Z NIL=
LFKJ 042230Z 05005KT 9999 BKN016 11/10 Q1005 NOSIG=
LFLB 042230Z AUTO 00000KT 4200NDV BR NCD M00/M01 Q0997=
LFLC 042230Z NIL=
LFLL 042230Z 16008KT CAVOK 06/03 Q0996 NOSIG=
LFLS 042230Z AUTO 18015KT 9999NDV NSC 10/02 Q0996=
LFLY 042230Z AUTO 13005KT 090V170 9999NDV NCD 06/04 Q0996=
LFMD 042230Z AUTO 02003KT 350V060 3700NDV -RA BR BKN023 BKN049
     BKN076 09/09 Q1003=
LFMH 042230Z AUTO 22002KT 9999NDV BKN040/// 02/01 Q0994=
####018000944####
SAEE32 KWBC 042230
METAR
LBBG 042230Z 29003MPS 5000 BR SKC 08/08 Q1006 NOSIG 9919//95=
LBPD 042230Z 19002MPS 1000 R30/P1500N R12/P1500N BR SKC 04/04
     Q1006 NOSIG=
LBSF 042230Z 14002MPS 110V170 8000 SCT060 OVC100 08/04 Q1005
     NOSIG=
LBWN 042230Z 35002MPS CAVOK 08/08 Q1005 0929//94 NOSIG=
LHBP 042230Z 22007KT 2300 BR BKN002 OVC007 05/05 Q1002 NOSIG=
LHTA NIL=
LRAR 042230Z AUTO 23008KT 2700 BR SCT003 BKN005 06/06 Q1004=
LRBS 042230Z 22009KT 190V250 1100 R07/1400VP2000U R25/P2000 BR
     BKN001 OVC002 05/05 Q1004 0719//95 NOSIG=
LRCK 042230Z 24008KT CAVOK 08/07 Q1004 NOSIG=
LROP 042230Z 23010KT 0500 R08R/1100U R08L/1100U FG FEW000 OVC001
     05/05 Q1004 8829//95 NOSIG=
LRTC 042230Z AUTO 15006KT 9999 BKN170 08/07 Q1003=
LRTM 042230Z NIL=
LRTR 042230Z 21002KT 5000 BR OVC043 07/07 Q1003 11290095 NOSIG=
LUCC NIL=
LUKK 042230Z 30002KT 5000 BR FEW013 06/05 Q1001 08290156 NOSIG=
LURN NIL=
####018000127####
SAFR32 KWBC 042130 CCA
METAR
LFST 042130Z 27003KT 0800 R23/P1500 R05/0700VP1500U FZFG SCT006
     M01/M01 Q0998 NOSIG=
####018001500####
SAFR32 KWBC 042230
METAR
LFML 042230Z 14012KT 9999 FEW015 12/09 Q1000 NOSIG=
LFMN 042230Z 35007KT 9999 FEW010 SCT030 09/07 Q1003=
LFMP 042230Z AUTO VRB02KT 8000NDV NSC 05/04 Q0995=
LFMT 042230Z NIL=
LFOB 042230Z AUTO 09005KT 4500NDV BR NSC 01/00 Q0991=
LFOH 042230Z AUTO 11011KT 4100NDV -SNRA BR FEW014/// SCT020///
     OVC041/// //////TCU 03/01 Q0988=
LFOT 042230Z NIL=
LFPB 042230Z AUTO 06004KT 8000NDV NSC 02/01 Q0991=
LFPG 042230Z 14008KT 8000 NSC 03/01 Q0991 NOSIG=
LFPN 042230Z AUTO 10008KT 5000NDV -RA BR FEW025 02/01 Q0991=
LFPO 042230Z VRB02KT 9999 -RA SCT020 OVC090 03/02 Q0991 NOSIG=
LFQQ 042230Z NIL=
LFRB 042230Z NIL=
LFRC 042230Z AUTO 13011KT 1400NDV R28/P1500 -RA BR OVC002 03/02
     Q0986=
LFRD 042230Z AUTO 14007KT 7000NDV -RA FEW009 06/05 Q0985=
LFRG 042230Z AUTO 15007KT 090V220 7000NDV OVC040/// //////TCU
     03/03 Q0988=
LFRK 042230Z AUTO 13005KT 3000NDV -SNRA BR BKN030/// BKN035///
     //////TCU 02/02 Q0988=
LFRN 042230Z AUTO 14009KT 9999NDV NSC 05/04 Q0986=
LFRO 042230Z AUTO 14007KT 6000NDV FEW006 OVC038 06/05 Q0984=
LFRQ 042230Z AUTO 15002KT 1200NDV R28/P2000 BR FEW038 SCT210 05/04
     Q0983=
LFRS 042230Z NIL=
LFRT 042230Z AUTO 14007KT 9999NDV FEW014 SCT039 06/05 Q0984=
LFRZ 042230Z AUTO 13005KT 9999NDV NSC 06/04 Q0986=
LFSB 042230Z NIL=
LFSF NIL=
LFSN NIL=
LFSR 042230Z AUTO 16010KT 9999NDV NSC 03/01 Q0993=
LFST 042230Z NIL=
LFTW 042230Z AUTO 12010KT 9000NDV NSC 09/09 Q0998=
LFVP NIL=
####018000244####
SAIE31 KWBC 042230
METAR
EICK 042230Z 03015KT 9999 FEW007 BKN009 BKN060 02/01 Q0990
     NOSIG=
EIDB NIL=
EIDW 042230Z 36007KT 9999 FEW022 BKN030 02/00 Q0992 NOSIG=
EIKN NIL=
EINN 042230Z 35006KT 9999 FEW030 00/M00 Q0993 NOSIG=
####018000028####
SAJP31 KWBC 042230
NIL=
####018000028####
SAIQ32 KWBC 042230
NIL=
####018000028####
SAJP42 KWBC 042230
NIL=
####018000028####
SAIQ31 KWBC 042230
NIL=
####018000075####
SAIY31 KWBC 042220 RRB
METAR
LIBD 042220Z 18005KT CAVOK 09/03 Q1008=
####018001091####
SAFR41 KWBC 042230
METAR
LFAF NIL=
LFBA 042230Z AUTO 23003KT 150V300 9999NDV -RA NSC 08/05 Q0993=
LFBC 042230Z AUTO 18014KT 9999NDV // NSC 10/04 Q0989=
LFBL 042230Z AUTO 19012KT 9999NDV -RA FEW007 07/03 Q0991=
LFBM NIL=
LFKF 042230Z AUTO 22007KT 180V260 9999NDV OVC023/// 13/11
     Q1005=
LFLD NIL=
LFLV NIL=
LFOE 042230Z AUTO 09007KT 060V120 4300NDV // BKN040/// BKN047///
     OVC056/// 02/01 Q0990=
LFOP 042230Z AUTO 13013KT 4900NDV -RA BR FEW049/// BKN058///
     BKN070/// 01/00 Q0990=
LFPB 042230Z AUTO 06004KT 8000NDV NSC 02/01 Q0991=
LFPG 042230Z 14008KT 8000 NSC 03/01 Q0991 NOSIG=
LFPV NIL=
LFQB NIL=
LFQQ 042230Z NIL=
LFRH 042230Z AUTO 18009KT 9999NDV FEW002 SCT023 BKN033 08/06
     Q0984=
LFRM NIL=
LFSC NIL=
LFSD 042230Z AUTO 02003KT 0150NDV R36/0550N FG VV/// 00/M00
     Q0996=
LFSI 042230Z AUTO 13006KT 9999NDV // NCD 04/03 Q0994=
LFSL NIL=
LFSO 042230Z AUTO 16007KT 8000NDV // NSC 02/02 Q0995=
LFSX 042230Z AUTO 07005KT 5000NDV // NCD 00/M00 Q0996=
LFTH 042230Z AUTO 19006KT 9999NDV BKN015 BKN021 12/10 Q1002=
####018000028####
SAJP43 KWBC 042230
NIL=
####018000028####
SAJP41 KWBC 042230
NIL=
####018000111####
SAKO31 KWBC 042200 RRA
METAR
RKSI 042230Z 19003KT 2500 BR FEW015 BKN030 OVC080 04/02 Q1021
     NOSIG=
####018000235####
SALJ31 LJLJ 042230
METAR LJLJ 042230Z 00000KT 2000 BR FEW001 OVC025 00/00 Q1003 NOSIG=
METAR LJMB 042230Z VRB02KT 0400 R33/0300V0500N  FZFG SKC M02/M03 
Q1001=
METAR LJPZ 042230Z AUTO 15009KT 120V190 9999NDV NSC 10/09 Q1004=
####018000028####
SAJP44 KWBC 042230
NIL=
####018001006####
SARA31 KWBC 042200 RRI
METAR
UAAA 042230Z 22002MPS 2900 -SN BR OVC017 M01/M02 Q1028 734/0537
     234/0542 NOSIG=
UACC 042230Z 22012MPS 1100 R22/P1500 SN BLSN OVC012 M15/M16 Q1014
     228/0060 TEMPO 23015MPS 0600 SN BLSN RMK QFE729/0973=
UAFM 042230Z 29003MPS 4100 SN BR OVC005 M02/M02 Q1029 R26/690542
     TEMPO 1500 SN BR OVC003=
UAFO 042230Z NIL=
UAOO 042230Z NIL=
UARR 042230Z NIL=
UATE 042230Z 12008MPS 9999 OVC027 01/M00 Q1024 NOSIG RMK
     QFE766/1021 120///70=
UATG 042230Z 16003MPS 9000 NSC M12/M12 Q1026 14CLRD70 NOSIG RMK
     QFE771/1028=
UATT 042230Z 18004MPS 5000 -SN NSC M14/M16 Q1021 13490148 NOSIG
     RMK QFE746/0995=
UMGG 042230Z 15002MPS 2500 BR OVC002 M02/M02 Q1003 R11/190052
     TEMPO 2000 RMK QBB070=
UMMS 042230Z 00000MPS 0250 R31/0750N FZFG VV001 M00/M00 Q1001
     31820335 NOSIG RMK QBB050=
UTDD 042230Z 28001MPS 1800 SN BR BKN004 OVC030 M01/M01 Q1027
     09690338 TEMPO 1000 BR SN RMK QBB120 QFE701/0935=
UTDL 042230Z NIL=
####018000417####
SAPO31 KWBC 042200 RRC
METAR
LPFR 042230Z 24012KT 9999 FEW018 FEW020CB SCT030 14/08 Q0999=
LPMA 042230Z VRB01KT 9999 SCT018 14/06 Q1008 RS0804KT 051507KT
     232704KT=
LPPR 042230Z 22007KT 180V270 9999 FEW015 FEW020CB BKN027 09/07
     Q0994=
LPPS 042230Z 31019G30KT 9999 SCT015 FEW018CB SCT030 14/07
     Q1007=
LPPT 042230Z 21005KT 180V250 9999 -SHRA FEW018 FEW029TCU 11/07
     Q0997 NOSIG=
####018000132####
SARS33 KWBC 042200 RRB
METAR
USCC 042200Z 28005MPS 5000 -SHSN SCT020CB OVC070 M08/M11 Q1004
     NOSIG RMK QFE733 88400250=
####018001065####
SAXX99 KWBC 042200 RRX
METAR
EPLL 042230Z 00000KT 1800 BR OVC015 01/01 Q1001=
HTSU 042200Z 00000KT 9999 SCT016 FEW018CB BKN070 16/16 Q1022=
LFBE 042230Z AUTO 13014KT 9999NDV -RA FEW025/// SCT036/// //////CB
     09/06 Q0991=
LFBG 042230Z AUTO 17012KT 9999NDV // NCD 09/04 Q0989=
LFCR 042230Z AUTO 14017KT 9999NDV NSC 05/03 Q0993=
LFJL 042230Z AUTO 13012KT 7000NDV NSC 02/01 Q0996=
LFLX 042230Z AUTO 16006KT 9999NDV NSC 07/01 Q0990=
LFMI 042230Z AUTO 15012KT 9999NDV NSC 12/09 Q0999=
LFMK 042230Z AUTO 10012KT 9000NDV FEW007/// OVC017/// 07/05
     Q0994=
LFMO 042230Z AUTO 12008KT 9999NDV // NCD 10/08 Q0999=
LFMU 042230Z NIL=
LFMV 042230Z AUTO 14016KT 9999NDV NSC 11/08 Q0999=
LFOJ 042230Z AUTO 14007KT 9999NDV // NCD 05/02 Q0990=
LFOK 042230Z AUTO 15014KT 9999NDV NCD 02/01 Q0993=
LFQI 042230Z AUTO 10007KT 2800NDV // NCD 00/00 Q0993=
LQBK 042230Z 31002KT 0300 FG NSC 02/02 Q1003 NOSIG=
UDYZ 042230Z 00000MPS 2300 BR BKN100 M02/M03 Q1024 09000070
     NOSIG=
ZYTX 042230Z 35003MPS 3000 BR OVC033 M02/M04 Q1024 NOSIG=
####018001356####
SASP31 KWBC 042230
METAR
LEAL 042230Z VRB01KT CAVOK 09/08 Q1002 NOSIG=
LEAM 042230Z NIL=
LEAS 042230Z 24012KT 200V280 9999 SCT043 BKN050 10/02 Q0988
     NOSIG=
LEBB 042230Z 20013G25KT 160V250 9999 FEW020 SCT060 13/M00 Q0990
     NOSIG=
LEBL 042230Z 22004KT 160V280 9999 FEW025 10/08 Q1000 NOSIG=
LECO 042230Z NIL=
LEGE 042230Z 19012KT CAVOK 08/04 Q0998=
LEGR 042230Z NIL=
LEIB 042230Z 24012KT 200V260 CAVOK 14/11 Q1002 NOSIG=
LEJR 042230Z NIL=
LELC 042230Z NIL=
LELL NIL=
LEMD 042230Z 19010KT 9999 FEW020 BKN050 05/03 Q0999 WS R18L WS
     R18R NOSIG=
LEMG 042230Z 24006KT 200V290 9999 -RA FEW015 BKN030 13/08 Q1003
     RERA NOSIG=
LEMH 042230Z NIL=
LEPA 042230Z 22005KT 9999 SCT022 13/10 Q1003 NOSIG=
LEPP 042230Z 16012KT 130V210 9999 FEW025 07/02 Q0994=
LERS 042230Z 03003KT 010V080 9999 FEW050 08/06 Q0999=
LESO 042230Z NIL=
LEST 042230Z 21005KT 160V250 9999 FEW010 SCT025 05/05 Q0990
     NOSIG=
LEVC 042230Z 28012KT 9999 FEW030 SCT050 11/04 Q1000 NOSIG=
LEVD NIL=
LEVS NIL=
LEVT 042230Z 23017G34KT 190V280 9999 FEW035 SCT043 07/01 Q0993=
LEVX 042230Z 19005KT 130V230 3000 0700SE R20/P2000 R02/0750V2000D
     BCFG SCT001 SCT018 BKN040 07/06 Q0992=
LEXJ NIL=
LEZG 042230Z 23010KT 9999 FEW035 08/02 Q0996=
LEZL 042230Z 17007KT 4000 SHRA FEW010CB BKN030 11/10 Q1001
     NOSIG=
####018000264####
SATS31 KWBC 042230
METAR
DTMB 042230Z 12002KT 9999 FEW026 SCT200 12/10 Q1011 NOSIG=
DTTA 042230Z 15001KT 9999 FEW030 11/09 Q1010 NOSIG=
DTTB NIL=
DTTD NIL=
DTTG NIL=
DTTJ NIL=
DTTK NIL=
DTTL NIL=
DTTN NIL=
DTTR NIL=
DTTX NIL=
DTTZ NIL=
####018000699####
SAUR31 KWBC 042150 RRA
METAR
UKBB 042230Z 12001MPS 0450 R36R/0550N FG VV001 00/00 Q1002
     86820547 NOSIG=
UKCC 042230Z 15006MPS 090V180 CAVOK 01/M01 Q1009 08150240
     NOSIG=
UKDD 042230Z 17005MPS 4800 BR SCT004 BKN100 03/02 Q1005 08190060
     NOSIG=
UKDE 042230Z 15005MPS 120V180 CAVOK 04/04 Q1007 20190065 NOSIG=
UKDR 042230Z 12004MPS 9999 OVC030 03/03 Q1003 18290255 NOSIG=
UKFF 042230Z 17006MPS CAVOK 09/00 Q1007 19010070 NOSIG=
UKHH 042230Z 18005MPS 150V210 3000 BR OVC003 02/02 Q1006 08950332
     TEMPO 1200 OVC004=
UKLL 042230Z 00000MPS 0200 R13/0450D -RA FG VV003 02/01 Q1001
     13821055 NOSIG=
UKOO 042230Z 22004MPS CAVOK 07/06 Q1003 16290054 NOSIG=
####018000406####
SAPO31 LPMG 042230
METAR LPFR 042230Z 24012KT 9999 FEW018 FEW020CB SCT030 14/08 Q0999=
METAR LPMA 042230Z VRB01KT 9999 SCT018 14/06 Q1008 RS0804KT 051507KT
232704KT=
METAR LPPR 042230Z 22007KT 180V270 9999 FEW015 FEW020CB BKN027 09/07
Q0994=
METAR LPPS 042230Z 31019G30KT 9999 SCT015 FEW018CB SCT030 14/07
Q1007=
METAR LPPT 042230Z 21005KT 180V250 9999 -SHRA FEW018 FEW029TCU 11/07
Q0997 NOSIG=
####018000189####
SAUS53 KWBC 042200 RRI
METAR
KBIE 042230Z AUTO 17014G17KT 10SM CLR 02/M11 A3034=
KONL 042230Z AUTO 17012KT 10SM CLR 02/M06 A3017=
KUDG 042235Z AUTO 31012KT 10SM CLR 01/M12 A3026=
####018001847####
SAEU KAWN 042200 RRX
METAR LFBC 042230Z AUTO 18014KT 9999NDV // NSC 10/04 Q0989=
METAR LFBG 042230Z AUTO 17012KT 9999NDV // NCD 09/04 Q0989=
METAR LFLY 042230Z AUTO 13005KT 090V170 9999NDV NCD 06/04 Q0996=
METAR LFMO 042230Z AUTO 12008KT 9999NDV // NCD 10/08 Q0999=
METAR LFOE 042230Z AUTO 09007KT 060V120 4300NDV // BKN040/// BKN047///
      OVC056/// 02/01 Q0990=
METAR LFOH 042230Z AUTO 11011KT 4100NDV -SNRA BR FEW014/// SCT020///
      OVC041/// //////TCU 03/01 Q0988=
METAR LFOJ 042230Z AUTO 14007KT 9999NDV // NCD 05/02 Q0990=
METAR LFQI 042230Z AUTO 10007KT 2800NDV // NCD 00/00 Q0993=
METAR LFSD 042230Z AUTO 02003KT 0150NDV R36/0550N FG VV/// 00/M00 Q0996=
METAR LFSI 042230Z AUTO 13006KT 9999NDV // NCD 04/03 Q0994=
METAR LFSO 042230Z AUTO 16007KT 8000NDV // NSC 02/02 Q0995=
METAR LFSX 042230Z AUTO 07005KT 5000NDV // NCD 00/M00 Q0996=
METAR LFTW 042230Z AUTO 12010KT 9000NDV NSC 09/09 Q0998=
METAR LKMT 042230Z 00000KT 0300 R22/0450D R04/0400N FG OVC002 03/02
      Q1001 NOSIG RMK REG QNH 0995=
METAR LPFR 042230Z 24012KT 9999 FEW018 FEW020CB SCT030 14/08 Q0999=
METAR LPPR 042230Z 22007KT 180V270 9999 FEW015 FEW020CB BKN027 09/07
      Q0994=
METAR LPPS 042230Z 31019G30KT 9999 SCT015 FEW018CB SCT030 14/07 Q1007=
METAR LPPT 042230Z 21005KT 180V250 9999 -SHRA FEW018 FEW029TCU 11/07
      Q0997 NOSIG=
METAR LQBK 042230Z 31002KT 0300 FG NSC 02/02 Q1003 NOSIG=
METAR LRAR 042230Z AUTO 23008KT 2700 BR SCT003 BKN005 06/06 Q1004=
METAR LRBC 042230Z AUTO 00000KT 0150 R34/0500N FG VV001 ///// Q1002=
METAR COR LRCL 042230Z VRB02KT 8000 BKN053 04/03 Q1002 0819//95=
METAR LROD 042230Z AUTO 20010KT 6000 BKN007 BKN021 08/07 Q1002 REDZ=
METAR LRSM 042230Z AUTO 19004KT 9999 BKN023 OVC029 07/05 Q1001 REDZ=
METAR LRSV 042230Z AUTO 18004KT 130V220 6000 OVC090 04/02 Q1001 REUP=
####018000084####
SAUS54 KWBC 042200 RRD
METAR
KSOW 042230Z AUTO 21009KT 10SM CLR 16/M12 A3029=
####018000101####
SALJ32 LJLJ 042230
METAR LJCE 042230Z AUTO VRB02KT 3000NDV BR FEW035/// SCT210///
01/01 Q1003=
####018000118####
SATN41 KWBC 042200 RRB
METAR
HTMW 042200Z 00000KT 9999 LT TO N FEW020 FEW021CB SCT090 21/18
     Q1018 NOSIG=
####018000175####
SAMM31 KWBC 042230
METAR
LCEN NIL=
LCLK 042230Z 33006KT CAVOK 12/11 Q1017 NOSIG=
LCNC 042230Z NIL=
LCPH 042230Z 06003KT CAVOK 11/05 Q1016=
LCRA NIL=
LMML NIL=
####018000387####
SAEW31 KWBC 042230
METAR
LPAZ NIL=
LPFR 042230Z 24012KT 9999 FEW018 FEW020CB SCT030 14/08 Q0999=
LPFU NIL=
LPPD NIL=
LPPR 042230Z 22007KT 180V270 9999 FEW015 FEW020CB BKN027 09/07
     Q0994=
LPPS 042230Z 31019G30KT 9999 SCT015 FEW018CB SCT030 14/07
     Q1007=
LPPT 042230Z 21005KT 180V250 9999 -SHRA FEW018 FEW029TCU 11/07
     Q0997 NOSIG=
LXGB 042230Z NIL=
####018000028####
SAJP45 KWBC 042230
NIL=
####018000084####
SPCN44 CWAO 042234
SPECI CYIO 042234Z AUTO 00000KT 4SM OVC012 M36/M40 A3007=

####018000178####
SAPO32 LPMG 042230
METAR LPAZ 042230Z 34014KT 7000 -RA FEW005 SCT015 FEW020TCU OVC120
12/11
Q1011=
METAR LPPD 042230Z 02010KT 340V050 9999 BKN016 FEW020CB 11/08 Q1010=
####018000088####
SANL33 EHDB 042225 RRB
METAR EHSC 042225Z AUTO 13010G12KT 2800 01/M01 Q0995 W03/S3=
####018000088####
SANL33 EHDB 042225 RRC
METAR EHSA 042225Z AUTO 13010G13KT 3600 01/M01 Q0995 W04/S3=
####018000088####
SANL33 EHDB 042225 RRA
METAR EHJR 042225Z AUTO 12012G13KT //// 03/M02 Q0995 W06/S3=
####018000102####
SACN95 CWAO 042232
WTX SA 2232 AUTO8 M M M 236/-12/-19/1506/M/M PK WND 1517 2152Z 6036
67MM=

####018000698####
SAAE31 VTBB 042230
METAR VTBS 042230Z 16004KT 110V200 8000 FEW010 BKN300 26/22 Q1011 
           NOSIG=
METAR VTBD 042230Z 11003KT 7000 NSC 24/22 Q1011 NOSIG=
METAR VTCC 042230Z 00000KT CAVOK 17/14 Q1014 A2995=
METAR VTBU 042230Z NIL=
METAR VTSS 042230Z 00000KT 5000 BR FEW020 SCT300 21/20 Q1011 A2985=
METAR VTSP 042230Z 00000KT 8000 FEW020 SCT300 22/21 Q1011 A2986=
METAR VLVT 042230Z NIL=
METAR VYYY 042230Z NIL=
METAR VVTS 042230Z VRB03KT 9999 FEW017 23/22 Q1011 NOSIG=
METAR VVNB 042230Z VRB03KT 3800 BR SCT013 OVC050 19/17 Q1015 NOSIG=
METAR VDPP 042230Z 21002KT 7000 FEW020 23/22 Q1009=
METAR VVDN 042230Z NIL=
METAR VYMD 042230Z NIL=
METAR VDSR 042230Z NIL=
####018002986####
SAUS20 KNKA 042236
METAR K21D 042239Z AUTO 17006KT 10SM CLR M11/M17 A3043 RMK AO2
=
METAR KAEL 042229Z AUTO 15006KT 10SM CLR M12/M16 A3041 RMK AO2=
METAR KAIK 042235Z AUTO 28008KT 10SM CLR 01/M16 A3033 RMK AO2 PNO=
METAR KBOW 042235Z AUTO 31012G15KT 10SM CLR 09/M08 A3033 RMK AO2 =
METAR KBWD 042235Z AUTO 13006KT 10SM CLR 18/M05 A3042 RMK AO2 =
METAR KCDD 042232Z AUTO 15004KT 10SM CLR M09/M20 A3031 RMK AO2=
METAR KCVH 042235Z AUTO 00000KT 10SM CLR 19/06 A2992 RMK AO1=
METAR KDRM 042237Z AUTO 29007KT 252V332 10SM CLR M18/M23 A3042 RMK AO2=
METAR KDVP 042235Z AUTO 16019KT 10SM CLR M07/M13 A3028 RMK AO2 T10751135=
METAR KDXX 042234Z AUTO 16012KT 10SM CLR M07/M12 A3026 RMK AO2=
METAR KDYT 042234Z AUTO 00000KT 10SM CLR M09/M20 A3041 RMK AO2=
METAR KEFK 042235Z AUTO 28004KT 10SM CLR M16/M21 A3006 RMK AO2=
METAR KELO 042233Z AUTO 20005KT 10SM CLR M11/M26 A3029 RMK AO2=
METAR KEVM 042236Z AUTO 20005KT 10SM CLR M10/M21 A3032 RMK AO1=
METAR KEZS 042239Z AUTO 10SM CLR M10/M19 A3046 RMK AO1
=
METAR KFBL 042235Z AUTO 16008KT 10SM CLR M09/M16 A3042 RMK AO2=
METAR KFKA 042237Z AUTO 18007KT 10SM CLR M12/M17 A3044 RMK AO2 T11191171=
METAR KFPK 042234Z AUTO 33003KT 10SM CLR M11/M18 A3040 RMK AO2=
METAR KFSO 042235Z AUTO 00000KT 10SM OVC045 M15/M21 A3016 RMK AO2=
METAR KGMJ 042239Z AUTO 12004KT 10SM CLR 05/M09 A3049 RMK AO2
=
METAR KGYL 042235Z AUTO 13006KT 10SM CLR M07/M15 A3038 RMK AO2 T10681153=
METAR KHCD 042234Z AUTO 14008KT 10SM CLR M09/M13 A3036 RMK AO2 T10901135=
METAR KHCO 042235Z AUTO 17026G31KT 7SM OVC011 M11/M13 A3004 RMK AO2=
METAR KHZX 042234Z AUTO 18004KT 10SM CLR M11/M18 A3033 RMK AO2=
METAR KJKJ 042234Z AUTO 17016G22KT 10SM CLR M11/M14 A3018 RMK AO2=
METAR KJMR 042236Z AUTO 18004KT 10SM CLR M11/M19 A3040 RMK AO2=
METAR KLJF 042234Z AUTO 15006KT 10SM CLR M10/M16 A3035 RMK AO2=
METAR KLUX 042235Z AUTO 34009G21KT 280V020 10SM CLR M01/M15 A3033 
     RMK AO2=
METAR KLVN 042234Z AUTO 18005KT 10SM CLR M11/M16 A3042 RMK AO2=
METAR KLXL 042238Z AUTO 14007KT 10SM CLR M11/M18 A3034 RMK AO2=
METAR KLYV 042235Z AUTO 18013KT 10SM CLR M05/M11 A3029 RMK AO2=
METAR KMJQ 042232Z AUTO 17010KT 10SM CLR M08/M13 A3032 RMK AO2=
METAR KMVE 042234Z AUTO 18005G17KT 10SM CLR M07/M16 A3028 RMK AO2=
METAR KONA 042236Z AUTO 27003KT 10SM CLR M09/M18 A3052 RMK AO2=
METAR KOVL 042235Z AUTO 16011KT 10SM CLR M08/M15 A3032 RMK AO2 T10821146=
METAR KOWA 042237Z AUTO 17007KT 10SM CLR M11/M17 A3041 RMK AO2=
METAR KPEX 042233Z AUTO 14009KT 10SM CLR M10/M16 A3033 RMK AO2 T11011156=
METAR KROS 042234Z AUTO 15008KT 10SM CLR M11/M18 A3041 RMK AO2 T11061185=
METAR KROX 042234Z AUTO 18017G21KT 10SM SCT018 M09/M14 A3011 RMK AO2=
METAR KRRT 042234Z AUTO 17011KT 10SM CLR M09/M17 A3014 RMK AO2=
METAR KRYV 042234Z AUTO 00000KT 10SM CLR M12/M20 A3051 RMK AO2=
METAR KSAZ 042234Z AUTO 16008KT 10SM CLR M12/M16 A3027 RMK AO2=
METAR KSGS 042235Z AUTO 15005KT 10SM CLR M09/M16 A3044 RMK AO2 T10901165=
####018000387####
SAUS20 KNKA 042236
METAR KSMS 042235Z AUTO 30008G14KT 10SM FEW075 02/M14 A3029 RMK AO2
      =
METAR KSYN 042233Z AUTO 18006KT 10SM CLR M09/M17 A3042 RMK AO2 T10921168=
METAR KTKC 042234Z AUTO 17009G19KT 10SM CLR M08/M14 A3028 RMK AO2 T10791145=
METAR KTOB 042235Z AUTO 17011KT 10SM CLR M12/M17 A3041 RMK AO2=
METAR KVVV 042236Z AUTO 16013KT 10SM CLR M07/M12 A3024 RMK AO2=
####018000099####
SPCN51 CWAO 042235
SPECI CWZZ 042235Z AUTO ///// 1 1/4SM OVC008 OVC020 OVC031 M14/
A2943=

####018000082####
SACN88 CWAO 042231
WDA SA 2231 AUTO8 M M M 998/-08/-09/3121/M/M 1069 57MM=

####018000268####
SAUR31 UKMS 042230
METAR UKLR NIL=
METAR UKLI NIL=
METAR UKON NIL=
METAR UKCM NIL=
METAR UKCW 042230Z 18010MPS CAVOK 02/M01 Q1009
         09850545 BECMG 18010G15MPS 3100 BR SCT006=
METAR UKLU NIL=
METAR UKKK NIL=
METAR UKKM NIL=
METAR UKLN NIL=
####018000080####
SACN95 CWAO 042231
WTM SA 2231 AUTO8 M M M M/-02/-04/2609+17/M/M M 56MM=

####018000177####
SAPO32 LPMG 042230
METAR LPAZ 042230Z 34014KT 7000 -RA FEW005 SCT015 FEW020TCU OVC120
12/11
Q1011=
METAR LPPD 042230Z 02010KT 340V050 9999 BKN016 FEW020CB 11/08 Q1010=
####018000192####
SAAO32 GOOY 042230
METAR GOOY 042230Z 34010KT CAVOK 17/16 Q1015 NOSIG=
METAR DIAP 042230Z 25001KT 8000 SCT011 27/26 Q1013 NOSIG=
METAR GQNN 042230Z 35010KT 8000 NSC 17/15 Q1016 NOSIG=
####018000697####
SAAE31 VTBB 042230
METAR VTBS 042230Z 16004KT 110V200 8000 FEW010 BKN300 26/22 Q1011
           NOSIG=
METAR VTBD 042230Z 11003KT 7000 NSC 24/22 Q1011 NOSIG=
METAR VTCC 042230Z 00000KT CAVOK 17/14 Q1014 A2995=
METAR VTBU 042230Z NIL=
METAR VTSS 042230Z 00000KT 5000 BR FEW020 SCT300 21/20 Q1011 A2985=
METAR VTSP 042230Z 00000KT 8000 FEW020 SCT300 22/21 Q1011 A2986=
METAR VLVT 042230Z NIL=
METAR VYYY 042230Z NIL=
METAR VVTS 042230Z VRB03KT 9999 FEW017 23/22 Q1011 NOSIG=
METAR VVNB 042230Z VRB03KT 3800 BR SCT013 OVC050 19/17 Q1015 NOSIG=
METAR VDPP 042230Z 21002KT 7000 FEW020 23/22 Q1009=
METAR VVDN 042230Z NIL=
METAR VYMD 042230Z NIL=
METAR VDSR 042230Z NIL=
####018001952####
SAUS20 KNKA 042236
METAR K14Y 042235Z AUTO 12010KT 10SM CLR M11/M17 A3029 RMK AO2 T11061170
=
METAR K4I3 042236Z AUTO 30010G16KT 10SM CLR M13/M17 A3036 RMK AO2=
METAR KACQ 042239Z AUTO 15007KT 10SM CLR M10/M14 A3042 RMK AO2=
METAR KADC 042237Z AUTO 15010KT 10SM CLR M13/M19 A3024 RMK AO2=
SPECI KAKR 042235Z AUTO 30012KT 2SM -SN SCT008 BKN015 OVC030 M11/M14 
    A3033 RMK AO2 SNB01 P0000=
METAR KAUM 042235Z AUTO 17006KT 10SM CLR M12/M16 A3042 RMK AO2=
METAR KBDH 042235Z AUTO 15013G16KT 10SM CLR M08/M13 A3032 RMK AO2=
SPECI KBEH 042235Z AUTO 36005KT 1SM -SN SCT009 BKN021 OVC033 M08/M12 
    A3047 RMK AO2 SNB14 P0000=
METAR KBJI 042232Z AUTO 16013KT 10SM CLR M10/M19 A3019 RMK AO2 T11051191=
METAR KBPP 042236Z AUTO 26006KT 10SM CLR 08/00 A2996 RMK AO1=
METAR KBUU 042239Z AUTO 29004KT 10SM CLR M10/M20 A3050 RMK AO2
=
METAR KCBG 042235Z AUTO 17004KT 10SM CLR M10/M18 A3042 RMK AO2=
METAR KCFE 042234Z AUTO 14005KT 10SM CLR M10/M17 A3040 RMK AO2 T11011167=
METAR KCKC 042235Z AUTO 16003KT 10SM CLR M16/M20 A3030 RMK AO2=
METAR KCKN 042235Z AUTO 17021G24KT 10SM OVC014 M09/M14 A3014 RMK AO2=
METAR KCNB 042236Z AUTO 15008KT 10SM CLR M05/M11 A3025 RMK AO2 T10481110=
METAR KCOQ 042237Z AUTO 20008KT 10SM CLR M12/M19 A3034 RMK AO2=
METAR KCQM 042237Z AUTO 15006KT 10SM CLR M11/M21 A3029 RMK AO2=
METAR KDTL 042233Z AUTO 17012KT 10SM CLR M12/M20 A3019 RMK AO2=
METAR KFSE 042235Z AUTO 16012G16KT 10SM CLR M10/M19 A3015 RMK AO2=
METAR KGLW 042231Z AUTO 29009KT 10SM SCT033 OVC039 M06/M13 A3049 RMK AO1=
METAR KJYG 042235Z AUTO 15011KT 10SM CLR M09/M14 A3038 RMK AO2=
SPECI KMGW 042235Z 28006KT 3SM -SN SCT030 BKN036 OVC048 M08/M12 
    A3026 RMK AO2 P0000=
METAR KRGK 042235Z AUTO 17004KT 10SM CLR M10/M17 A3046 RMK AO2=
METAR KSME 042238Z AUTO 26004KT 10SM SCT031 OVC050 M06/M10 A3044 RMK AO2
=
METAR PAAK 042236Z AUTO 24020G28KT 10SM SCT037 BKN048 OVC050 02/M05 
    A2927 RMK AO1 PNO=
####018000237####
SACA31 TNCC 042200
METAR TNCA 042200Z 07017KT 9999 FEW018 28/23 Q1013=
METAR TNCB 042200Z 08015KT 9999 FEW018 28/24 Q1013=
METAR TNCC 042200Z 08012KT 9999 FEW019 27/24 Q1012=
METAR TNCE 042200Z 07010KT 9999 FEW022 26/21 Q1018=


####018000980####
SAUS99 KWBC 042237 RRA
METAR
KCBG 042235Z AUTO 17004KT 10SM CLR M10/M18 A3042 RMK AO2=
KCFE 042234Z AUTO 14005KT 10SM CLR M10/M17 A3040 RMK AO2
     T11011167=
KCKC 042235Z AUTO 16003KT 10SM CLR M16/M20 A3030 RMK AO2=
KCKN 042235Z AUTO 17021G24KT 10SM OVC014 M09/M14 A3014 RMK AO2=
KCNB 042236Z AUTO 15008KT 10SM CLR M05/M11 A3025 RMK AO2
     T10481110=
KCOQ 042237Z AUTO 20008KT 10SM CLR M12/M19 A3034 RMK AO2=
KCQM 042237Z AUTO 15006KT 10SM CLR M11/M21 A3029 RMK AO2=
KDTL 042233Z AUTO 17012KT 10SM CLR M12/M20 A3019 RMK AO2=
KFSE 042235Z AUTO 16012G16KT 10SM CLR M10/M19 A3015 RMK AO2=
KGLW 042231Z AUTO 29009KT 10SM SCT033 OVC039 M06/M13 A3049 RMK
     AO1=
KJYG 042235Z AUTO 15011KT 10SM CLR M09/M14 A3038 RMK AO2=
KRGK 042235Z AUTO 17004KT 10SM CLR M10/M17 A3046 RMK AO2=
KSME 042238Z AUTO 26004KT 10SM SCT031 OVC050 M06/M10 A3044 RMK
     AO2=
PAAK 042236Z AUTO 24020G28KT 10SM SCT037 BKN048 OVC050 02/M05
     A2927 RMK AO1 PNO=
####018000315####
SPUS99 KWBC 042237
SPECI
KAKR 042235Z AUTO 30012KT 2SM -SN SCT008 BKN015 OVC030 M11/M14
     A3033 RMK AO2 SNB01 P0000=
KBEH 042235Z AUTO 36005KT 1SM -SN SCT009 BKN021 OVC033 M08/M12
     A3047 RMK AO2 SNB14 P0000=
KMGW 042235Z 28006KT 3SM -SN SCT030 BKN036 OVC048 M08/M12 A3026
     RMK AO2 P0000=
####018000114####
SAAY31 RUMS 042230
METAR UDSG 042230Z NIL=
UDYZ 042230Z 00000MPS 2300 BR BKN100 M02/M03 Q1024 09000070 NOSIG=
####018003711####
SAUS99 KWBC 042237
METAR
K21D 042239Z AUTO 17006KT 10SM CLR M11/M17 A3043 RMK AO2=
KAEL 042229Z AUTO 15006KT 10SM CLR M12/M16 A3041 RMK AO2=
KAIK 042235Z AUTO 28008KT 10SM CLR 01/M16 A3033 RMK AO2 PNO=
KBOW 042235Z AUTO 31012G15KT 10SM CLR 09/M08 A3033 RMK AO2=
KBWD 042235Z AUTO 13006KT 10SM CLR 18/M05 A3042 RMK AO2=
KCDD 042232Z AUTO 15004KT 10SM CLR M09/M20 A3031 RMK AO2=
KCVH 042235Z AUTO 00000KT 10SM CLR 19/06 A2992 RMK AO1=
KDRM 042237Z AUTO 29007KT 252V332 10SM CLR M18/M23 A3042 RMK
     AO2=
KDVP 042235Z AUTO 16019KT 10SM CLR M07/M13 A3028 RMK AO2
     T10751135=
KDXX 042234Z AUTO 16012KT 10SM CLR M07/M12 A3026 RMK AO2=
KDYT 042234Z AUTO 00000KT 10SM CLR M09/M20 A3041 RMK AO2=
KEFK 042235Z AUTO 28004KT 10SM CLR M16/M21 A3006 RMK AO2=
KELO 042233Z AUTO 20005KT 10SM CLR M11/M26 A3029 RMK AO2=
KEVM 042236Z AUTO 20005KT 10SM CLR M10/M21 A3032 RMK AO1=
KEZS 042239Z AUTO 10SM CLR M10/M19 A3046 RMK AO1=
KFBL 042235Z AUTO 16008KT 10SM CLR M09/M16 A3042 RMK AO2=
KFKA 042237Z AUTO 18007KT 10SM CLR M12/M17 A3044 RMK AO2
     T11191171=
KFPK 042234Z AUTO 33003KT 10SM CLR M11/M18 A3040 RMK AO2=
KFSO 042235Z AUTO 00000KT 10SM OVC045 M15/M21 A3016 RMK AO2=
KGMJ 042239Z AUTO 12004KT 10SM CLR 05/M09 A3049 RMK AO2=
KGYL 042235Z AUTO 13006KT 10SM CLR M07/M15 A3038 RMK AO2
     T10681153=
KHCD 042234Z AUTO 14008KT 10SM CLR M09/M13 A3036 RMK AO2
     T10901135=
KHCO 042235Z AUTO 17026G31KT 7SM OVC011 M11/M13 A3004 RMK AO2=
KHZX 042234Z AUTO 18004KT 10SM CLR M11/M18 A3033 RMK AO2=
KJKJ 042234Z AUTO 17016G22KT 10SM CLR M11/M14 A3018 RMK AO2=
KJMR 042236Z AUTO 18004KT 10SM CLR M11/M19 A3040 RMK AO2=
KLJF 042234Z AUTO 15006KT 10SM CLR M10/M16 A3035 RMK AO2=
KLUX 042235Z AUTO 34009G21KT 280V020 10SM CLR M01/M15 A3033 RMK
     AO2=
KLVN 042234Z AUTO 18005KT 10SM CLR M11/M16 A3042 RMK AO2=
KLXL 042238Z AUTO 14007KT 10SM CLR M11/M18 A3034 RMK AO2=
KLYV 042235Z AUTO 18013KT 10SM CLR M05/M11 A3029 RMK AO2=
KMJQ 042232Z AUTO 17010KT 10SM CLR M08/M13 A3032 RMK AO2=
KMVE 042234Z AUTO 18005G17KT 10SM CLR M07/M16 A3028 RMK AO2=
KONA 042236Z AUTO 27003KT 10SM CLR M09/M18 A3052 RMK AO2=
KOVL 042235Z AUTO 16011KT 10SM CLR M08/M15 A3032 RMK AO2
     T10821146=
KOWA 042237Z AUTO 17007KT 10SM CLR M11/M17 A3041 RMK AO2=
KPEX 042233Z AUTO 14009KT 10SM CLR M10/M16 A3033 RMK AO2
     T11011156=
KROS 042234Z AUTO 15008KT 10SM CLR M11/M18 A3041 RMK AO2
     T11061185=
KROX 042234Z AUTO 18017G21KT 10SM SCT018 M09/M14 A3011 RMK AO2=
KRRT 042234Z AUTO 17011KT 10SM CLR M09/M17 A3014 RMK AO2=
KRYV 042234Z AUTO 00000KT 10SM CLR M12/M20 A3051 RMK AO2=
KSAZ 042234Z AUTO 16008KT 10SM CLR M12/M16 A3027 RMK AO2=
KSGS 042235Z AUTO 15005KT 10SM CLR M09/M16 A3044 RMK AO2
     T10901165=
KSMS 042235Z AUTO 30008G14KT 10SM FEW075 02/M14 A3029 RMK AO2=
KSYN 042233Z AUTO 18006KT 10SM CLR M09/M17 A3042 RMK AO2
     T10921168=
KTKC 042234Z AUTO 17009G19KT 10SM CLR M08/M14 A3028 RMK AO2
     T10791145=
KTOB 042235Z AUTO 17011KT 10SM CLR M12/M17 A3041 RMK AO2=
KVVV 042236Z AUTO 16013KT 10SM CLR M07/M12 A3024 RMK AO2=
K14Y 042235Z AUTO 12010KT 10SM CLR M11/M17 A3029 RMK AO2
     T11061170=
K4I3 042236Z AUTO 30010G16KT 10SM CLR M13/M17 A3036 RMK AO2=
KACQ 042239Z AUTO 15007KT 10SM CLR M10/M14 A3042 RMK AO2=
KADC 042237Z AUTO 15010KT 10SM CLR M13/M19 A3024 RMK AO2=
KAUM 042235Z AUTO 17006KT 10SM CLR M12/M16 A3042 RMK AO2=
KBDH 042235Z AUTO 15013G16KT 10SM CLR M08/M13 A3032 RMK AO2=
KBJI 042232Z AUTO 16013KT 10SM CLR M10/M19 A3019 RMK AO2
     T11051191=
KBPP 042236Z AUTO 26006KT 10SM CLR 08/00 A2996 RMK AO1=
KBUU 042239Z AUTO 29004KT 10SM CLR M10/M20 A3050 RMK AO2=
####018000144####
SAKY31 RUMS 042230
METAR UAFM 042230Z 29003MPS 4100 SN BR OVC005 M02/M02 Q1029
R26/690542 TEMPO 1500 SN BR OVC003=
METAR UAFO 042230Z NIL=
####018000087####
SANL33 EHDB 042225 RRA
METAR EHJR 042225Z AUTO 12012G13KT //// 03/M02 Q0995 W06/S3=
####018000713####
SACI31 ZBBB 042230
METAR ZBAA 042230Z 01002MPS CAVOK M07/M11 Q1025 NOSIG=
ZBSJ NIL=
METAR ZBTJ 042230Z 36002MPS 2500 BR SKC M05/M05 Q1024 NOSIG=
METAR ZBYN 042230Z 00000MPS 2000 BR NSC M06/M07 Q1021 NOSIG=
METAR ZGGG 042230Z 00000MPS 2500 BR SKC 14/11 Q1018 NOSIG=
METAR ZSHC 042230Z 03002MPS 0600 R07/0750V1200N FG SCT005 BKN026
 07/06 Q1024
 NOSIG=
METAR ZSPD 042230Z 05002MPS 350V110 3500 BR BKN030 08/06 Q1023
 NOSIG=
METAR ZSSS 042230Z 33001MPS 2100 BR OVC026 09/08 Q1023 NOSIG=
ZWSH NIL=
METAR ZWWW 042230Z VRB01MPS 0700 R07/1600N FZFG BKN009 M06/M07 Q1024
 NOSIG=
METAR ZYTL 042230Z 34007MPS 3000 BR SKC 00/M03 Q1023 NOSIG=
METAR ZYTX 042230Z 35003MPS 3000 BR OVC033 M02/M04 Q1024 NOSIG=
####018000125####
SARA36 RUMS 042200 RRA
METAR USCC 042200Z 28005MPS 5000 -SHSN SCT020CB OVC070 M08/M11
  Q1004 NOSIG RMK QFE733 88400250=
####018000087####
SANL33 EHDB 042225 RRC
METAR EHSA 042225Z AUTO 13010G13KT 3600 01/M01 Q0995 W04/S3=
####018000027####
SATR31 RUMS 042230
NIL=
####018000233####
SABY31 UMMN 042230
UMBB NIL=
METAR UMGG 042230Z 15002MPS 2500 BR OVC002 M02/M02 Q1003
R11/190052 TEMPO 2000 RMK QBB070=
UMMM NIL=
METAR UMMS 042230Z 00000MPS 0250 R31/0750N FZFG VV001
M00/M00 Q1001 31820335 NOSIG RMK QBB050=
####018000189####
SAAO32 GOOY 042230
METAR GOOY 042230Z 34010KT CAVOK 17/16 Q1015 NOSIG=
METAR DIAP 042230Z 25001KT 8000 SCT011 27/26 Q1013 NOSIG=
METAR GQNN 042230Z 35010KT 8000 NSC 17/15 Q1016 NOSIG=
####018000631####
SAKZ31 RUMS 042230
METAR UAAA 042230Z 22002MPS 2900 -SN BR OVC017 M01/M02 Q1028
734/0537 234/0542 NOSIG=
UACC 042230Z 22012MPS 1100 R22/P1500 SN BLSN OVC012 M15/M16
Q1014 228/0060 TEMPO 23015MPS 0600 SN BLSN RMK QFE729/0973=
METAR UAKK 042230Z NIL=
METAR UAOO 042230Z NIL=
METAR UARR 042230Z NIL=
UATE 042230Z 12008MPS 9999 OVC027 01/M00 Q1024 NOSIG RMK
QFE766/1021 120///70=
UATG 042230Z 16003MPS 9000 NSC M12/M12 Q1026
14CLRD70 NOSIG RMK QFE771/1028=
UATT 042230Z 18004MPS 5000 -SN NSC M14/M16 Q1021 13490148
NOSIG RMK QFE746/0995=
METAR UAUU 042230Z 27006MPS CAVOK M11/M14 Q1008 33CLRD60
NOSIG RMK QFE741/0988=
####018000258####
SAUR31 UKMS 042230
METAR UKLR NIL=
METAR UKLI NIL=
METAR UKON NIL=
METAR UKCM NIL=
METAR UKCW 042230Z 18010MPS CAVOK 02/M01 Q1009
         09850545 BECMG 18010G15MPS 3100 BR SCT006=
METAR UKLU NIL=
METAR UKKK NIL=
METAR UKKM NIL=
METAR UKLN NIL=
####018000087####
SANL33 EHDB 042225 RRB
METAR EHSC 042225Z AUTO 13010G12KT 2800 01/M01 Q0995 W03/S3=
####018000174####
SAPO32 LPMG 042230
METAR LPAZ 042230Z 34014KT 7000 -RA FEW005 SCT015 FEW020TCU OVC120
12/11
Q1011=
METAR LPPD 042230Z 02010KT 340V050 9999 BKN016 FEW020CB 11/08 Q1010=
####018000091####
SPUS31 KWBC 042237
SPECI
KCLE 042234Z 31009KT 3/4SM -SN SCT009 OVC019 M11/M13 A3039=
####018000514####
SAYG31 LYBM 042230
METAR LYBE 042230Z 22005KT 3800 BR BKN043 07/06 Q1005 NOSIG=
METAR LYBT 042230Z 23004KT 6000 BKN047 06/06 Q1005 NOSIG=
METAR LYKV 042230Z VRB01KT CAVOK 07/07 Q1005 NOSIG=
METAR LYNI 042230Z 00000KT 9999 -RA BKN030 10/07 Q1006=
METAR LYPG 042230Z 20003KT 9999 FEW015 SCT040 BKN090 11/11 Q1008
NOSIG=
METAR LYTV 042230Z 14004KT 120V190 9999 FEW015 SCT030 OVC073 13/13
Q1008=
METAR LYUZ 042230Z 25003KT 210V280 CAVOK 06/03 Q1004=
METAR LYVR 042230Z 20004KT CAVOK 08/07 Q1005=
####018002677####
SAAK41 KNKA 042236
METAR PAAK 042236Z AUTO 24020G28KT 10SM SCT037 BKN048 OVC050 02/M05 
    A2927 RMK AO1 PNO=
METAR PABL 042236Z AUTO 00000KT 3/4SM BKN002 M43/ A2976 RMK AO1 PNO=
METAR PABV 042236Z AUTO 20004KT 10SM FEW075 OVC110 M17/M18 A2972 RMK 
    AO1 PNO=
METAR PADK 042236Z AUTO 23031G38KT 10SM FEW022 SCT030 BKN048 02/M07 
    A2921 RMK AO1 PNO=
METAR PAEM 042236Z AUTO 04004KT 10SM OVC070 M22/M25 A2946 RMK AO1 
    PNO=
METAR PAFE 042236Z 10008KT 2SM SCT022 BKN028 OVC048 00/M02 A2972 RMK 
    AO1 
      PNO=
METAR PAFM 042236Z AUTO 05005KT 6SM OVC065 M29/M29 A2977 RMK AO1 PNO=
METAR PAHP 042236Z AUTO 06026KT 1/4SM BKN034 OVC044 M43/ A2939 RMK 
    AO1 PNO=
METAR PAHY 042236Z AUTO 22014G21KT 3SM FEW009 OVC014 02/00 A2972 RMK 
    AO1=
METAR PAII 042236Z AUTO 08006KT 10SM BKN030 OVC035 M08/M11 A2950 RMK 
    AO1 PNO=
SPECI PAIW 042235Z AUTO 07021G26KT 1 1/4SM -SN OVC003 M33/M36 A2974 
    RMK AO2 PK WND 07028/2221 SNB16 FZRANO=
METAR PAKK 042236Z AUTO 01014G20KT 10SM CLR M28/M34 A2957 RMK AO1 
    PNO=
METAR PAKP 042236Z AUTO 00000KT 9SM SCT070 BKN100 M33/ A2946 RMK AO1=
METAR PAMH 042236Z AUTO 00000KT 1 3/4SM SCT021 BKN025 OVC039 M29/M33 
    A2964 RMK AO1 PNO=
METAR PANI 042236Z AUTO 03005KT 10SM OVC028 M22/M27 A2946 RMK AO1=
METAR PAPG 042236Z 00000KT 2SM OVC016 00/M02 A2972 RMK AO1 
    WEA: -SN PNO=
METAR PAPH 042236Z AUTO 16012KT 10SM OVC026 01/M02 A2945 RMK AO1 PNO=
METAR PARC 042236Z AUTO 00000KT 10SM CLR M33/ A2960 RMK AO1 PNO=
METAR PASA 042236Z AUTO 08007KT 10SM CLR M31/M34 A2965 RMK AO1 PNO=
METAR PASD 042236Z 23006G14KT 10SM BKN023 BKN028 OVC033 03/M02 A2948 
    RMK AO1 
    WEA: VIS LWR SW PNO=
METAR PASH 042236Z AUTO 04005KT 10SM CLR M34/ A2979 RMK AO1 PNO=
METAR PASK 042236Z 05013KT 10SM CLR M36/ A2980 RMK AO1 PNO=
METAR PASL 042236Z AUTO 14003KT 5SM OVC060 M24/ A2963 RMK AO1 PNO=
METAR PASM 042236Z 06012KT BKN020 OVC027 M23/M23 A2941 RMK AO1 PNO=
METAR PASX 042236Z 06007KT 10SM OVC015 M13/M16 A2967 RMK AO1 PNO=
METAR PATG 042236Z AUTO 01008KT 1 1/4SM SCT009 BKN014 OVC020 M08/M09 
    A2944 RMK AO1 PNO=
METAR PAUN 042236Z 08028G33KT 3/4SM OVC034 M23/ A2953 RMK AO1 PNO=
METAR PAVD 042236Z 00000KT 10SM SCT030 BKN100 M09/M13 A2973 RMK AO1 
    2147Z WEA: VCSH ALQDS TWR WND 00000KT PNO=
METAR PAWG 042236Z 09012KT 3SM SCT005 BKN010 OVC020 01/M01 A2976 RMK 
    AO1 
    WEA:-SN BR PNO=
METAR PAWS 042236Z AUTO 27003KT 10SM SCT080 OVC100 M16/M19 A2966 RMK 
    AO1 PNO=
METAR PAZK 042236Z AUTO 00000KT 10SM SCT060 BKN080 M26/ A2946 RMK 
    AO1 PNO=
METAR PFYU 042236Z 04006KT 10SM FEW060 M30/ A2985 RMK AO1 PNO=
####018000830####
SAXN17 KAWN 042200 RRI
METAR NWWW 042230Z AUTO 03004KT 320V080 9999NDV FEW054/// BKN090///
      28/24 Q0999=
METAR RCKH 042230Z 33001KT 2200 BR FEW010 SCT080 17/16 Q1017 TEMPO
      2000=
METAR RCTP 042230Z 03014KT 5000 BR SCT008 BKN030 17/15 Q1018 WS R05
      NOSIG=
METAR RJAA 042230Z 34006KT 4000 BR FEW020 BKN/// 02/01 Q1018 BECMG
      6000 NSW RMK 1CU020 A3008=
METAR RJCC 042230Z 17008KT 9999 FEW025 BKN080 M04/M08 Q1015 RMK 1CU025
      7AC080 A2998=
METAR RJFF 042230Z 16004KT CAVOK 06/03 Q1019 RMK A3011=
METAR RJTT 042230Z 02006KT 7000 FEW020 SCT035 BKN/// 06/01 Q1018 RMK
      1CU020 3SC035 A3008=
METAR ROAH 042230Z 11004KT 9999 FEW020 17/14 Q1018 RMK 1CU020 A3008=
METAR VHHH 042230Z 07006KT 7000 NSC 18/14 Q1018 NOSIG=
METAR ZGGG 042230Z 00000MPS 2500 BR SKC 14/11 Q1018 NOSIG=
####018001324####
SPZZ40 KAWN 042236 RRF
SPECI CWZZ 042231Z AUTO ///// 2 1/8SM OVC000 OVC020 OVC031 M14/ A2943=
SPECI CYIO 042234Z AUTO 00000KT 4SM OVC012 M36/M40 A3007=
SPECI CYNE 042231Z AUTO 17018G33KT 3/4SM BKN001 OVC006 OVC015 M12/M14
      A2970=
SPECI CYNE 042233Z AUTO 17019G31KT 3/4SM BKN008 OVC050 M12/M14 A2969=
SPECI CYYL 042230Z AUTO 25007KT 9SM -SN FEW025 FEW036 FEW047 FEW080
      M08/M10 A2945=
SPECI EHVL 042231Z AUTO 08006KT 1900NDV BR BKN012 BKN015 OVC018 01/M00
      Q0996 YLO=
SPECI KNHK 042233Z 29008KT 5SM -SN SCT015 BKN030 BKN060 M01/M07 A3014
      RMK AO2 SNB06 P0000=
PABA SP 2235 AWOS 14 SCT M26 OVC 10 -26/-34/2807/000=
PACZ SP 2235 AWOS M18 BKN 26 OVC 7 -1/-7/2208/932=
PAEH SP 2235 AWOS -X M6 OVC 1 27/23/1525/931=
PAIM SP 2235 AWOS CLR BLO 120 10 -24/-36/0000/965=
PALU SP 2235 AWOS CLR BLO 120 10 -26/-34/0909/990=
PASV SP 2235 AWOS M50 BKN 10 20/13/0000/939=
PATC SP 2235 AWOS MM 1/2 -30/-37/0227/966=
PATL SP 2235 AWOS M20 OVC 7 -16/-23/0505/954=
SPECI RJAH 042224Z 36003KT 8000 FEW030 SCT250 M02/M03 Q1018 RMK 1CU030
      A3007=
SPECI RKSG 042232Z AUTO 02003KT 2800 BR FEW070 00/M00 A3017 RMK AO2
      SLP219=
SPECI RKSG 042235Z AUTO 00000KT 2400 BR FEW070 00/M00 A3017 RMK AO2
      SLP219=
SPECI YSNF 042230Z 11011KT 5000 -RA BKN004 22/21 Q1009=
####018000108####
SACN70 CWAO 042200 RRB
PGH SA 2200 AUTO8 M M M 176/-11/-13/1717+24/M/ PK WND 1524 2103Z
6048 88MM=

####018000455####
SACN59 CWAO 042200 RRF
PAH SA 2200 AUTO8 M M M M/05/-03/MMMM/M/ M 66MM=
PBV SA 2200 AUTO8 M M M M/09/-05/MMMM/M/ M 53MM=
PFO SA 2200 AUTO8 M M M M/09/-05/MMMM/M/ M 87MM=
PGL SA 2200 AUTO8 M M M M/07/-01/2012/M/ PK WND 2117 2111Z M 66MM=
PTH SA 2200 AUTO8 M M M M/05/-06/MMMM/M/ M 25MM=
PVA SA 2200 AUTO8 M M M M/06/-03/MMMM/M/ M 04MM=
XHP SA 2200 AUTO8 M M M M/04/-06/2807/M/ M 25MM=
XMG SA 2200 AUTO8 M M M M/-03/-08/0306/M/ M 51MM=

####018000236####
SACN97 CWAO 042200 RRD
XDW SA 2200 AUTO8 M M M M/-08/-11/1821+26/M/ PK WND 1928 2102Z M
20MM=
XHF SA 2200 AUTO8 M M M M/-14/-19/MMMM/M/0013 M 74MM=
XMD SA 2200 AUTO8 M M M 171/-09/-12/1815/M/ PK WND 1923 2116Z 6049
67MM=

####018000140####
SACN95 CWAO 042200 RRD
WTM SA 2200 AUTO8 M M M 064/-01/-03/2509+18/M/M 3038 34MM=
WTS SA 2200 AUTO8 M M M M/03/-04/2605/M/ M 46MM=

####018000104####
SACN89 CWAO 042200 RRC
WAF SA 2200 AUTO8 M M M M/-24/-26/3130+36/M/M PK WND 3136 2153Z M
14MM=

####018000085####
SACN78 CWAO 042200 RRD
WKK SA 2200 AUTO8 M M M 321/-24/-26/1604/M/ 8019 73MM=

####018000105####
SACN87 CWAO 042200 RRD
WEQ SA 2200 AUTO8 M M M 069/-02/-07/2308/M/ PK WND 2217 2112Z 5011
07MM=

####018000085####
SACN91 CWAO 042200 RRD
WIW SA 2200 AUTO8 M M M 088/03/-02/2810/M/M 3016 44MM=

####018000084####
SACN92 CWAO 042200 RRE
WLJ SA 2200 AUTO8 M M M 071/04/-03/2810/M/ 3015 12MM=

####018000086####
SACN93 CWAO 042200 RRE
WOI SA 2200 AUTO8 M M M 113/-25/-28/2104/M/M 1006 11MM=

####018001213####
SACN60 CWAO 042200 RRB
PAF SA 2200 AUTO8 M M M M/07/-08/MMMM/M/ M 03MM=
PBB SA 2200 AUTO8 M M M M/06/-05/MMMM/M/ M 37MM=
PBN SA 2200 AUTO8 M M M M/03/-05/2514/M/ PK WND 2724 2120Z M 51MM=
PEL SA 2200 AUTO8 M M M M/03/-05/2410/M/ M 10MM=
PFA SA 2200 AUTO8 M M M M/08/-05/MMMM/M/ M 05MM=
PFB SA 2200 AUTO8 M M M M/07/-07/MMMM/M/ M 13MM=
PGC SA 2200 AUTO8 M M M M/06/-04/2908/M/ PK WND 3019 2108Z M 40MM=
PHA SA 2200 AUTO8 M M M M/06/-02/MMMM/M/ M 38MM=
PHW SA 2200 AUTO8 M M M M/-03/-08/0503/M/ M 73MM=
PJT SA 2200 AUTO8 M M M M/01/-04/2409/M/ M 24MM=
PLC SA 2200 AUTO8 M M M M/-02/-13/2712/M/ PK WND 2621 2159Z M 63MM=
PLG SA 2200 AUTO8 M M M M/02/-06/2410/M/ PK WND 2417 2100Z M 46MM=
PNS SA 2200 AUTO8 M M M M/05/-06/MMMM/M/ M 36MM=
PRF SA 2200 AUTO8 M M M M/03/-04/2507/M/ PK WND 2627 2100Z M 83MM=
PRW SA 2200 AUTO8 M M M M/06/-04/MMMM/M/0040 M 02MM=
PSH SA 2200 AUTO8 M M M M/06/-04/MMMM/M/ M 86MM=
PSW SA 2200 AUTO8 M M M M/02/-06/2515/M/ PK WND 2523 2151Z M 20MM=
PTA SA 2200 AUTO8 M M M M/05/-07/MMMM/M/ M 56MM=
PTC SA 2200 AUTO8 M M M M/03/-06/MMMM/M/ M 36MM=
PVI SA 2200 AUTO8 M M M M/05/-03/MMMM/M/ M 04MM=
PWT SA 2200 AUTO8 M M M M/08/-05/MMMM/M/ M 69MM=

####018000097####
SACN98 CWAO 042200 RRF
XCD SA 2200 AUTO8 M M M M/04/-06/2515/M/ PK WND 2626 2149Z M 64MM=

####018000248####
SACN88 CWAO 042200 RRE
WDA SA 2200 AUTO8 M M M 994/-07/-09/3018+25/M/ PK WND 3228 2100Z
PRESRR 1075 35MM=
WZF SA 2200 AUTO8 M M M M/-10/-15/2810/M/M M 35MM=
ZCR SA 2200 AUTO8 M M M 119/-13/-18/3014+21/M/ PK WND 3121 2156Z
3034 16MM=

####018000106####
SPCN51 CWAO 042236
SPECI CWOB 042236Z AUTO 36025KT 2 3/4SM -SN M17/ A2954 RMK VSBY VRBL
1.2V3.5=

####018001079####
SAUS20 KNKA 042237
METAR KBAX 042236Z AUTO 30005KT 10SM CLR M14/M19 A3039 RMK AO2=
METAR KCVX 042234Z AUTO 00000KT 10SM BKN028 M14/M20 A3047 RMK AO2=
METAR KHFJ 042235Z AUTO 00000KT 10SM CLR 02/M09 A3047 RMK AO1
=
METAR KIRS 042235Z AUTO 34006KT 10SM CLR M10/M18 A3042 RMK AO2=
METAR KLCK 042235Z AUTO 30009G16KT 10SM CLR M09/M16 A3042 RMK AO2 T10911165=
METAR KMWO 042235Z AUTO 28009KT 7SM -SN BKN032 M07/M12 A3049 RMK AO2=
METAR KPVB 042235Z AUTO 17003KT 10SM CLR M09/M14 A3050 RMK AO1 T10911141
=
METAR KRQB 042235Z AUTO 34006KT 10SM CLR M12/M19 A3042 RMK AO2=
METAR KRZN 042235Z AUTO 22008KT 10SM CLR M09/M21 A3042 RMK AO2=
METAR KTEW 042235Z AUTO 33005KT 10SM CLR M13/M20 A3041 RMK AO2=
METAR KTTF 042235Z AUTO 30006KT 10SM CLR M12/M19 A3042 RMK AO2=
METAR KUNI 042235Z AUTO 30007KT 10SM CLR M08/M16 A3038 RMK AO2
=
METAR KVLL 042235Z AUTO 32008KT 10SM CLR M11/M19 A3042 RMK AO2=
METAR KY63 042235Z AUTO 16016KT 10SM CLR M09/M14 A3023 RMK AO2 T10871143
=
METAR PAHP 042236Z AUTO 06026KT 1/4SM BKN034 OVC044 M43/ A2939 RMK 
    AO1 PNO=
####018000542####
SAJP51 RJTD 042230
METAR RJAA 042230Z 34006KT 4000 BR FEW020 BKN/// 02/01 Q1018 BECMG
           6000 NSW=
METAR RJBB 042230Z 11006KT 9999 FEW030 05/01 Q1019 NOSIG=
METAR RJBH 042230Z 03005KT CAVOK 01/M01 Q1020=
METAR RJCC 042230Z 17008KT 9999 FEW025 BKN080 M04/M08 Q1015=
METAR RJFF 042230Z 16004KT CAVOK 06/03 Q1019=
METAR RJGG 042230Z 32008KT 9999 FEW030 SCT040 BKN170 06/01 Q1018
           NOSIG=
METAR RJTT 042230Z 02006KT 7000 FEW020 SCT035 BKN/// 06/01 Q1018=
METAR ROAH 042230Z 11004KT 9999 FEW020 17/14 Q1018=
####018000106####
SAIN90 VIDP 042230
METAR VIDP 042230Z 11005KT 1400 R29/P2000 BR SCT040 SCT100 15/08 Q1013
NOSIG=

####018000099####
SPCN51 CWAO 042236
SPECI CWZZ 042236Z AUTO ///// 1 1/8SM OVC008 OVC020 OVC031 M14/
A2943=

####018000078####
SPCN51 CWAO 042236
SPECI CZCP 042236Z AUTO 05007KT 1 3/8SM M25/ A2950=

####018002228####
SAUS20 KNKA 042237
METAR K1P1 042235Z AUTO 00000KT 10SM CLR M10/M21 A3001 RMK AO2=
METAR KARV 042235Z AUTO 24004KT 10SM CLR M12/M22 A3036 RMK AO2=
SPECI KBKL 042236Z 30016KT 8SM -SN FEW025 OVC037 M09/M15 A3038 RMK 
    AO2 P0000=
METAR KBWP 042234Z AUTO 15015KT 10SM CLR M11/M14 A3022 RMK AO1 T11081140=
METAR KCLI 042235Z AUTO 00000KT 10SM CLR M11/M19 A3046 RMK AO2
=
METAR KCMY 042235Z AUTO 00000KT CLR M10/M18 A3049 RMK AO2 PWINO=
SPECI KCSV 042236Z AUTO 33003KT 3SM -SN BKN025 OVC033 M08/M11 A3041 
    RMK AO2 P0000=
METAR KDLL 042235Z AUTO 24003KT 10SM CLR M10/M18 A3047 RMK AO2 T11051182=
METAR KEFT 042235Z AUTO 23004KT 10SM CLR M12/M18 A3048 RMK AO2=
METAR KEGV 042235Z AUTO 23004KT 10SM CLR M12/M20 A3035 RMK AO2 T11221201
=
METAR KGGE 042235Z AUTO 32011KT 10SM CLR 02/M14 A3026 RMK AO2=
SPECI KGKJ 042236Z AUTO 29006KT 1SM -SN FEW012 BKN023 M13/M17 A3025 
    RMK AO2 SNB21 P0000=
METAR KHYX 042238Z AUTO 33004KT 10SM CLR M13/M21 A3043 RMK AO2=
METAR KLDM 042236Z AUTO 00000KT 10SM SCT024 SCT031 BKN042 M09/M16 A3046 RMK AO2=
METAR KLRO 042235Z AUTO 31011G14KT 10SM CLR 02/M12 A3028 RMK AO2 =
METAR KLWA 042236Z AUTO 00000KT 10SM CLR M08/M15 A3045 RMK AO2=
METAR KMCD 042236Z AUTO 30003KT 10SM CLR M14/M19 A3044 RMK AO2=
METAR KMGN 042236Z AUTO 31003KT 10SM CLR M12/M20 A3045 RMK AO2=
METAR KMOP 042236Z AUTO 32007KT 10SM CLR M12/M20 A3043 RMK AO2=
METAR KOEB 042236Z AUTO 31007KT 10SM CLR M11/M19 A3041 RMK AO2=
METAR KONZ 042236Z AUTO 31011G15KT 10SM CLR M11/M19 A3041 RMK AO2=
METAR KOSC 042236Z AUTO 33005KT 10SM CLR M14/M22 A3041 RMK AO2=
METAR KPHN 042237Z AUTO 30009G14KT 10SM CLR M13/M19 A3040 RMK AO2=
METAR KPZQ 042235Z AUTO 28006KT 10SM SCT018 SCT027 M15/M21 A3043 RMK AO2=
METAR KRBW 042235Z AUTO 30008KT 10SM CLR 02/M13 A3031 RMK AO2=
METAR KRMY 042235Z AUTO 35003KT 10SM CLR M11/M20 A3041 RMK AO2=
METAR KRNP 042235Z AUTO 30007KT 7SM CLR M12/M20 A3043 RMK AO2=
METAR KSJX 042236Z AUTO 00000KT 10SM SCT034 M13/M19 A3046 RMK AO2=
METAR KSLH 042235Z AUTO 29004KT 10SM CLR M15/M20 A3044 RMK AO2=
METAR KSRR 042235Z AUTO 32007KT 10SM CLR 13/M14 A3039 RMK AO2 =
METAR KUTA 042235Z AUTO 36008KT 10SM CLR 00/M14 A3061 RMK AO2 
     TSNO=
####018000593####
SAAK41 KNKA 042237
METAR PAGS 042236Z AUTO 33003KT 2 1/2SM BKN035 OVC043 M01/M03 A2972 
    RMK AO1 PNO=
METAR PAHL 042236Z AUTO 00000KT 10SM CLR M34/ A2976 RMK AO1 PNO=
METAR PAIN 042236Z AUTO 20003KT 10SM OVC065 M13/M18 A2952 RMK AO1 
    PNO=
METAR PAMD 042236Z 10029G36KT 2 1/2SM SCT010 OVC016 00/M02 A2951 RMK 
    AO1 PNO=
METAR PAMM 042236Z AUTO 12009KT 100V170 8SM BKN016 OVC021 02/M02 
    A2980 RMK AO1 PNO=
METAR PAMY 042236Z AUTO 13021KT 1 1/2SM CLR M15/M18 A2929 RMK AO1=
METAR PANV 042236Z AUTO 03012KT 9SM BKN034 OVC070 M28/M34 A2954 RMK 
    AO1 PNO=
####018003735####
SAUS99 KWBC 042238
METAR
PAAK 042236Z AUTO 24020G28KT 10SM SCT037 BKN048 OVC050 02/M05
     A2927 RMK AO1 PNO=
PABL 042236Z AUTO 00000KT 3/4SM BKN002 M43/ A2976 RMK AO1 PNO=
PABV 042236Z AUTO 20004KT 10SM FEW075 OVC110 M17/M18 A2972 RMK AO1
     PNO=
PADK 042236Z AUTO 23031G38KT 10SM FEW022 SCT030 BKN048 02/M07
     A2921 RMK AO1 PNO=
PAEM 042236Z AUTO 04004KT 10SM OVC070 M22/M25 A2946 RMK AO1
     PNO=
PAFE 042236Z 10008KT 2SM SCT022 BKN028 OVC048 00/M02 A2972 RMK AO1
     PNO=
PAFM 042236Z AUTO 05005KT 6SM OVC065 M29/M29 A2977 RMK AO1 PNO=
PAHP 042236Z AUTO 06026KT 1/4SM BKN034 OVC044 M43/ A2939 RMK AO1
     PNO=
PAHY 042236Z AUTO 22014G21KT 3SM FEW009 OVC014 02/00 A2972 RMK
     AO1=
PAII 042236Z AUTO 08006KT 10SM BKN030 OVC035 M08/M11 A2950 RMK AO1
     PNO=
PAKK 042236Z AUTO 01014G20KT 10SM CLR M28/M34 A2957 RMK AO1
     PNO=
PAKP 042236Z AUTO 00000KT 9SM SCT070 BKN100 M33/ A2946 RMK AO1=
PAMH 042236Z AUTO 00000KT 1 3/4SM SCT021 BKN025 OVC039 M29/M33
     A2964 RMK AO1 PNO=
PANI 042236Z AUTO 03005KT 10SM OVC028 M22/M27 A2946 RMK AO1=
PAPG 042236Z 00000KT 2SM OVC016 00/M02 A2972 RMK AO1 WEA: -SN
     PNO=
PAPH 042236Z AUTO 16012KT 10SM OVC026 01/M02 A2945 RMK AO1 PNO=
PARC 042236Z AUTO 00000KT 10SM CLR M33/ A2960 RMK AO1 PNO=
PASA 042236Z AUTO 08007KT 10SM CLR M31/M34 A2965 RMK AO1 PNO=
PASD 042236Z 23006G14KT 10SM BKN023 BKN028 OVC033 03/M02 A2948 RMK
     AO1 WEA: VIS LWR SW PNO=
PASH 042236Z AUTO 04005KT 10SM CLR M34/ A2979 RMK AO1 PNO=
PASK 042236Z 05013KT 10SM CLR M36/ A2980 RMK AO1 PNO=
PASL 042236Z AUTO 14003KT 5SM OVC060 M24/ A2963 RMK AO1 PNO=
PASM 042236Z 06012KT BKN020 OVC027 M23/M23 A2941 RMK AO1 PNO=
PASX 042236Z 06007KT 10SM OVC015 M13/M16 A2967 RMK AO1 PNO=
PATG 042236Z AUTO 01008KT 1 1/4SM SCT009 BKN014 OVC020 M08/M09
     A2944 RMK AO1 PNO=
PAUN 042236Z 08028G33KT 3/4SM OVC034 M23/ A2953 RMK AO1 PNO=
PAVD 042236Z 00000KT 10SM SCT030 BKN100 M09/M13 A2973 RMK AO1
     2147Z WEA: VCSH ALQDS TWR WND 00000KT PNO=
PAWG 042236Z 09012KT 3SM SCT005 BKN010 OVC020 01/M01 A2976 RMK AO1
     WEA:-SN BR PNO=
PAWS 042236Z AUTO 27003KT 10SM SCT080 OVC100 M16/M19 A2966 RMK AO1
     PNO=
PAZK 042236Z AUTO 00000KT 10SM SCT060 BKN080 M26/ A2946 RMK AO1
     PNO=
PFYU 042236Z 04006KT 10SM FEW060 M30/ A2985 RMK AO1 PNO=
KBAX 042236Z AUTO 30005KT 10SM CLR M14/M19 A3039 RMK AO2=
KCVX 042234Z AUTO 00000KT 10SM BKN028 M14/M20 A3047 RMK AO2=
KHFJ 042235Z AUTO 00000KT 10SM CLR 02/M09 A3047 RMK AO1=
KIRS 042235Z AUTO 34006KT 10SM CLR M10/M18 A3042 RMK AO2=
KLCK 042235Z AUTO 30009G16KT 10SM CLR M09/M16 A3042 RMK AO2
     T10911165=
KMWO 042235Z AUTO 28009KT 7SM -SN BKN032 M07/M12 A3049 RMK AO2=
KPVB 042235Z AUTO 17003KT 10SM CLR M09/M14 A3050 RMK AO1
     T10911141=
KRQB 042235Z AUTO 34006KT 10SM CLR M12/M19 A3042 RMK AO2=
KRZN 042235Z AUTO 22008KT 10SM CLR M09/M21 A3042 RMK AO2=
KTEW 042235Z AUTO 33005KT 10SM CLR M13/M20 A3041 RMK AO2=
KTTF 042235Z AUTO 30006KT 10SM CLR M12/M19 A3042 RMK AO2=
KUNI 042235Z AUTO 30007KT 10SM CLR M08/M16 A3038 RMK AO2=
KVLL 042235Z AUTO 32008KT 10SM CLR M11/M19 A3042 RMK AO2=
KY63 042235Z AUTO 16016KT 10SM CLR M09/M14 A3023 RMK AO2
     T10871143=
PAHP 042236Z AUTO 06026KT 1/4SM BKN034 OVC044 M43/ A2939 RMK AO1
     PNO=
K1P1 042235Z AUTO 00000KT 10SM CLR M10/M21 A3001 RMK AO2=
KARV 042235Z AUTO 24004KT 10SM CLR M12/M22 A3036 RMK AO2=
KBWP 042234Z AUTO 15015KT 10SM CLR M11/M14 A3022 RMK AO1
     T11081140=
KCLI 042235Z AUTO 00000KT 10SM CLR M11/M19 A3046 RMK AO2=
KCMY 042235Z AUTO 00000KT CLR M10/M18 A3049 RMK AO2 PWINO=
KDLL 042235Z AUTO 24003KT 10SM CLR M10/M18 A3047 RMK AO2
     T11051182=
####018000298####
SACN88 KWBC 042238
METAR CWDA 042231Z AUTO 31021KT M08/M09 RMK AO1 SLP998 T10751087
51069=
METAR CWDA 042200Z AUTO 30018G25KT M07/M09 RMK AO1 PRESRR PK WND
32028/2100 SLP994 T10731085 51075=
METAR CZCR 042200Z AUTO 30014G21KT M13/M18 RMK AO1 PK WND
31021/2156 SLP119 T11311176 53034=
####018000096####
SACN91 KWBC 042238
METAR CWIW 042200Z AUTO 28010KT 03/M02 RMK AO1 SLP088 T00341024
53016=
####018000399####
SPUS99 KWBC 042238
SPECI
PAIW 042235Z AUTO 07021G26KT 1 1/4SM -SN OVC003 M33/M36 A2974 RMK
     AO2 PK WND 07028/2221 SNB16 FZRANO=
KBKL 042236Z 30016KT 8SM -SN FEW025 OVC037 M09/M15 A3038 RMK AO2
     P0000=
KCSV 042236Z AUTO 33003KT 3SM -SN BKN025 OVC033 M08/M11 A3041 RMK
     AO2 P0000=
KGKJ 042236Z AUTO 29006KT 1SM -SN FEW012 BKN023 M13/M17 A3025 RMK
     AO2 SNB21 P0000=
####018000097####
SACN78 KWBC 042238
METAR CWKK 042200Z AUTO 16004KT M24/M26 RMK AO1 SLP321 T12371263
58019=
####018001952####
SAUS99 KWBC 042238 RRA
METAR
KEFT 042235Z AUTO 23004KT 10SM CLR M12/M18 A3048 RMK AO2=
KEGV 042235Z AUTO 23004KT 10SM CLR M12/M20 A3035 RMK AO2
     T11221201=
KGGE 042235Z AUTO 32011KT 10SM CLR 02/M14 A3026 RMK AO2=
KHYX 042238Z AUTO 33004KT 10SM CLR M13/M21 A3043 RMK AO2=
KLDM 042236Z AUTO 00000KT 10SM SCT024 SCT031 BKN042 M09/M16 A3046
     RMK AO2=
KLRO 042235Z AUTO 31011G14KT 10SM CLR 02/M12 A3028 RMK AO2=
KLWA 042236Z AUTO 00000KT 10SM CLR M08/M15 A3045 RMK AO2=
KMCD 042236Z AUTO 30003KT 10SM CLR M14/M19 A3044 RMK AO2=
KMGN 042236Z AUTO 31003KT 10SM CLR M12/M20 A3045 RMK AO2=
KMOP 042236Z AUTO 32007KT 10SM CLR M12/M20 A3043 RMK AO2=
KOEB 042236Z AUTO 31007KT 10SM CLR M11/M19 A3041 RMK AO2=
KONZ 042236Z AUTO 31011G15KT 10SM CLR M11/M19 A3041 RMK AO2=
KOSC 042236Z AUTO 33005KT 10SM CLR M14/M22 A3041 RMK AO2=
KPHN 042237Z AUTO 30009G14KT 10SM CLR M13/M19 A3040 RMK AO2=
KPZQ 042235Z AUTO 28006KT 10SM SCT018 SCT027 M15/M21 A3043 RMK
     AO2=
KRBW 042235Z AUTO 30008KT 10SM CLR 02/M13 A3031 RMK AO2=
KRMY 042235Z AUTO 35003KT 10SM CLR M11/M20 A3041 RMK AO2=
KRNP 042235Z AUTO 30007KT 7SM CLR M12/M20 A3043 RMK AO2=
KSJX 042236Z AUTO 00000KT 10SM SCT034 M13/M19 A3046 RMK AO2=
KSLH 042235Z AUTO 29004KT 10SM CLR M15/M20 A3044 RMK AO2=
KSRR 042235Z AUTO 32007KT 10SM CLR 13/M14 A3039 RMK AO2=
KUTA 042235Z AUTO 36008KT 10SM CLR 00/M14 A3061 RMK AO2 TSNO=
PAGS 042236Z AUTO 33003KT 2 1/2SM BKN035 OVC043 M01/M03 A2972 RMK
     AO1 PNO=
PAHL 042236Z AUTO 00000KT 10SM CLR M34/ A2976 RMK AO1 PNO=
PAIN 042236Z AUTO 20003KT 10SM OVC065 M13/M18 A2952 RMK AO1
     PNO=
PAMD 042236Z 10029G36KT 2 1/2SM SCT010 OVC016 00/M02 A2951 RMK AO1
     PNO=
PAMM 042236Z AUTO 12009KT 100V170 8SM BKN016 OVC021 02/M02 A2980
     RMK AO1 PNO=
PAMY 042236Z AUTO 13021KT 1 1/2SM CLR M15/M18 A2929 RMK AO1=
PANV 042236Z AUTO 03012KT 9SM BKN034 OVC070 M28/M34 A2954 RMK AO1
     PNO=
####018000411####
SACN97 KWBC 042238
METAR CXDW 042200Z AUTO 18021G26KT M08/M11 RMK AO1 PK WND
19028/2102 T10821110=
METAR CXHF 042200Z AUTO M14/M19 RMK AO1 T11371194 50013=
METAR CXMD 042200Z AUTO 18015KT M09/M12 RMK AO1 PK WND 19023/2116
SLP171 T10861117 56049=
METAR CXHF 042200Z AUTO M14/M19 RMK AO1 T11371194 50013=
METAR CXMD 042200Z AUTO 18015KT M09/M12 RMK AO1 PK WND 19023/2116
SLP171 T10861117 56049=
####018000115####
SACN87 KWBC 042238
METAR CWEQ 042200Z AUTO 23008KT M02/M07 RMK AO1 PK WND 22017/2112
SLP069 T10201067 55011=
####018000105####
SACN89 KWBC 042238
METAR CWAF 042200Z AUTO 31030G36KT M24/M26 RMK AO1 PK WND
31036/2153 T12411264=
####018000077####
SPAK32 KWBC 042238
SPECI
PAEH SP 2235 AWOS -X M6 OVC 1 27/23/1525/931=
####018003696####
SAUS70 KWBC 042238
METAR
K21D 042239Z AUTO 17006KT 10SM CLR M11/M17 A3043 RMK AO2=
KAEL 042229Z AUTO 15006KT 10SM CLR M12/M16 A3041 RMK AO2=
KAIK 042235Z AUTO 28008KT 10SM CLR 01/M16 A3033 RMK AO2 PNO=
KBOW 042235Z AUTO 31012G15KT 10SM CLR 09/M08 A3033 RMK AO2=
KBWD 042235Z AUTO 13006KT 10SM CLR 18/M05 A3042 RMK AO2=
KCDD 042232Z AUTO 15004KT 10SM CLR M09/M20 A3031 RMK AO2=
KDRM 042237Z AUTO 29007KT 252V332 10SM CLR M18/M23 A3042 RMK
     AO2=
KDVP 042235Z AUTO 16019KT 10SM CLR M07/M13 A3028 RMK AO2
     T10751135=
KDXX 042234Z AUTO 16012KT 10SM CLR M07/M12 A3026 RMK AO2=
KDYT 042234Z AUTO 00000KT 10SM CLR M09/M20 A3041 RMK AO2=
KEFK 042235Z AUTO 28004KT 10SM CLR M16/M21 A3006 RMK AO2=
KELO 042233Z AUTO 20005KT 10SM CLR M11/M26 A3029 RMK AO2=
KEVM 042236Z AUTO 20005KT 10SM CLR M10/M21 A3032 RMK AO1=
KEZS 042239Z AUTO 10SM CLR M10/M19 A3046 RMK AO1=
KFBL 042235Z AUTO 16008KT 10SM CLR M09/M16 A3042 RMK AO2=
KFKA 042237Z AUTO 18007KT 10SM CLR M12/M17 A3044 RMK AO2
     T11191171=
KFPK 042234Z AUTO 33003KT 10SM CLR M11/M18 A3040 RMK AO2=
KFSO 042235Z AUTO 00000KT 10SM OVC045 M15/M21 A3016 RMK AO2=
KGMJ 042239Z AUTO 12004KT 10SM CLR 05/M09 A3049 RMK AO2=
KGYL 042235Z AUTO 13006KT 10SM CLR M07/M15 A3038 RMK AO2
     T10681153=
KHCD 042234Z AUTO 14008KT 10SM CLR M09/M13 A3036 RMK AO2
     T10901135=
KHCO 042235Z AUTO 17026G31KT 7SM OVC011 M11/M13 A3004 RMK AO2=
KHZX 042234Z AUTO 18004KT 10SM CLR M11/M18 A3033 RMK AO2=
KJKJ 042234Z AUTO 17016G22KT 10SM CLR M11/M14 A3018 RMK AO2=
KJMR 042236Z AUTO 18004KT 10SM CLR M11/M19 A3040 RMK AO2=
KLJF 042234Z AUTO 15006KT 10SM CLR M10/M16 A3035 RMK AO2=
KLUX 042235Z AUTO 34009G21KT 280V020 10SM CLR M01/M15 A3033 RMK
     AO2=
KLVN 042234Z AUTO 18005KT 10SM CLR M11/M16 A3042 RMK AO2=
KLXL 042238Z AUTO 14007KT 10SM CLR M11/M18 A3034 RMK AO2=
KMJQ 042232Z AUTO 17010KT 10SM CLR M08/M13 A3032 RMK AO2=
KMVE 042234Z AUTO 18005G17KT 10SM CLR M07/M16 A3028 RMK AO2=
KONA 042236Z AUTO 27003KT 10SM CLR M09/M18 A3052 RMK AO2=
KOVL 042235Z AUTO 16011KT 10SM CLR M08/M15 A3032 RMK AO2
     T10821146=
KOWA 042237Z AUTO 17007KT 10SM CLR M11/M17 A3041 RMK AO2=
KPEX 042233Z AUTO 14009KT 10SM CLR M10/M16 A3033 RMK AO2
     T11011156=
KROX 042234Z AUTO 18017G21KT 10SM SCT018 M09/M14 A3011 RMK AO2=
KRRT 042234Z AUTO 17011KT 10SM CLR M09/M17 A3014 RMK AO2=
KRYV 042234Z AUTO 00000KT 10SM CLR M12/M20 A3051 RMK AO2=
KSAZ 042234Z AUTO 16008KT 10SM CLR M12/M16 A3027 RMK AO2=
KSGS 042235Z AUTO 15005KT 10SM CLR M09/M16 A3044 RMK AO2
     T10901165=
KTOB 042235Z AUTO 17011KT 10SM CLR M12/M17 A3041 RMK AO2=
KVVV 042236Z AUTO 16013KT 10SM CLR M07/M12 A3024 RMK AO2=
K14Y 042235Z AUTO 12010KT 10SM CLR M11/M17 A3029 RMK AO2
     T11061170=
K4I3 042236Z AUTO 30010G16KT 10SM CLR M13/M17 A3036 RMK AO2=
KACQ 042239Z AUTO 15007KT 10SM CLR M10/M14 A3042 RMK AO2=
KADC 042237Z AUTO 15010KT 10SM CLR M13/M19 A3024 RMK AO2=
KAUM 042235Z AUTO 17006KT 10SM CLR M12/M16 A3042 RMK AO2=
KBDH 042235Z AUTO 15013G16KT 10SM CLR M08/M13 A3032 RMK AO2=
KBJI 042232Z AUTO 16013KT 10SM CLR M10/M19 A3019 RMK AO2
     T11051191=
KBUU 042239Z AUTO 29004KT 10SM CLR M10/M20 A3050 RMK AO2=
KCBG 042235Z AUTO 17004KT 10SM CLR M10/M18 A3042 RMK AO2=
KCFE 042234Z AUTO 14005KT 10SM CLR M10/M17 A3040 RMK AO2
     T11011167=
KCKC 042235Z AUTO 16003KT 10SM CLR M16/M20 A3030 RMK AO2=
KCKN 042235Z AUTO 17021G24KT 10SM OVC014 M09/M14 A3014 RMK AO2=
KCNB 042236Z AUTO 15008KT 10SM CLR M05/M11 A3025 RMK AO2
     T10481110=
KCOQ 042237Z AUTO 20008KT 10SM CLR M12/M19 A3034 RMK AO2=
KCQM 042237Z AUTO 15006KT 10SM CLR M11/M21 A3029 RMK AO2=
####018000082####
SPAK32 KWBC 042238
SPECI
PAIM SP 2235 AWOS CLR BLO 120 10 -24/-36/0000/965=
####018000082####
SPAK32 KWBC 042238
SPECI
PACZ SP 2235 AWOS M18 BKN 26 OVC 7 -1/-7/2208/932=
####018000105####
SPJP31 KWBC 042238
SPECI
RJAH 042224Z 36003KT 8000 FEW030 SCT250 M02/M03 Q1018 RMK 1CU030
A3007=
####018000077####
SPAK32 KWBC 042238
SPECI
PATL SP 2235 AWOS M20 OVC 7 -16/-23/0505/954=
####018000076####
SPAK32 KWBC 042238
SPECI
PASV SP 2235 AWOS M50 BKN 10 20/13/0000/939=
####018000082####
SPAK32 KWBC 042238
SPECI
PALU SP 2235 AWOS CLR BLO 120 10 -26/-34/0909/990=
####018003742####
SAUS70 KWBC 042238 RRA
METAR
KDTL 042233Z AUTO 17012KT 10SM CLR M12/M20 A3019 RMK AO2=
KFSE 042235Z AUTO 16012G16KT 10SM CLR M10/M19 A3015 RMK AO2=
KGLW 042231Z AUTO 29009KT 10SM SCT033 OVC039 M06/M13 A3049 RMK
     AO1=
KJYG 042235Z AUTO 15011KT 10SM CLR M09/M14 A3038 RMK AO2=
KRGK 042235Z AUTO 17004KT 10SM CLR M10/M17 A3046 RMK AO2=
KSME 042238Z AUTO 26004KT 10SM SCT031 OVC050 M06/M10 A3044 RMK
     AO2=
PAAK 042236Z AUTO 24020G28KT 10SM SCT037 BKN048 OVC050 02/M05
     A2927 RMK AO1 PNO=
PAAK 042236Z AUTO 24020G28KT 10SM SCT037 BKN048 OVC050 02/M05
     A2927 RMK AO1 PNO=
PABL 042236Z AUTO 00000KT 3/4SM BKN002 M43/ A2976 RMK AO1 PNO=
PABV 042236Z AUTO 20004KT 10SM FEW075 OVC110 M17/M18 A2972 RMK AO1
     PNO=
PAEM 042236Z AUTO 04004KT 10SM OVC070 M22/M25 A2946 RMK AO1
     PNO=
PAFE 042236Z 10008KT 2SM SCT022 BKN028 OVC048 00/M02 A2972 RMK AO1
     PNO=
PAFM 042236Z AUTO 05005KT 6SM OVC065 M29/M29 A2977 RMK AO1 PNO=
PAHP 042236Z AUTO 06026KT 1/4SM BKN034 OVC044 M43/ A2939 RMK AO1
     PNO=
PAHY 042236Z AUTO 22014G21KT 3SM FEW009 OVC014 02/00 A2972 RMK
     AO1=
PAII 042236Z AUTO 08006KT 10SM BKN030 OVC035 M08/M11 A2950 RMK AO1
     PNO=
PAKK 042236Z AUTO 01014G20KT 10SM CLR M28/M34 A2957 RMK AO1
     PNO=
PAKP 042236Z AUTO 00000KT 9SM SCT070 BKN100 M33/ A2946 RMK AO1=
PAMH 042236Z AUTO 00000KT 1 3/4SM SCT021 BKN025 OVC039 M29/M33
     A2964 RMK AO1 PNO=
PANI 042236Z AUTO 03005KT 10SM OVC028 M22/M27 A2946 RMK AO1=
PAPG 042236Z 00000KT 2SM OVC016 00/M02 A2972 RMK AO1 WEA: -SN
     PNO=
PAPH 042236Z AUTO 16012KT 10SM OVC026 01/M02 A2945 RMK AO1 PNO=
PARC 042236Z AUTO 00000KT 10SM CLR M33/ A2960 RMK AO1 PNO=
PASA 042236Z AUTO 08007KT 10SM CLR M31/M34 A2965 RMK AO1 PNO=
PASD 042236Z 23006G14KT 10SM BKN023 BKN028 OVC033 03/M02 A2948 RMK
     AO1 WEA: VIS LWR SW PNO=
PASH 042236Z AUTO 04005KT 10SM CLR M34/ A2979 RMK AO1 PNO=
PASK 042236Z 05013KT 10SM CLR M36/ A2980 RMK AO1 PNO=
PASL 042236Z AUTO 14003KT 5SM OVC060 M24/ A2963 RMK AO1 PNO=
PASM 042236Z 06012KT BKN020 OVC027 M23/M23 A2941 RMK AO1 PNO=
PASX 042236Z 06007KT 10SM OVC015 M13/M16 A2967 RMK AO1 PNO=
PATG 042236Z AUTO 01008KT 1 1/4SM SCT009 BKN014 OVC020 M08/M09
     A2944 RMK AO1 PNO=
PAUN 042236Z 08028G33KT 3/4SM OVC034 M23/ A2953 RMK AO1 PNO=
PAVD 042236Z 00000KT 10SM SCT030 BKN100 M09/M13 A2973 RMK AO1
     2147Z WEA: VCSH ALQDS TWR WND 00000KT PNO=
PAWG 042236Z 09012KT 3SM SCT005 BKN010 OVC020 01/M01 A2976 RMK AO1
     WEA:-SN BR PNO=
PAWS 042236Z AUTO 27003KT 10SM SCT080 OVC100 M16/M19 A2966 RMK AO1
     PNO=
PAZK 042236Z AUTO 00000KT 10SM SCT060 BKN080 M26/ A2946 RMK AO1
     PNO=
PFYU 042236Z 04006KT 10SM FEW060 M30/ A2985 RMK AO1 PNO=
KBAX 042236Z AUTO 30005KT 10SM CLR M14/M19 A3039 RMK AO2=
KCVX 042234Z AUTO 00000KT 10SM BKN028 M14/M20 A3047 RMK AO2=
KIRS 042235Z AUTO 34006KT 10SM CLR M10/M18 A3042 RMK AO2=
KLCK 042235Z AUTO 30009G16KT 10SM CLR M09/M16 A3042 RMK AO2
     T10911165=
KMWO 042235Z AUTO 28009KT 7SM -SN BKN032 M07/M12 A3049 RMK AO2=
KPVB 042235Z AUTO 17003KT 10SM CLR M09/M14 A3050 RMK AO1
     T10911141=
KRQB 042235Z AUTO 34006KT 10SM CLR M12/M19 A3042 RMK AO2=
KRZN 042235Z AUTO 22008KT 10SM CLR M09/M21 A3042 RMK AO2=
KTEW 042235Z AUTO 33005KT 10SM CLR M13/M20 A3041 RMK AO2=
KTTF 042235Z AUTO 30006KT 10SM CLR M12/M19 A3042 RMK AO2=
KUNI 042235Z AUTO 30007KT 10SM CLR M08/M16 A3038 RMK AO2=
KVLL 042235Z AUTO 32008KT 10SM CLR M11/M19 A3042 RMK AO2=
KY63 042235Z AUTO 16016KT 10SM CLR M09/M14 A3023 RMK AO2
     T10871143=
PAHP 042236Z AUTO 06026KT 1/4SM BKN034 OVC044 M43/ A2939 RMK AO1
     PNO=
K1P1 042235Z AUTO 00000KT 10SM CLR M10/M21 A3001 RMK AO2=
####018002150####
SAUS70 KWBC 042238 RRB
METAR
KARV 042235Z AUTO 24004KT 10SM CLR M12/M22 A3036 RMK AO2=
KBWP 042234Z AUTO 15015KT 10SM CLR M11/M14 A3022 RMK AO1
     T11081140=
KCMY 042235Z AUTO 00000KT CLR M10/M18 A3049 RMK AO2 PWINO=
KDLL 042235Z AUTO 24003KT 10SM CLR M10/M18 A3047 RMK AO2
     T11051182=
KEFT 042235Z AUTO 23004KT 10SM CLR M12/M18 A3048 RMK AO2=
KEGV 042235Z AUTO 23004KT 10SM CLR M12/M20 A3035 RMK AO2
     T11221201=
KGGE 042235Z AUTO 32011KT 10SM CLR 02/M14 A3026 RMK AO2=
KHYX 042238Z AUTO 33004KT 10SM CLR M13/M21 A3043 RMK AO2=
KLDM 042236Z AUTO 00000KT 10SM SCT024 SCT031 BKN042 M09/M16 A3046
     RMK AO2=
KLRO 042235Z AUTO 31011G14KT 10SM CLR 02/M12 A3028 RMK AO2=
KLWA 042236Z AUTO 00000KT 10SM CLR M08/M15 A3045 RMK AO2=
KMCD 042236Z AUTO 30003KT 10SM CLR M14/M19 A3044 RMK AO2=
KMGN 042236Z AUTO 31003KT 10SM CLR M12/M20 A3045 RMK AO2=
KMOP 042236Z AUTO 32007KT 10SM CLR M12/M20 A3043 RMK AO2=
KOEB 042236Z AUTO 31007KT 10SM CLR M11/M19 A3041 RMK AO2=
KONZ 042236Z AUTO 31011G15KT 10SM CLR M11/M19 A3041 RMK AO2=
KOSC 042236Z AUTO 33005KT 10SM CLR M14/M22 A3041 RMK AO2=
KPHN 042237Z AUTO 30009G14KT 10SM CLR M13/M19 A3040 RMK AO2=
KRBW 042235Z AUTO 30008KT 10SM CLR 02/M13 A3031 RMK AO2=
KRMY 042235Z AUTO 35003KT 10SM CLR M11/M20 A3041 RMK AO2=
KRNP 042235Z AUTO 30007KT 7SM CLR M12/M20 A3043 RMK AO2=
KSJX 042236Z AUTO 00000KT 10SM SCT034 M13/M19 A3046 RMK AO2=
KSLH 042235Z AUTO 29004KT 10SM CLR M15/M20 A3044 RMK AO2=
KSRR 042235Z AUTO 32007KT 10SM CLR 13/M14 A3039 RMK AO2=
KUTA 042235Z AUTO 36008KT 10SM CLR 00/M14 A3061 RMK AO2 TSNO=
PAGS 042236Z AUTO 33003KT 2 1/2SM BKN035 OVC043 M01/M03 A2972 RMK
     AO1 PNO=
PAHL 042236Z AUTO 00000KT 10SM CLR M34/ A2976 RMK AO1 PNO=
PAIN 042236Z AUTO 20003KT 10SM OVC065 M13/M18 A2952 RMK AO1
     PNO=
PAMD 042236Z 10029G36KT 2 1/2SM SCT010 OVC016 00/M02 A2951 RMK AO1
     PNO=
PAMM 042236Z AUTO 12009KT 100V170 8SM BKN016 OVC021 02/M02 A2980
     RMK AO1 PNO=
PAMY 042236Z AUTO 13021KT 1 1/2SM CLR M15/M18 A2929 RMK AO1=
PANV 042236Z AUTO 03012KT 9SM BKN034 OVC070 M28/M34 A2954 RMK AO1
     PNO=
####018000085####
SPAK32 KWBC 042238
SPECI
PABA SP 2235 AWOS 14 SCT M26 OVC 10 -26/-34/2807/000=
####018000685####
SPUS70 KWBC 042238
SPECI
KAKR 042235Z AUTO 30012KT 2SM -SN SCT008 BKN015 OVC030 M11/M14
     A3033 RMK AO2 SNB01 P0000=
KBEH 042235Z AUTO 36005KT 1SM -SN SCT009 BKN021 OVC033 M08/M12
     A3047 RMK AO2 SNB14 P0000=
KMGW 042235Z 28006KT 3SM -SN SCT030 BKN036 OVC048 M08/M12 A3026
     RMK AO2 P0000=
PAIW 042235Z AUTO 07021G26KT 1 1/4SM -SN OVC003 M33/M36 A2974 RMK
     AO2 PK WND 07028/2221 SNB16 FZRANO=
KBKL 042236Z 30016KT 8SM -SN FEW025 OVC037 M09/M15 A3038 RMK AO2
     P0000=
KCSV 042236Z AUTO 33003KT 3SM -SN BKN025 OVC033 M08/M11 A3041 RMK
     AO2 P0000=
KGKJ 042236Z AUTO 29006KT 1SM -SN FEW012 BKN023 M13/M17 A3025 RMK
     AO2 SNB21 P0000=
####018000470####
SPXX60 KWBC 042238
SPECI
KNHK 042233Z 29008KT 5SM -SN SCT015 BKN030 BKN060 M01/M07 A3014
     RMK AO2 SNB06 P0000=
PACZ SP 2235 AWOS M18 BKN 26 OVC 7 -1/-7/2208/932=
PAEH SP 2235 AWOS -X M6 OVC 1 27/23/1525/931=
PAIM SP 2235 AWOS CLR BLO 120 10 -24/-36/0000/965=
PALU SP 2235 AWOS CLR BLO 120 10 -26/-34/0909/990=
PASV SP 2235 AWOS M50 BKN 10 20/13/0000/939=
PATC SP 2235 AWOS MM 1/2 -30/-37/0227/966=
PATL SP 2235 AWOS M20 OVC 7 -16/-23/0505/954=
####018000673####
SAUS80 KWBC 042238
METAR
KLYV 042235Z AUTO 18013KT 10SM CLR M05/M11 A3029 RMK AO2=
KROS 042234Z AUTO 15008KT 10SM CLR M11/M18 A3041 RMK AO2
     T11061185=
KSMS 042235Z AUTO 30008G14KT 10SM FEW075 02/M14 A3029 RMK AO2=
KSYN 042233Z AUTO 18006KT 10SM CLR M09/M17 A3042 RMK AO2
     T10921168=
KTKC 042234Z AUTO 17009G19KT 10SM CLR M08/M14 A3028 RMK AO2
     T10791145=
KBPP 042236Z AUTO 26006KT 10SM CLR 08/00 A2996 RMK AO1=
PADK 042236Z AUTO 23031G38KT 10SM FEW022 SCT030 BKN048 02/M07
     A2921 RMK AO1 PNO=
KCLI 042235Z AUTO 00000KT 10SM CLR M11/M19 A3046 RMK AO2=
KPZQ 042235Z AUTO 28006KT 10SM SCT018 SCT027 M15/M21 A3043 RMK
     AO2=
####018000074####
SPAK32 KWBC 042238
SPECI
PATC SP 2235 AWOS MM 1/2 -30/-37/0227/966=
####018000109####
SPNL31 KWBC 042238
SPECI
EHVL 042231Z AUTO 08006KT 1900NDV BR BKN012 BKN015 OVC018 01/M00
Q0996 YLO=
####018000103####
SPXX62 KWBC 042238
SPECI
RKSG 042232Z AUTO 02003KT 2800 BR FEW070 00/M00 A3017 RMK AO2
SLP219=
####018000103####
SPUS41 KWBC 042238
SPECI
KAKR 042235Z AUTO 30012KT 2SM -SN SCT008 BKN015 OVC030 M11/M14
A3033=
####018000103####
SPXX62 KWBC 042238
SPECI
RKSG 042235Z AUTO 00000KT 2400 BR FEW070 00/M00 A3017 RMK AO2
SLP219=
####018000455####
SAAS33 KWBC 042230 RRA
METAR
VDSR 042230Z NIL=
VLVT 042230Z NIL=
VTBD 042230Z 11003KT 7000 NSC 24/22 Q1011 NOSIG=
VTBU 042230Z NIL=
VTCC 042230Z 00000KT CAVOK 17/14 Q1014 A2995=
VTSP 042230Z 00000KT 8000 FEW020 SCT300 22/21 Q1011 A2986=
VTSS 042230Z 00000KT 5000 BR FEW020 SCT300 21/20 Q1011 A2985=
VVDN 042230Z NIL=
VVNB 042230Z VRB03KT 3800 BR SCT013 OVC050 19/17 Q1015 NOSIG=
VVTS 042230Z VRB03KT 9999 FEW017 23/22 Q1011 NOSIG=
####018000181####
SAEW31 KWBC 042230 RRA
METAR
LPAZ 042230Z 34014KT 7000 -RA FEW005 SCT015 FEW020TCU OVC120 12/11
     Q1011=
LPPD 042230Z 02010KT 340V050 9999 BKN016 FEW020CB 11/08 Q1010=
####018000510####
SAJP31 KWBC 042230 RRA
METAR
RJAA 042230Z 34006KT 4000 BR FEW020 BKN/// 02/01 Q1018 BECMG 6000
     NSW=
RJAA 042230Z 34006KT 4000 BR FEW020 BKN/// 02/01 Q1018 BECMG 6000
     NSW RMK 1CU020 A3008=
RJCC 042230Z 17008KT 9999 FEW025 BKN080 M04/M08 Q1015=
RJCC 042230Z 17008KT 9999 FEW025 BKN080 M04/M08 Q1015 RMK 1CU025
     7AC080 A2998=
RJTT 042230Z 02006KT 7000 FEW020 SCT035 BKN/// 06/01 Q1018=
RJTT 042230Z 02006KT 7000 FEW020 SCT035 BKN/// 06/01 Q1018 RMK
     1CU020 3SC035 A3008=
####018000117####
SAPA32 KWBC 042200 RRA
METAR
NWWW 042230Z AUTO 03004KT 320V080 9999NDV FEW054/// BKN090///
     28/24 Q0999=
####018000073####
SAIO31 KWBC 042200 RRD
METAR
VYMD 042230Z NIL=
VYYY 042230Z NIL=
####018000594####
SAEM31 KWBC 042230 RRA
METAR
LJLJ 042230Z 00000KT 2000 BR FEW001 OVC025 00/00 Q1003 NOSIG=
LJMB 042230Z VRB02KT 0400 R33/0300V0500N FZFG SKC M02/M03
     Q1001=
LJPZ 042230Z AUTO 15009KT 120V190 9999NDV NSC 10/09 Q1004=
LKMT 042230Z 00000KT 0300 R22/0450D R04/0400N FG OVC002 03/02
     Q1001 NOSIG RMK REG QNH 0995=
LYBE 042230Z 22005KT 3800 BR BKN043 07/06 Q1005 NOSIG=
LYNI 042230Z 00000KT 9999 -RA BKN030 10/07 Q1006=
LYPG 042230Z 20003KT 9999 FEW015 SCT040 BKN090 11/11 Q1008
     NOSIG=
LYTV 042230Z 14004KT 120V190 9999 FEW015 SCT030 OVC073 13/13
     Q1008=
####018000181####
SAPO31 KWBC 042200 RRD
METAR
LPAZ 042230Z 34014KT 7000 -RA FEW005 SCT015 FEW020TCU OVC120 12/11
     Q1011=
LPPD 042230Z 02010KT 340V050 9999 BKN016 FEW020CB 11/08 Q1010=
####018000126####
SAUR31 KWBC 042150 RRB
METAR
UKCW 042230Z 18010MPS CAVOK 02/M01 Q1009 09850545 BECMG
     18010G15MPS 3100 BR SCT006=
####018000190####
SAAS31 KWBC 042230 RRA
METAR
VIDP 042230Z 11005KT 1400 R29/P2000 BR SCT040 SCT100 15/08 Q1013
     NOSIG=
VTBS 042230Z 16004KT 110V200 8000 FEW010 BKN300 26/22 Q1011
     NOSIG=
####018000073####
SAGL KAWN 042200 RRB
METAR BIKF 042230Z 01015KT CAVOK M06/M11 Q1022=
####018000205####
SAXX99 KWBC 042200 RRX
METAR
RJBB 042230Z 11006KT 9999 FEW030 05/01 Q1019 NOSIG=
RJBH 042230Z 03005KT CAVOK 01/M01 Q1020=
RJGG 042230Z 32008KT 9999 FEW030 SCT040 BKN170 06/01 Q1018
     NOSIG=
####018000093####
SPCN43 CWAO 042233
SPECI CYNE 042233Z AUTO 17019G31KT 3/4SM BKN008 OVC050 M12/M14 A2969=
####018000081####
SPCN44 CWAO 042234
SPECI CYIO 042234Z AUTO 00000KT 4SM OVC012 M36/M40 A3007=
####018000087####
SPCN45 CWAO 042232
SPECI CYCS 042232Z 14026KT 3/4SM BLSN SCT090 OVC240 RMK AS3CI3=
####018000099####
SPCN52 CWAO 042237
SPECI CWFD 042237Z AUTO 01020KT 3/8SM BKN007 M20/ A2940 RMK ICG
INTMT=

####018001920####
SAUS20 KNKA 042238
METAR KAMN 042237Z AUTO 34005KT 10SM CLR M12/M21 A3043 RMK AO2=
METAR KCAD 042237Z AUTO 33004KT 10SM BKN025 M15/M20 A3038 RMK AO2=
METAR KCDA 042237Z AUTO 23010KT 10SM SCT090 BKN120 M15/M21 A3003 RMK AO2=
METAR KCFS 042236Z AUTO 29004KT 10SM CLR M14/M22 A3042 RMK AO2=
METAR KDUH 042236Z AUTO 32003KT 10SM CLR M11/M18 A3043 RMK AO2=
METAR KERY 042236Z AUTO 00000KT 10SM BKN033 M15/M20 A3044 RMK AO2=
METAR KETB 042235Z AUTO 29006KT 10SM CLR M12/M18 A3049 RMK AO2=
METAR KFFX 042234Z AUTO 01005KT 10SM CLR M10/M23 A3043 RMK AO2=
METAR KFKS 042236Z AUTO 08004KT 2 1/2SM -SN OVC039 M09/M15 A3046 RMK AO2=
METAR KGOV 042236Z AUTO 31006KT 10SM CLR M15/M22 A3040 RMK AO2=
METAR KHAI 042237Z AUTO 36003KT 10SM CLR M08/M17 A3044 RMK AO2=
METAR KHYI 042235Z AUTO 13006KT 10SM CLR 21/M04 A3045 RMK AO1=
METAR KILE 042235Z AUTO 12007KT 10SM CLR 16/M03 A3046 RMK AO1=
METAR KISQ 042237Z AUTO 35003KT 10SM OVC040 M12/M18 A3045 RMK AO2=
METAR KJYM 042237Z AUTO 33008KT 10SM CLR M12/M20 A3038 RMK AO2=
METAR KLNL 042235Z AUTO 27003KT 10SM CLR M11/M18 A3036 RMK AO2=
METAR KMDZ 042235Z AUTO 19004KT 10SM CLR M13/M19 A3040 RMK AO2=
METAR KMRJ 042235Z AUTO 00000KT 10SM CLR M11/M18 A3049 RMK AO2 T11151182
=
METAR KOCH 042235Z AUTO 00000KT 10SM CLR 13/M06 A3054 RMK AO1=
METAR KOEO 042235Z AUTO 19005KT 10SM CLR M11/M18 A3044 RMK AO2=
METAR KOZW 042237Z AUTO 33005KT 10SM CLR M14/M21 A3041 RMK AO2=
METAR KPBH 042235Z AUTO 20005KT 10SM CLR M11/M21 A3039 RMK AO2=
METAR KPCZ 042235Z AUTO 24004KT 10SM CLR M11/M19 A3047 RMK AO2=
METAR KPDC 042235Z AUTO 24003KT 10SM CLR M10/M18 A3052 RMK AO2 T10981184=
METAR KPRX 042235Z AUTO 16005KT 10SM CLR 09/M07 A3051 RMK AO1=
METAR KPWG 042235Z AUTO 10007KT 10SM CLR 16/M04 A3049 RMK AO1=
METAR KRCX 042235Z AUTO 17006KT 10SM CLR M10/M17 A3043 RMK AO2
=
METAR KTPL 042235Z 14006KT 10SM CLR 16/M03 A3047 RMK AO1 
     =
####018000195####
SAAO32 GOOY 042230
METAR GOOY 042230Z 34010KT CAVOK 17/16 Q1015 NOSIG=
METAR DIAP 042230Z 25001KT 8000 SCT011 27/26 Q1013 NOSIG=
METAR GQNN 042230Z 35010KT 8000 NSC 17/15 Q1016 NOSIG=

####018000319####
SARA31 RUMS 042230
METAR UEEE 042230Z 00000MPS 0250 R23L/0700D FG VV002 M44/M49
     Q1026 NOSIG RMK QBB080 QFE761 23490145=
METAR UELL 042230Z 00000MPS 9999 SCT200 M35/M37
Q1013 NOSIG RMK QFE685 08490832=
METAR UERP 042230Z NIL=
METAR UERR 042230Z NIL=
METAR UESO 042230Z NIL=
METAR UEST 042230Z NIL=
####018000700####
SARS32 RUMS 042230
METAR URKA 042230Z NIL=
URKK 042230Z 03002MPS CAVOK 03/01 Q1012 NOSIG RMK
QFE756 SC070=
METAR URKM 042230Z NIL=
METAR URML 042230Z NIL=
METAR URMM 042230Z 09003MPS 3000 BR OVC003 M01/M02 Q1015
NOSIG RMK QBB110 g/~z SC070=
METAR URMN 042230Z NIL=
METAR URMT 042230Z 12004MPS 9999 BKN010 M02/M03 Q1013 NOSIG RMK QFE721 SC065=
METAR URRR 042230Z 09004MPS CAVOK M01/M02 Q1012 NOSIG RMK
SC060=
METAR URSS 042230Z 09003MPS 9999 OVC100 07/M00 Q1013 NOSIG RMK
     g/o QFE759 06CLRD70=
METAR URWA 042230Z 10004MPS 9999 OVC022 M04/M06 Q1022 NOSIG RMK SC06=
METAR URWI 042230Z NIL=
METAR URWW 042230Z 19004G06MPS 9999 OVC004 M04/M04 Q1017
NOSIG RMK SC065=
####018000586####
SARA36 RUMS 042230
METAR USCC 042230Z NIL=
METAR USDD 042230Z 03003MPS 6000 -SN OVC070 M32/M35 Q1002 NOSIG
RMK QFE746=
METAR USMU 042230Z NIL=
USNN 042230Z 26005MPS P6000 -SN OVC066 M25/M27  Q0996 NOSIG RMK
QFE741 SC042=
METAR USRK 042230Z NIL=
METAR USRR 042230Z 30003MPS 7000 SCT018 OVC070 M30/M33
Q0996 TEMPO 2000 SHSN BKN007 RMK QFE742 25////45=
USSS 042230Z 25005MPS 3200 -SHSN SCT016 OVC067 M10/M12 Q1002 TEMPO
0800 +SHSN VV003 RMK QFE731 26920360=
METAR UWUU 042230Z 20004MPS 9999 SCT040 OVC100 M11/M14 Q1010
WS RWY14L NOSIG RMK QFE747/0996 14811052=
####018000702####
SARA32 RUMS 042230
METAR UHHH 042230Z 26007MPS CAVOK M17/M19 Q1015 NOSIG RMK
QFE755/1006 23810555=
METAR UHMA 042230Z 33006MPS 1800 PRFZFG BKN080 M36/M38 Q1013
TEMPO 1200 PRFZFG RMK QFE756/1008 8870//60=
METAR UHMM 042230Z NIL=
METAR UHMP 042230Z NIL=
METAR UHNN 042230Z 28001MPS 9999 FEW200 M27/M29 Q1014 NOSIG RMK
QFE754 298///40=
METAR UHPP 042230Z 33002MPS 9999 BKN/// M10/M14 Q0998 NOSIG RMK
QFE745/0994 MT OBS SC040=
METAR UHSH 042230Z 28005MPS CAVOK M21/M22 Q1011 RMK QFE755
31890534=
METAR UHSS 042230Z 36002MPS 6000 NSC M18/M20 Q1011 NOSIG RMK QFE757/1009
     01810560=
METAR UHWW 042230Z 34003MPS 9999 SCT200 M06/M10 Q1018 NOSIG
     RMK QFE763/1017 7581//55=
####018001059####
SARA34 RUMS 042230
METAR UNAA 042230Z VRB02MPS 1300 R02/P1500N BR FEW003 OVC100
     M09/M10 Q1011 NOSIG RMK QFE736 028///40 =
METAR UNBB 042230Z 25011G16MPS 0900 R24/1600 -SN +BLSN
 BKN010 M08/M09 Q1010 RESN TEMPO 0300 +SHSN BLSN VV003 
 RMK QFE736 24421045=
METAR UNEE 042230Z 20006G11MPS 3400 -SHSN DRSN OVC012CB  
M07/M10 Q1005 TEMPO 1000 RMK QFE731 23454045=
METAR UNKL 042230Z 00000MPS 9999 FEW040 BKN083 M05/M11 Q1006 NOSIG
 RMK QFE729 29////35=
METAR UNNT 042230Z 23008G14MPS 6000 -SHSN DRSN BKN016CB
M10/M14 Q1007 NOSIG RMK QFE745/0994 25390139=
METAR UNOO 042230Z 24008MPS 6000 -SN BLSN BKN014 OVC066 M09/M11
     Q1001 TEMPO 19010MPS 0700 +SN BLSN 25421040 RMK QFE743=
METAR UNWW 042230Z 21009G14MPS 1000  R19/1300 SN BLSN OVC006 
M07/M08 Q1009 NOSIG  RMK QFE730 QBB180 19831050=
METAR USHH 042230Z 26002MPS 9999 -SN FEW026 OVC080 M30/M33 Q1000
     TEMPO 3000 BKN010 RMK QFE746 SC05=
METAR USTR 042230Z 00000MPS 2600 SHSN BKN015CB OVC070
M16/M18 Q1002 TEMPO 1500 SHSN BKN005 RMK QFE742/0989 03450345
12750029=
####018000388####
SARA33 RUMS 042230
METAR UIAA 042230Z 00000MPS 1200 BR FEW003 M29/M33 Q1018 TEMPO 
0500 FG FEW002 RMK QFE705 29420250=
METAR UIBB 042230Z 17004MPS 5000 OVC200 M13/M14 Q1009 NOSIG RMK 
QFE714/0952 30390132=
METAR UIII 042230Z 10003MPS CAVOK M17/M19 Q1014 NOSIG RMK
QFE718/0958 12810360=
METAR UIUU 042230Z 25002MPS 9999 NSC M29/M31 Q1020 NOSIG 
RMK QFE720/0961 26410560=
####018000400####
SARS33 RUMS 042230
METAR ULLI 042230Z 25002MPS 4100 BR BKN008 OVC066 M10/M11
Q1006  78090072 BECMG 2000 BR BKN007=
METAR UUDD 042230Z 29005MPS 9999 BKN011 M04/M05 Q1002
32590140 82490138 NOSIG=
METAR UUEE 042230Z 29005MPS 9999 BKN018 M06/M08 Q1002 NOSIG
     RMK 75420236 25000000=
METAR UUEM 042230Z NIL=
METAR UUWW 042230Z 28004MPS 9999 OVC016 M05/M06 Q1002 24451037
     NOSIG =
####018000028####
SARS34 RUMS 042230
NIL=
####018000719####
SARS31 RUMS 042230
METAR ULAA 042230Z NIL=
METAR ULKK 042230Z NIL=
METAR ULLI 042230Z 25002MPS 4100 BR BKN008 OVC066 M10/M11
Q1006  78090072 BECMG 2000 BR BKN007=
METAR ULMM 042230Z 15002MPS CAVOK M29/M33 Q1016 NOSIG RMK QFE755
14850140=
METAR ULOL 042230Z NIL=
METAR ULOO 042230Z NIL=
METAR ULWW 042230Z NIL=
METAR UMKK 042230Z 10003MPS 3500 BR OVC013 M03/M04 Q1002 NOSIG RMK
QFE 750 SC065=
METAR UUBP 042230Z NIL=
METAR UUOB 042230Z NIL=
METAR UUOK 042230Z NIL=
METAR UUOO 042230Z 16002MPS 2000 SN OVC006 M04/M04 Q1006 TEMPO
     0600 FZDZ FZFG VV002 RMK 13494030=
METAR UWGG 042230Z VRB02MPS 0600 R18R/1000VP1500U +SHSN VV003
      M06/M07 Q1002 NOSIG RMK QBB110 QFE745 18850538=
####018000298####
SARA35 RUMS 042230
METAR ULDD 042230Z NIL=
METAR UOHH 042230Z NIL=
METAR UOII 042230Z NIL=
METAR UOOO 042230Z 07007MPS 9999 DRSN SKC M32/M36
Q1002 TEMPO 0700 FG SCT003 RMK QFE737 0139//40=
METAR USCM 042230Z 25011MPS 9000 FEW033 BKN100 M09/M13 Q1007
     NOSIG 19090065 RMK QFE718=
####018000385####
SARA33 RUMS 042230
METAR UIAA 042230Z 00000MPS 1200 BR FEW003 M29/M33 Q1018 TEMPO
0500 FG FEW002 RMK QFE705 29420250=
METAR UIBB 042230Z 17004MPS 5000 OVC200 M13/M14 Q1009 NOSIG RMK
QFE714/0952 30390132=
METAR UIII 042230Z 10003MPS CAVOK M17/M19 Q1014 NOSIG RMK
QFE718/0958 12810360=
METAR UIUU 042230Z 25002MPS 9999 NSC M29/M31 Q1020 NOSIG
RMK QFE720/0961 26410560=
####018000402####
SARS33 RUMS 042230
METAR ULLI 042230Z 25002MPS 4100 BR BKN008 OVC066 M10/M11
Q1006  78090072 BECMG 2000 BR BKN007=
METAR UUDD 042230Z 29005MPS 9999 BKN011 M04/M05 Q1002
32590140 82490138 NOSIG=
METAR UUEE 042230Z 29005MPS 9999 BKN018 M06/M08 Q1002 NOSIG
     RMK 75420236 25000000=
METAR UUEM 042230Z NIL=
METAR UUWW 042230Z 28004MPS 9999 OVC016 M05/M06 Q1002 24451037
     NOSIG =
####018000297####
SARA35 RUMS 042230
METAR ULDD 042230Z NIL=
METAR UOHH 042230Z NIL=
METAR UOII 042230Z NIL=
METAR UOOO 042230Z 07007MPS 9999 DRSN SKC M32/M36
Q1002 TEMPO 0700 FG SCT003 RMK QFE737 0139//40=
METAR USCM 042230Z 25011MPS 9000 FEW033 BKN100 M09/M13 Q1007
     NOSIG 19090065 RMK QFE718=
####018000708####
SARA32 RUMS 042230
METAR UHHH 042230Z 26007MPS CAVOK M17/M19 Q1015 NOSIG RMK
QFE755/1006 23810555=
METAR UHMA 042230Z 33006MPS 1800 PRFZFG BKN080 M36/M38 Q1013
TEMPO 1200 PRFZFG RMK QFE756/1008 8870//60=
METAR UHMM 042230Z NIL=
METAR UHMP 042230Z NIL=
METAR UHNN 042230Z 28001MPS 9999 FEW200 M27/M29 Q1014 NOSIG RMK
QFE754 298///40=
METAR UHPP 042230Z 33002MPS 9999 BKN/// M10/M14 Q0998 NOSIG RMK
QFE745/0994 MT OBS SC040=
METAR UHSH 042230Z 28005MPS CAVOK M21/M22 Q1011 RMK QFE755
31890534=
METAR UHSS 042230Z 36002MPS 6000 NSC M18/M20 Q1011 NOSIG RMK 
QFE757/1009
     01810560=
METAR UHWW 042230Z 34003MPS 9999 SCT200 M06/M10 Q1018 NOSIG
     RMK QFE763/1017 7581//55=
####018000320####
SARA31 RUMS 042230
METAR UEEE 042230Z 00000MPS 0250 R23L/0700D FG VV002 M44/M49
     Q1026 NOSIG RMK QBB080 QFE761 23490145=
METAR UELL 042230Z 00000MPS 9999 SCT200 M35/M37
Q1013 NOSIG RMK QFE685 08490832=
METAR UERP 042230Z NIL=
METAR UERR 042230Z NIL=
METAR UESO 042230Z NIL=
METAR UEST 042230Z NIL=
####018001060####
SARA34 RUMS 042230
METAR UNAA 042230Z VRB02MPS 1300 R02/P1500N BR FEW003 OVC100
     M09/M10 Q1011 NOSIG RMK QFE736 028///40 =
METAR UNBB 042230Z 25011G16MPS 0900 R24/1600 -SN +BLSN
 BKN010 M08/M09 Q1010 RESN TEMPO 0300 +SHSN BLSN VV003
 RMK QFE736 24421045=
METAR UNEE 042230Z 20006G11MPS 3400 -SHSN DRSN OVC012CB
M07/M10 Q1005 TEMPO 1000 RMK QFE731 23454045=
METAR UNKL 042230Z 00000MPS 9999 FEW040 BKN083 M05/M11 Q1006 NOSIG
 RMK QFE729 29////35=
METAR UNNT 042230Z 23008G14MPS 6000 -SHSN DRSN BKN016CB
M10/M14 Q1007 NOSIG RMK QFE745/0994 25390139=
METAR UNOO 042230Z 24008MPS 6000 -SN BLSN BKN014 OVC066 M09/M11
     Q1001 TEMPO 19010MPS 0700 +SN BLSN 25421040 RMK QFE743=
METAR UNWW 042230Z 21009G14MPS 1000  R19/1300 SN BLSN OVC006
M07/M08 Q1009 NOSIG  RMK QFE730 QBB180 19831050=
METAR USHH 042230Z 26002MPS 9999 -SN FEW026 OVC080 M30/M33 Q1000
     TEMPO 3000 BKN010 RMK QFE746 SC05=
METAR USTR 042230Z 00000MPS 2600 SHSN BKN015CB OVC070
M16/M18 Q1002 TEMPO 1500 SHSN BKN005 RMK QFE742/0989 03450345
12750029=
####018000521####
SARS35 RUMS 042230
METAR USPP 042230Z 23005MPS 3000 -SN BKN012 OVC096 M08/M09
Q1002 NOSIG RMK QFE741/0988 21390132=
METAR UWKD 042230Z NIL=
METAR UWKE 042230Z NIL=
METAR UWKS 042230Z NIL=
METAR UWLL 042230Z NIL=
METAR UWLW 042230Z NIL=
METAR UWOO 042230Z NIL=
METAR UWOR 042230Z NIL=
METAR UWPP 042230Z NIL=
METAR UWSS 042230Z 18006MPS CAVOK M08/M09 Q1014
NOSIG RMK QFE748 12800255=
METAR UWWW 042230Z 21006MPS 9999 FEW033 SCT100 OVC200 M11/M13 Q1012
NOSIG RMK QFE748/0997 23//99// 15450545=
####018000704####
SARS32 RUMS 042230
METAR URKA 042230Z NIL=
URKK 042230Z 03002MPS CAVOK 03/01 Q1012 NOSIG RMK
QFE756 SC070=
METAR URKM 042230Z NIL=
METAR URML 042230Z NIL=
METAR URMM 042230Z 09003MPS 3000 BR OVC003 M01/M02 Q1015
NOSIG RMK QBB110 G/?Z SC070=
METAR URMN 042230Z NIL=
METAR URMT 042230Z 12004MPS 9999 BKN010 M02/M03 Q1013 NOSIG RMK 
QFE721 SC065=
METAR URRR 042230Z 09004MPS CAVOK M01/M02 Q1012 NOSIG RMK
SC060=
METAR URSS 042230Z 09003MPS 9999 OVC100 07/M00 Q1013 NOSIG RMK
     G/O QFE759 06CLRD70=
METAR URWA 042230Z 10004MPS 9999 OVC022 M04/M06 Q1022 NOSIG RMK SC06=
METAR URWI 042230Z NIL=
METAR URWW 042230Z 19004G06MPS 9999 OVC004 M04/M04 Q1017
NOSIG RMK SC065=
####018000466####
SAAL40 DAMM 042230
METAR DAAG 042230Z 34007KT 9999 FEW026 14/09 Q1006=
METAR DAAT 042230Z 03002KT CAVOK 12/M11 Q1021=
METAR DABB 042230Z 26008KT CAVOK 10/08 Q1008=
METAR DABC 042230Z 00000KT 9999 FEW030 08/05 Q1010=
METAR DABS 042230Z 24012KT 9999 FEW040 SCT230 11/02 Q1012=
METAR DAON 042230Z 22012KT 9999 BKN026 12/09 Q1007=
METAR DAOO 042230Z 24003KT CAVOK 10/09 Q1006=
METAR DAUH 042230Z 14006KT 8000 SKC 14/12 Q1011=
METAR DAUZ 042230Z NIL=
####018000522####
SARS35 RUMS 042230
METAR USPP 042230Z 23005MPS 3000 -SN BKN012 OVC096 M08/M09
Q1002 NOSIG RMK QFE741/0988 21390132=
METAR UWKD 042230Z NIL=
METAR UWKE 042230Z NIL=
METAR UWKS 042230Z NIL=
METAR UWLL 042230Z NIL=
METAR UWLW 042230Z NIL=
METAR UWOO 042230Z NIL=
METAR UWOR 042230Z NIL=
METAR UWPP 042230Z NIL=
METAR UWSS 042230Z 18006MPS CAVOK M08/M09 Q1014
NOSIG RMK QFE748 12800255=
METAR UWWW 042230Z 21006MPS 9999 FEW033 SCT100 OVC200 M11/M13 Q1012
NOSIG RMK QFE748/0997 23//99// 15450545=
####018000079####
SPCN49 CWAO 042237
SPECI CYSJ 042237Z 31007KT 15SM BKN021 M10/ RMK SC5=

####018000721####
SARS31 RUMS 042230
METAR ULAA 042230Z NIL=
METAR ULKK 042230Z NIL=
METAR ULLI 042230Z 25002MPS 4100 BR BKN008 OVC066 M10/M11
Q1006  78090072 BECMG 2000 BR BKN007=
METAR ULMM 042230Z 15002MPS CAVOK M29/M33 Q1016 NOSIG RMK QFE755
14850140=
METAR ULOL 042230Z NIL=
METAR ULOO 042230Z NIL=
METAR ULWW 042230Z NIL=
METAR UMKK 042230Z 10003MPS 3500 BR OVC013 M03/M04 Q1002 NOSIG RMK
QFE 750 SC065=
METAR UUBP 042230Z NIL=
METAR UUOB 042230Z NIL=
METAR UUOK 042230Z NIL=
METAR UUOO 042230Z 16002MPS 2000 SN OVC006 M04/M04 Q1006 TEMPO
     0600 FZDZ FZFG VV002 RMK 13494030=
METAR UWGG 042230Z VRB02MPS 0600 R18R/1000VP1500U +SHSN VV003
      M06/M07 Q1002 NOSIG RMK QBB110 QFE745 18850538=
####018000125####
SAXX60 KAWN 042200 RRC
METAR RJTT 042230Z 02006KT 7000 FEW020 SCT035 BKN/// 06/01 Q1018 RMK
      1CU020 3SC035 A3008=
####018000225####
SAUK KAWN 042200 RRF
METAR EICK 042230Z 03015KT 9999 FEW007 BKN009 BKN060 02/01 Q0990 NOSIG=
METAR EIDW 042230Z 36007KT 9999 FEW022 BKN030 02/00 Q0992 NOSIG=
METAR EINN 042230Z 35006KT 9999 FEW030 00/M00 Q0993 NOSIG=
####018001775####
SAUS99 KWBC 042239
METAR
KAMN 042237Z AUTO 34005KT 10SM CLR M12/M21 A3043 RMK AO2=
KCAD 042237Z AUTO 33004KT 10SM BKN025 M15/M20 A3038 RMK AO2=
KCDA 042237Z AUTO 23010KT 10SM SCT090 BKN120 M15/M21 A3003 RMK
     AO2=
KCFS 042236Z AUTO 29004KT 10SM CLR M14/M22 A3042 RMK AO2=
KDUH 042236Z AUTO 32003KT 10SM CLR M11/M18 A3043 RMK AO2=
KERY 042236Z AUTO 00000KT 10SM BKN033 M15/M20 A3044 RMK AO2=
KETB 042235Z AUTO 29006KT 10SM CLR M12/M18 A3049 RMK AO2=
KFFX 042234Z AUTO 01005KT 10SM CLR M10/M23 A3043 RMK AO2=
KFKS 042236Z AUTO 08004KT 2 1/2SM -SN OVC039 M09/M15 A3046 RMK
     AO2=
KGOV 042236Z AUTO 31006KT 10SM CLR M15/M22 A3040 RMK AO2=
KHAI 042237Z AUTO 36003KT 10SM CLR M08/M17 A3044 RMK AO2=
KHYI 042235Z AUTO 13006KT 10SM CLR 21/M04 A3045 RMK AO1=
KILE 042235Z AUTO 12007KT 10SM CLR 16/M03 A3046 RMK AO1=
KISQ 042237Z AUTO 35003KT 10SM OVC040 M12/M18 A3045 RMK AO2=
KJYM 042237Z AUTO 33008KT 10SM CLR M12/M20 A3038 RMK AO2=
KLNL 042235Z AUTO 27003KT 10SM CLR M11/M18 A3036 RMK AO2=
KMDZ 042235Z AUTO 19004KT 10SM CLR M13/M19 A3040 RMK AO2=
KMRJ 042235Z AUTO 00000KT 10SM CLR M11/M18 A3049 RMK AO2
     T11151182=
KOCH 042235Z AUTO 00000KT 10SM CLR 13/M06 A3054 RMK AO1=
KOEO 042235Z AUTO 19005KT 10SM CLR M11/M18 A3044 RMK AO2=
KOZW 042237Z AUTO 33005KT 10SM CLR M14/M21 A3041 RMK AO2=
KPBH 042235Z AUTO 20005KT 10SM CLR M11/M21 A3039 RMK AO2=
KPCZ 042235Z AUTO 24004KT 10SM CLR M11/M19 A3047 RMK AO2=
KPDC 042235Z AUTO 24003KT 10SM CLR M10/M18 A3052 RMK AO2
     T10981184=
KPRX 042235Z AUTO 16005KT 10SM CLR 09/M07 A3051 RMK AO1=
KPWG 042235Z AUTO 10007KT 10SM CLR 16/M04 A3049 RMK AO1=
KRCX 042235Z AUTO 17006KT 10SM CLR M10/M17 A3043 RMK AO2=
KTPL 042235Z 14006KT 10SM CLR 16/M03 A3047 RMK AO1=
####018000111####
SAAK32 KWBC 042200 RRC
METAR
PADK 042236Z AUTO 23031G38KT 10SM FEW022 SCT030 BKN048 02/M07
     A2921=
####018000457####
SAAL40 DAMM 042230
METAR DAAG 042230Z 34007KT 9999 FEW026 14/09 Q1006=
METAR DAAT 042230Z 03002KT CAVOK 12/M11 Q1021=
METAR DABB 042230Z 26008KT CAVOK 10/08 Q1008=
METAR DABC 042230Z 00000KT 9999 FEW030 08/05 Q1010=
METAR DABS 042230Z 24012KT 9999 FEW040 SCT230 11/02 Q1012=
METAR DAON 042230Z 22012KT 9999 BKN026 12/09 Q1007=
METAR DAOO 042230Z 24003KT CAVOK 10/09 Q1006=
METAR DAUH 042230Z 14006KT 8000 SKC 14/12 Q1011=
METAR DAUZ 042230Z NIL=
####018000377####
SARA33 RUMS 042230
METAR UIAA 042230Z 00000MPS 1200 BR FEW003 M29/M33 Q1018 TEMPO
0500 FG FEW002 RMK QFE705 29420250=
METAR UIBB 042230Z 17004MPS 5000 OVC200 M13/M14 Q1009 NOSIG RMK
QFE714/0952 30390132=
METAR UIII 042230Z 10003MPS CAVOK M17/M19 Q1014 NOSIG RMK
QFE718/0958 12810360=
METAR UIUU 042230Z 25002MPS 9999 NSC M29/M31 Q1020 NOSIG
RMK QFE720/0961 26410560=
####018000393####
SARS33 RUMS 042230
METAR ULLI 042230Z 25002MPS 4100 BR BKN008 OVC066 M10/M11
Q1006  78090072 BECMG 2000 BR BKN007=
METAR UUDD 042230Z 29005MPS 9999 BKN011 M04/M05 Q1002
32590140 82490138 NOSIG=
METAR UUEE 042230Z 29005MPS 9999 BKN018 M06/M08 Q1002 NOSIG
     RMK 75420236 25000000=
METAR UUEM 042230Z NIL=
METAR UUWW 042230Z 28004MPS 9999 OVC016 M05/M06 Q1002 24451037
     NOSIG =
####018000199####
SAAK31 KWBC 042200 RRB
METAR
PAVD 042236Z 00000KT 10SM SCT030 BKN100 M09/M13 A2973=
PAWG 042236Z 09012KT 3SM SCT005 BKN010 OVC020 01/M01 A2976=
PFYU 042236Z 04006KT 10SM FEW060 M30/ A2985=
####018000691####
SARA32 RUMS 042230
METAR UHHH 042230Z 26007MPS CAVOK M17/M19 Q1015 NOSIG RMK
QFE755/1006 23810555=
METAR UHMA 042230Z 33006MPS 1800 PRFZFG BKN080 M36/M38 Q1013
TEMPO 1200 PRFZFG RMK QFE756/1008 8870//60=
METAR UHMM 042230Z NIL=
METAR UHMP 042230Z NIL=
METAR UHNN 042230Z 28001MPS 9999 FEW200 M27/M29 Q1014 NOSIG RMK
QFE754 298///40=
METAR UHPP 042230Z 33002MPS 9999 BKN/// M10/M14 Q0998 NOSIG RMK
QFE745/0994 MT OBS SC040=
METAR UHSH 042230Z 28005MPS CAVOK M21/M22 Q1011 RMK QFE755
31890534=
METAR UHSS 042230Z 36002MPS 6000 NSC M18/M20 Q1011 NOSIG RMK 
QFE757/1009
     01810560=
METAR UHWW 042230Z 34003MPS 9999 SCT200 M06/M10 Q1018 NOSIG
     RMK QFE763/1017 7581//55=
####018000686####
SARS32 RUMS 042230
METAR URKA 042230Z NIL=
URKK 042230Z 03002MPS CAVOK 03/01 Q1012 NOSIG RMK
QFE756 SC070=
METAR URKM 042230Z NIL=
METAR URML 042230Z NIL=
METAR URMM 042230Z 09003MPS 3000 BR OVC003 M01/M02 Q1015
NOSIG RMK QBB110 G/?Z SC070=
METAR URMN 042230Z NIL=
METAR URMT 042230Z 12004MPS 9999 BKN010 M02/M03 Q1013 NOSIG RMK 
QFE721 SC065=
METAR URRR 042230Z 09004MPS CAVOK M01/M02 Q1012 NOSIG RMK
SC060=
METAR URSS 042230Z 09003MPS 9999 OVC100 07/M00 Q1013 NOSIG RMK
     G/O QFE759 06CLRD70=
METAR URWA 042230Z 10004MPS 9999 OVC022 M04/M06 Q1022 NOSIG RMK SC06=
METAR URWI 042230Z NIL=
METAR URWW 042230Z 19004G06MPS 9999 OVC004 M04/M04 Q1017
NOSIG RMK SC065=
####018000312####
SARA31 RUMS 042230
METAR UEEE 042230Z 00000MPS 0250 R23L/0700D FG VV002 M44/M49
     Q1026 NOSIG RMK QBB080 QFE761 23490145=
METAR UELL 042230Z 00000MPS 9999 SCT200 M35/M37
Q1013 NOSIG RMK QFE685 08490832=
METAR UERP 042230Z NIL=
METAR UERR 042230Z NIL=
METAR UESO 042230Z NIL=
METAR UEST 042230Z NIL=
####018000078####
SPCN31 KWBC 042239
SPECI
CYSJ 042237Z 31007KT 15SM BKN021 M10/ RMK SC5=
####018001040####
SARA34 RUMS 042230
METAR UNAA 042230Z VRB02MPS 1300 R02/P1500N BR FEW003 OVC100
     M09/M10 Q1011 NOSIG RMK QFE736 028///40 =
METAR UNBB 042230Z 25011G16MPS 0900 R24/1600 -SN +BLSN
 BKN010 M08/M09 Q1010 RESN TEMPO 0300 +SHSN BLSN VV003
 RMK QFE736 24421045=
METAR UNEE 042230Z 20006G11MPS 3400 -SHSN DRSN OVC012CB
M07/M10 Q1005 TEMPO 1000 RMK QFE731 23454045=
METAR UNKL 042230Z 00000MPS 9999 FEW040 BKN083 M05/M11 Q1006 NOSIG
 RMK QFE729 29////35=
METAR UNNT 042230Z 23008G14MPS 6000 -SHSN DRSN BKN016CB
M10/M14 Q1007 NOSIG RMK QFE745/0994 25390139=
METAR UNOO 042230Z 24008MPS 6000 -SN BLSN BKN014 OVC066 M09/M11
     Q1001 TEMPO 19010MPS 0700 +SN BLSN 25421040 RMK QFE743=
METAR UNWW 042230Z 21009G14MPS 1000  R19/1300 SN BLSN OVC006
M07/M08 Q1009 NOSIG  RMK QFE730 QBB180 19831050=
METAR USHH 042230Z 26002MPS 9999 -SN FEW026 OVC080 M30/M33 Q1000
     TEMPO 3000 BKN010 RMK QFE746 SC05=
METAR USTR 042230Z 00000MPS 2600 SHSN BKN015CB OVC070
M16/M18 Q1002 TEMPO 1500 SHSN BKN005 RMK QFE742/0989 03450345
12750029=
####018000573####
SARA36 RUMS 042230
METAR USCC 042230Z NIL=
METAR USDD 042230Z 03003MPS 6000 -SN OVC070 M32/M35 Q1002 NOSIG
RMK QFE746=
METAR USMU 042230Z NIL=
USNN 042230Z 26005MPS P6000 -SN OVC066 M25/M27  Q0996 NOSIG RMK
QFE741 SC042=
METAR USRK 042230Z NIL=
METAR USRR 042230Z 30003MPS 7000 SCT018 OVC070 M30/M33
Q0996 TEMPO 2000 SHSN BKN007 RMK QFE742 25////45=
USSS 042230Z 25005MPS 3200 -SHSN SCT016 OVC067 M10/M12 Q1002 TEMPO
0800 +SHSN VV003 RMK QFE731 26920360=
METAR UWUU 042230Z 20004MPS 9999 SCT040 OVC100 M11/M14 Q1010
WS RWY14L NOSIG RMK QFE747/0996 14811052=
####018000703####
SARS31 RUMS 042230
METAR ULAA 042230Z NIL=
METAR ULKK 042230Z NIL=
METAR ULLI 042230Z 25002MPS 4100 BR BKN008 OVC066 M10/M11
Q1006  78090072 BECMG 2000 BR BKN007=
METAR ULMM 042230Z 15002MPS CAVOK M29/M33 Q1016 NOSIG RMK QFE755
14850140=
METAR ULOL 042230Z NIL=
METAR ULOO 042230Z NIL=
METAR ULWW 042230Z NIL=
METAR UMKK 042230Z 10003MPS 3500 BR OVC013 M03/M04 Q1002 NOSIG RMK
QFE 750 SC065=
METAR UUBP 042230Z NIL=
METAR UUOB 042230Z NIL=
METAR UUOK 042230Z NIL=
METAR UUOO 042230Z 16002MPS 2000 SN OVC006 M04/M04 Q1006 TEMPO
     0600 FZDZ FZFG VV002 RMK 13494030=
METAR UWGG 042230Z VRB02MPS 0600 R18R/1000VP1500U +SHSN VV003
      M06/M07 Q1002 NOSIG RMK QBB110 QFE745 18850538=
####018000291####
SARA35 RUMS 042230
METAR ULDD 042230Z NIL=
METAR UOHH 042230Z NIL=
METAR UOII 042230Z NIL=
METAR UOOO 042230Z 07007MPS 9999 DRSN SKC M32/M36
Q1002 TEMPO 0700 FG SCT003 RMK QFE737 0139//40=
METAR USCM 042230Z 25011MPS 9000 FEW033 BKN100 M09/M13 Q1007
     NOSIG 19090065 RMK QFE718=
####018000083####
SAUS42 KWBC 042200 RRE
METAR
KBPP 042236Z AUTO 26006KT 10SM CLR 08/00 A2996=
####018000192####
SAUS43 KWBC 042200 RRF
METAR
KCIU 042235Z AUTO 33006KT 10SM CLR M18/M23 A3043=
KELO 042233Z AUTO 20005KT 10SM CLR M11/M26 A3029=
KPHN 042237Z AUTO 30009G14KT 10SM CLR M13/M19 A3040=
####018000084####
SAUS44 KWBC 042200 RRE
METAR
KGDV 042235Z AUTO 17010KT 10SM CLR 05/M03 A2992=
####018001066####
SAUS20 KNKA 042238
METAR KADU 042235Z AUTO 17010KT 10SM CLR M02/M13 A3038 RMK AO2=
METAR KAIO 042235Z AUTO 17010KT 10SM CLR M01/M16 A3041 RMK AO2=
METAR KAWG 042235Z AUTO 00000KT 10SM CLR M06/M16 A3054 RMK AO2=
METAR KAXA 042235Z AUTO 16009KT 10SM CLR M07/M11 A3038 RMK AO2=
METAR KBBG 042235Z AUTO 24004KT 10SM CLR 02/M17 A3050 RMK AO2 =
METAR KBNW 042235Z AUTO 15008KT 10SM CLR M07/M13 A3044 RMK AO2
=
SPECI KJST 042237Z AUTO 27015G20KT 1/4SM +SN FZFG BKN005 BKN010 
    OVC016 M11/M13 A3007 RMK AO2 P0000=
METAR KMAO 042235Z AUTO 33009KT 10SM CLR 02/M10 A3025 RMK AO2=
METAR KO22 042235Z AUTO 00000KT 10SM CLR 19/00 A2998 RMK AO1 =
METAR KRNH 042239Z AUTO 17007KT 10SM CLR M10/M20 A3043 RMK AO2=
METAR KRPD 042235Z AUTO 19005KT 10SM CLR M10/M17 A3044 RMK AO2 T11051175=
METAR KRRL 042235Z AUTO 24004KT 10SM CLR M12/M18 A3043 RMK AO2=
METAR KSPF 042235Z AUTO 26009KT 10SM CLR 16/M14 A3001 RMK AO2 =
METAR KSTE 042235Z AUTO 25004KT 10SM CLR M12/M19 A3046 RMK AO2=
METAR KSUW 042235Z AUTO 20008KT 10SM CLR M09/M20 A3040 RMK AO2
=
####018000191####
SAUS53 KWBC 042200 RRJ
METAR
KDVL 042235Z AUTO 18018G25KT 10SM CLR M08/M12 A2990=
KEAR 042235Z AUTO 18015KT 10SM CLR 06/M08 A3022=
KGPZ 042235Z AUTO 15010KT 10SM CLR M12/M22 A3027=
####018001537####
SARS18 KAWN 042200 RRG
METAR UAAA 042230Z 22002MPS 2900 -SN BR OVC017 M01/M02 Q1028 734/0537
      234/0542 NOSIG=
METAR UACC 042230Z 22012MPS 1100 R22/P1500 SN BLSN OVC012 M15/M16 Q1014
      228/0060 TEMPO 23015MPS 0600 SN BLSN RMK QFE729/0973=
METAR UAFM 042230Z 29003MPS 4100 SN BR OVC005 M02/M02 Q1029 R26/690542
      TEMPO 1500 SN BR OVC003=
METAR UATE 042230Z 12008MPS 9999 OVC027 01/M00 Q1024 NOSIG RMK QFE766/1021
      120///70=
METAR UATT 042230Z 18004MPS 5000 -SN NSC M14/M16 Q1021 13490148 NOSIG
      RMK QFE746/0995=
METAR UHHH 042230Z 26007MPS CAVOK M17/M19 Q1015 NOSIG RMK QFE755/1006
      23810555=
METAR UHSS 042230Z 36002MPS 6000 NSC M18/M20 Q1011 NOSIG RMK QFE757/1009
      01810560=
METAR UIBB 042230Z 17004MPS 5000 OVC200 M13/M14 Q1009 NOSIG RMK QFE714/0952
      30390132=
METAR UKBB 042230Z 12001MPS 0450 R36R/0550N FG VV001 00/00 Q1002 86820547
      NOSIG=
METAR UKFF 042230Z 17006MPS CAVOK 09/00 Q1007 19010070 NOSIG=
METAR UKLL 042230Z 00000MPS 0200 R13/0450D -RA FG VV003 02/01 Q1001
      13821055 NOSIG=
METAR UKOO 042230Z 22004MPS CAVOK 07/06 Q1003 16290054 NOSIG=
METAR UMGG 042230Z 15002MPS 2500 BR OVC002 M02/M02 Q1003 R11/190052
      TEMPO 2000 RMK QBB070=
METAR UMMS 042230Z 00000MPS 0250 R31/0750N FZFG VV001 M00/M00 Q1001
      31820335 NOSIG RMK QBB050=
METAR UTDD 042230Z 28001MPS 1800 SN BR BKN004 OVC030 M01/M01 Q1027
      09690338 TEMPO 1000 BR SN RMK QBB120 QFE701/0935=
METAR VTBD 042230Z 11003KT 7000 NSC 24/22 Q1011 NOSIG=
####018000095####
SAUS41 KWBC 042200 RRF
METAR
KPQI 042235Z AUTO 33007KT 10SM FEW090 BKN120 M12/M19 A2988=
####018001482####
SARS18 KAWN 042200 RRH
METAR UELL 042230Z 00000MPS 9999 SCT200 M35/M37 Q1013 NOSIG RMK QFE685
      08490832=
METAR UHMA 042230Z 33006MPS 1800 PRFZFG BKN080 M36/M38 Q1013 TEMPO
      1200 PRFZFG RMK QFE756/1008 8870//60=
METAR UHNN 042230Z 28001MPS 9999 FEW200 M27/M29 Q1014 NOSIG RMK QFE754
      298///40=
METAR UHPP 042230Z 33002MPS 9999 BKN/// M10/M14 Q0998 NOSIG RMK QFE745/0994
      MT OBS SC040=
METAR UHWW 042230Z 34003MPS 9999 SCT200 M06/M10 Q1018 NOSIG RMK QFE763/1017
      7581//55=
METAR UIAA 042230Z 00000MPS 1200 BR FEW003 M29/M33 Q1018 TEMPO 0500
      FG FEW002 RMK QFE705 29420250=
METAR UIII 042230Z 10003MPS CAVOK M17/M19 Q1014 NOSIG RMK QFE718/0958
      12810360=
METAR UIUU 042230Z 25002MPS 9999 NSC M29/M31 Q1020 NOSIG RMK QFE720/0961
      26410560=
METAR ULLI 042230Z 25002MPS 4100 BR BKN008 OVC066 M10/M11 Q1006 78090072
      BECMG 2000 BR BKN007=
METAR UMKK 042230Z 10003MPS 3500 BR OVC013 M03/M04 Q1002 NOSIG RMK
      QFE 750 SC065=
METAR URMM 042230Z 09003MPS 3000 BR OVC003 M01/M02 Q1015 NOSIG RMK
      QBB110 G//Z SC070=
METAR URSS 042230Z 09003MPS 9999 OVC100 07/M00 Q1013 NOSIG RMK G/O
      QFE759 06CLRD70=
METAR UUEE 042230Z 29005MPS 9999 BKN018 M06/M08 Q1002 NOSIG RMK 75420236
      25000000=
METAR UUWW 042230Z 28004MPS 9999 OVC016 M05/M06 Q1002 24451037 NOSIG=
METAR UWGG 042230Z VRB02MPS 0600 R18R/1000VP1500U +SHSN VV003 M06/M07
      Q1002 NOSIG RMK QBB110 QFE745 18850538=
####018000091####
SAAB31 LATI 042230
METAR LATI 042230Z 10006KT 9999 RA SCT035 OVC060 12/12 Q1009 NOSIG=
####018000168####
SARA34 RUMS 042230 CCA
METAR COR UNBB 042230Z 25011G16MPS 0700 R24/1600 -SN +BLSN
 BKN010 M08/M09 Q1010 RESN TEMPO 0300 +SHSN BLSN VV003 
 RMK QFE736 24421045=
####018000090####
SPNI20 DNMM 042206
SPECI DNMM 22006KT 170V260 9999 SCT012 FEW019CB 28/25 Q1012 NOSIG=
####018000703####
SARS32 RUMS 042230
METAR URKA 042230Z NIL=
URKK 042230Z 03002MPS CAVOK 03/01 Q1012 NOSIG RMK
QFE756 SC070=
METAR URKM 042230Z NIL=
METAR URML 042230Z NIL=
METAR URMM 042230Z 09003MPS 3000 BR OVC003 M01/M02 Q1015
NOSIG RMK QBB110 G/?Z SC070=
METAR URMN 042230Z NIL=
METAR URMT 042230Z 12004MPS 9999 BKN010 M02/M03 Q1013 NOSIG RMK
QFE721 SC065=
METAR URRR 042230Z 09004MPS CAVOK M01/M02 Q1012 NOSIG RMK
SC060=
METAR URSS 042230Z 09003MPS 9999 OVC100 07/M00 Q1013 NOSIG RMK
     G/O QFE759 06CLRD70=
METAR URWA 042230Z 10004MPS 9999 OVC022 M04/M06 Q1022 NOSIG RMK SC06=
METAR URWI 042230Z NIL=
METAR URWW 042230Z 19004G06MPS 9999 OVC004 M04/M04 Q1017
NOSIG RMK SC065=
####018000707####
SARA32 RUMS 042230
METAR UHHH 042230Z 26007MPS CAVOK M17/M19 Q1015 NOSIG RMK
QFE755/1006 23810555=
METAR UHMA 042230Z 33006MPS 1800 PRFZFG BKN080 M36/M38 Q1013
TEMPO 1200 PRFZFG RMK QFE756/1008 8870//60=
METAR UHMM 042230Z NIL=
METAR UHMP 042230Z NIL=
METAR UHNN 042230Z 28001MPS 9999 FEW200 M27/M29 Q1014 NOSIG RMK
QFE754 298///40=
METAR UHPP 042230Z 33002MPS 9999 BKN/// M10/M14 Q0998 NOSIG RMK
QFE745/0994 MT OBS SC040=
METAR UHSH 042230Z 28005MPS CAVOK M21/M22 Q1011 RMK QFE755
31890534=
METAR UHSS 042230Z 36002MPS 6000 NSC M18/M20 Q1011 NOSIG RMK
QFE757/1009
     01810560=
METAR UHWW 042230Z 34003MPS 9999 SCT200 M06/M10 Q1018 NOSIG
     RMK QFE763/1017 7581//55=
####018000703####
SARS32 RUMS 042230
METAR URKA 042230Z NIL=
URKK 042230Z 03002MPS CAVOK 03/01 Q1012 NOSIG RMK
QFE756 SC070=
METAR URKM 042230Z NIL=
METAR URML 042230Z NIL=
METAR URMM 042230Z 09003MPS 3000 BR OVC003 M01/M02 Q1015
NOSIG RMK QBB110 G/~Z SC070=
METAR URMN 042230Z NIL=
METAR URMT 042230Z 12004MPS 9999 BKN010 M02/M03 Q1013 NOSIG RMK
QFE721 SC065=
METAR URRR 042230Z 09004MPS CAVOK M01/M02 Q1012 NOSIG RMK
SC060=
METAR URSS 042230Z 09003MPS 9999 OVC100 07/M00 Q1013 NOSIG RMK
     G/O QFE759 06CLRD70=
METAR URWA 042230Z 10004MPS 9999 OVC022 M04/M06 Q1022 NOSIG RMK SC06=
METAR URWI 042230Z NIL=
METAR URWW 042230Z 19004G06MPS 9999 OVC004 M04/M04 Q1017
NOSIG RMK SC065=
####018002779####
SAUS20 KNKA 042239
SPECI KBEH 042238Z AUTO 36004KT 1/2SM SN SCT007 BKN021 OVC025 
    M09/M12 A3047 RMK AO2 SNB14 P0000=
SPECI KBLF 042238Z AUTO 29009KT 1 1/4SM -SN BKN012 BKN020 OVC025 
    M11/M14 A3019 RMK AO2 P0000=
METAR KCAV 042235Z AUTO 16011KT 10SM CLR M08/M12 A3041 RMK AO2=
METAR KCBF 042235Z AUTO 18014G18KT 10SM CLR 00/M13 A3037 RMK AO2=
METAR KCCY 042235Z AUTO 17008KT 10SM CLR M11/M14 A3046 RMK AO2=
METAR KCIN 042235Z AUTO 17012KT 10SM CLR M03/M10 A3039 RMK AO2=
METAR KCKP 042235Z AUTO 17012KT 10SM CLR M03/M12 A3034 RMK AO2=
METAR KCNC 042235Z AUTO 18005KT 10SM CLR M03/M18 A3047 RMK AO2
=
METAR KCSQ 042235Z AUTO 17009KT 10SM CLR M02/M17 A3042 RMK AO2=
METAR KDEH 042235Z AUTO 21003KT 10SM CLR M11/M18 A3048 RMK AO2=
METAR KDNS 042235Z AUTO 16011G16KT 10SM CLR M02/M12 A3037 RMK AO2=
METAR KEBS 042235Z AUTO 15010KT 10SM CLR M08/M13 A3042 RMK AO2=
METAR KEOK 042235Z AUTO 00000KT 10SM CLR M05/M17 A3054 RMK AO2
=
METAR KFFL 042235Z AUTO 00000KT 10SM CLR M05/M17 A3053 RMK AO2=
METAR KFSW 042235Z AUTO 10003KT 10SM CLR M06/M17 A3053 RMK AO2=
METAR KGGI 042235Z AUTO 15006KT 10SM CLR M08/M15 A3049 RMK AO2=
METAR KHNR 042235Z AUTO 16012G18KT 10SM CLR M02/M13 A3041 RMK AO2=
METAR KICL 042235Z AUTO 17010KT 10SM CLR M01/M17 A3042 RMK AO2
=
METAR KIFA 042235Z AUTO 15009KT 10SM CLR M11/M16 A3045 RMK AO2=
METAR KIIB 042235Z AUTO 00000KT 10SM CLR M10/M15 A3050 RMK AO1=
METAR KIKV 042235Z AUTO 13005KT 10SM CLR M06/M13 A3046 RMK AO2=
SPECI KLHQ 042238Z AUTO 33011KT 10SM BKN031 M10/M17 A3041 RMK AO2=
METAR KLRJ 042235Z AUTO 18014KT 10SM CLR M03/M12 A3032 RMK AO2=
METAR KMPZ 042235Z AUTO 00000KT 10SM CLR M06/M15 A3054 RMK AO2
=
METAR KMUT 042235Z AUTO 00000KT 10SM CLR M07/M17 A3056 RMK AO2=
METAR KMXO 042235Z AUTO 00000KT 10SM CLR M11/M18 A3052 RMK AO2=
METAR KOLZ 042235Z AUTO 19004KT 10SM CLR M11/M16 A3050 RMK AO2=
METAR KOOA 042235Z AUTO 14006KT 10SM CLR M04/M15 A3050 RMK AO2=
METAR KORC 042235Z AUTO 17011KT 10SM CLR M04/M10 A3030 RMK AO2=
METAR KPEA 042235Z AUTO 11006KT 10SM CLR M05/M13 A3049 RMK AO2
=
METAR KPRO 042235Z AUTO 13009KT 10SM CLR M03/M13 A3043 RMK AO2=
METAR KRDK 042235Z AUTO 17013KT 10SM CLR 00/M16 A3040 RMK AO2=
METAR KSDA 042235Z AUTO 15012KT 10SM CLR 00/M13 A3042 RMK AO2=
METAR KSHL 042235Z AUTO 18014KT 10SM CLR M05/M11 A3032 RMK AO2=
METAR KSLB 042235Z AUTO 16015KT 10SM CLR M05/M11 A3033 RMK AO2
=
METAR KTKV 042235Z AUTO 00000KT 10SM CLR M09/M18 A3038 RMK AO2=
METAR KTNU 042235Z AUTO 14007KT 10SM CLR M07/M12 A3048 RMK AO2=
METAR KTVK 042235Z AUTO 16006KT 10SM CLR M04/M18 A3048 RMK AO2 P0106
=
METAR KUNU 042235Z AUTO 00000KT 10SM CLR M13/M19 A3049 RMK AO2 T11321195
=
METAR KVTI 042235Z AUTO 15003KT 10SM CLR M10/M17 A3052 RMK AO2=
####018000167####
SARA34 RUMS 042230 CCA
METAR COR UNBB 042230Z 25011G16MPS 0700 R24/1600 -SN +BLSN
 BKN010 M08/M09 Q1010 RESN TEMPO 0300 +SHSN BLSN VV003
 RMK QFE736 24421045=
####018000808####
SAEW KAWN 042200 RRP
METAR LFBF 042230Z AUTO 15012KT 110V190 9999NDV // NCD 08/05 Q0992=
METAR LFKS 042230Z AUTO 27005KT 190V310 9999NDV // ///////// 09/08
      Q1004=
METAR LFLN 042230Z AUTO 15014KT 9999NDV NSC 08/03 Q0994=
METAR LFMY 042230Z AUTO 10008KT 9999NDV // BKN017/// BKN022/// 10/09
      Q1000=
METAR LFOH 042230Z AUTO 11011KT 4100NDV -SNRA BR FEW014/// SCT020///
      OVC041/// //////TCU 03/01 Q0988=
METAR LFOJ 042230Z AUTO 14007KT 9999NDV // NCD 05/02 Q0990=
METAR LFPM 042230Z AUTO 10006KT 9999NDV NSC 02/01 Q0991=
METAR LFPV 042230Z 13006KT 100V180 8000 -RA NSC 03/02 Q0991=
METAR LFSC 042230Z AUTO 20003KT 0050NDV // NCD M02/M03 Q0998=
METAR LFSF 042230Z AUTO 00000KT 0650NDV // NCD M02/M03 Q0996=
METAR LFSO 042230Z AUTO 16007KT 8000NDV // NSC 02/02 Q0995=
####018000128####
SAEW KAWN 042100 RRR
METAR COR LFST 042130Z 27003KT 0800 R23/P1500 R05/0700VP1500U FZFG
      SCT006 M01/M01 Q0998 NOSIG=
####018000128####
SAEU KAWN 042100 RRX
METAR COR LFST 042130Z 27003KT 0800 R23/P1500 R05/0700VP1500U FZFG
      SCT006 M01/M01 Q0998 NOSIG=
####018003130####
SAUS99 KWBC 042240
METAR
KADU 042235Z AUTO 17010KT 10SM CLR M02/M13 A3038 RMK AO2=
KAIO 042235Z AUTO 17010KT 10SM CLR M01/M16 A3041 RMK AO2=
KAWG 042235Z AUTO 00000KT 10SM CLR M06/M16 A3054 RMK AO2=
KAXA 042235Z AUTO 16009KT 10SM CLR M07/M11 A3038 RMK AO2=
KBBG 042235Z AUTO 24004KT 10SM CLR 02/M17 A3050 RMK AO2=
KBNW 042235Z AUTO 15008KT 10SM CLR M07/M13 A3044 RMK AO2=
KMAO 042235Z AUTO 33009KT 10SM CLR 02/M10 A3025 RMK AO2=
KO22 042235Z AUTO 00000KT 10SM CLR 19/00 A2998 RMK AO1=
KRNH 042239Z AUTO 17007KT 10SM CLR M10/M20 A3043 RMK AO2=
KRPD 042235Z AUTO 19005KT 10SM CLR M10/M17 A3044 RMK AO2
     T11051175=
KRRL 042235Z AUTO 24004KT 10SM CLR M12/M18 A3043 RMK AO2=
KSPF 042235Z AUTO 26009KT 10SM CLR 16/M14 A3001 RMK AO2=
KSTE 042235Z AUTO 25004KT 10SM CLR M12/M19 A3046 RMK AO2=
KSUW 042235Z AUTO 20008KT 10SM CLR M09/M20 A3040 RMK AO2=
KCAV 042235Z AUTO 16011KT 10SM CLR M08/M12 A3041 RMK AO2=
KCBF 042235Z AUTO 18014G18KT 10SM CLR 00/M13 A3037 RMK AO2=
KCCY 042235Z AUTO 17008KT 10SM CLR M11/M14 A3046 RMK AO2=
KCIN 042235Z AUTO 17012KT 10SM CLR M03/M10 A3039 RMK AO2=
KCKP 042235Z AUTO 17012KT 10SM CLR M03/M12 A3034 RMK AO2=
KCNC 042235Z AUTO 18005KT 10SM CLR M03/M18 A3047 RMK AO2=
KCSQ 042235Z AUTO 17009KT 10SM CLR M02/M17 A3042 RMK AO2=
KDEH 042235Z AUTO 21003KT 10SM CLR M11/M18 A3048 RMK AO2=
KDNS 042235Z AUTO 16011G16KT 10SM CLR M02/M12 A3037 RMK AO2=
KEBS 042235Z AUTO 15010KT 10SM CLR M08/M13 A3042 RMK AO2=
KEOK 042235Z AUTO 00000KT 10SM CLR M05/M17 A3054 RMK AO2=
KFFL 042235Z AUTO 00000KT 10SM CLR M05/M17 A3053 RMK AO2=
KFSW 042235Z AUTO 10003KT 10SM CLR M06/M17 A3053 RMK AO2=
KGGI 042235Z AUTO 15006KT 10SM CLR M08/M15 A3049 RMK AO2=
KHNR 042235Z AUTO 16012G18KT 10SM CLR M02/M13 A3041 RMK AO2=
KICL 042235Z AUTO 17010KT 10SM CLR M01/M17 A3042 RMK AO2=
KIFA 042235Z AUTO 15009KT 10SM CLR M11/M16 A3045 RMK AO2=
KIIB 042235Z AUTO 00000KT 10SM CLR M10/M15 A3050 RMK AO1=
KIKV 042235Z AUTO 13005KT 10SM CLR M06/M13 A3046 RMK AO2=
KLRJ 042235Z AUTO 18014KT 10SM CLR M03/M12 A3032 RMK AO2=
KMPZ 042235Z AUTO 00000KT 10SM CLR M06/M15 A3054 RMK AO2=
KMUT 042235Z AUTO 00000KT 10SM CLR M07/M17 A3056 RMK AO2=
KMXO 042235Z AUTO 00000KT 10SM CLR M11/M18 A3052 RMK AO2=
KOLZ 042235Z AUTO 19004KT 10SM CLR M11/M16 A3050 RMK AO2=
KOOA 042235Z AUTO 14006KT 10SM CLR M04/M15 A3050 RMK AO2=
KORC 042235Z AUTO 17011KT 10SM CLR M04/M10 A3030 RMK AO2=
KPEA 042235Z AUTO 11006KT 10SM CLR M05/M13 A3049 RMK AO2=
KPRO 042235Z AUTO 13009KT 10SM CLR M03/M13 A3043 RMK AO2=
KRDK 042235Z AUTO 17013KT 10SM CLR 00/M16 A3040 RMK AO2=
KSDA 042235Z AUTO 15012KT 10SM CLR 00/M13 A3042 RMK AO2=
KSHL 042235Z AUTO 18014KT 10SM CLR M05/M11 A3032 RMK AO2=
KSLB 042235Z AUTO 16015KT 10SM CLR M05/M11 A3033 RMK AO2=
KTKV 042235Z AUTO 00000KT 10SM CLR M09/M18 A3038 RMK AO2=
KTNU 042235Z AUTO 14007KT 10SM CLR M07/M12 A3048 RMK AO2=
KTVK 042235Z AUTO 16006KT 10SM CLR M04/M18 A3048 RMK AO2 P0106=
KUNU 042235Z AUTO 00000KT 10SM CLR M13/M19 A3049 RMK AO2
     T11321195=
KVTI 042235Z AUTO 15003KT 10SM CLR M10/M17 A3052 RMK AO2=
####018000392####
SPUS99 KWBC 042240
SPECI
KJST 042237Z AUTO 27015G20KT 1/4SM +SN FZFG BKN005 BKN010 OVC016
     M11/M13 A3007 RMK AO2 P0000=
KBEH 042238Z AUTO 36004KT 1/2SM SN SCT007 BKN021 OVC025 M09/M12
     A3047 RMK AO2 SNB14 P0000=
KBLF 042238Z AUTO 29009KT 1 1/4SM -SN BKN012 BKN020 OVC025 M11/M14
     A3019 RMK AO2 P0000=
KLHQ 042238Z AUTO 33011KT 10SM BKN031 M10/M17 A3041 RMK AO2=
####018000508####
SARS35 RUMS 042230
METAR USPP 042230Z 23005MPS 3000 -SN BKN012 OVC096 M08/M09
Q1002 NOSIG RMK QFE741/0988 21390132=
METAR UWKD 042230Z NIL=
METAR UWKE 042230Z NIL=
METAR UWKS 042230Z NIL=
METAR UWLL 042230Z NIL=
METAR UWLW 042230Z NIL=
METAR UWOO 042230Z NIL=
METAR UWOR 042230Z NIL=
METAR UWPP 042230Z NIL=
METAR UWSS 042230Z 18006MPS CAVOK M08/M09 Q1014
NOSIG RMK QFE748 12800255=
METAR UWWW 042230Z 21006MPS 9999 FEW033 SCT100 OVC200 M11/M13 Q1012
NOSIG RMK QFE748/0997 23//99// 15450545=
####018000027####
SARS34 RUMS 042230
NIL=
####018000092####
SPAF31 KWBC 042240
SPECI
DNMM 22006KT 170V260 9999 SCT012 FEW019CB 28/25 Q1012 NOSIG=
####018003718####
SAUS70 KWBC 042240
METAR
KAMN 042237Z AUTO 34005KT 10SM CLR M12/M21 A3043 RMK AO2=
KCAD 042237Z AUTO 33004KT 10SM BKN025 M15/M20 A3038 RMK AO2=
KCDA 042237Z AUTO 23010KT 10SM SCT090 BKN120 M15/M21 A3003 RMK
     AO2=
KCFS 042236Z AUTO 29004KT 10SM CLR M14/M22 A3042 RMK AO2=
KDUH 042236Z AUTO 32003KT 10SM CLR M11/M18 A3043 RMK AO2=
KERY 042236Z AUTO 00000KT 10SM BKN033 M15/M20 A3044 RMK AO2=
KETB 042235Z AUTO 29006KT 10SM CLR M12/M18 A3049 RMK AO2=
KFFX 042234Z AUTO 01005KT 10SM CLR M10/M23 A3043 RMK AO2=
KFKS 042236Z AUTO 08004KT 2 1/2SM -SN OVC039 M09/M15 A3046 RMK
     AO2=
KGOV 042236Z AUTO 31006KT 10SM CLR M15/M22 A3040 RMK AO2=
KHAI 042237Z AUTO 36003KT 10SM CLR M08/M17 A3044 RMK AO2=
KHYI 042235Z AUTO 13006KT 10SM CLR 21/M04 A3045 RMK AO1=
KILE 042235Z AUTO 12007KT 10SM CLR 16/M03 A3046 RMK AO1=
KISQ 042237Z AUTO 35003KT 10SM OVC040 M12/M18 A3045 RMK AO2=
KJYM 042237Z AUTO 33008KT 10SM CLR M12/M20 A3038 RMK AO2=
KLNL 042235Z AUTO 27003KT 10SM CLR M11/M18 A3036 RMK AO2=
KMDZ 042235Z AUTO 19004KT 10SM CLR M13/M19 A3040 RMK AO2=
KMRJ 042235Z AUTO 00000KT 10SM CLR M11/M18 A3049 RMK AO2
     T11151182=
KOCH 042235Z AUTO 00000KT 10SM CLR 13/M06 A3054 RMK AO1=
KOEO 042235Z AUTO 19005KT 10SM CLR M11/M18 A3044 RMK AO2=
KOZW 042237Z AUTO 33005KT 10SM CLR M14/M21 A3041 RMK AO2=
KPBH 042235Z AUTO 20005KT 10SM CLR M11/M21 A3039 RMK AO2=
KPCZ 042235Z AUTO 24004KT 10SM CLR M11/M19 A3047 RMK AO2=
KPDC 042235Z AUTO 24003KT 10SM CLR M10/M18 A3052 RMK AO2
     T10981184=
KPRX 042235Z AUTO 16005KT 10SM CLR 09/M07 A3051 RMK AO1=
KPWG 042235Z AUTO 10007KT 10SM CLR 16/M04 A3049 RMK AO1=
KRCX 042235Z AUTO 17006KT 10SM CLR M10/M17 A3043 RMK AO2=
KTPL 042235Z 14006KT 10SM CLR 16/M03 A3047 RMK AO1=
KADU 042235Z AUTO 17010KT 10SM CLR M02/M13 A3038 RMK AO2=
KAIO 042235Z AUTO 17010KT 10SM CLR M01/M16 A3041 RMK AO2=
KAWG 042235Z AUTO 00000KT 10SM CLR M06/M16 A3054 RMK AO2=
KAXA 042235Z AUTO 16009KT 10SM CLR M07/M11 A3038 RMK AO2=
KBNW 042235Z AUTO 15008KT 10SM CLR M07/M13 A3044 RMK AO2=
KMAO 042235Z AUTO 33009KT 10SM CLR 02/M10 A3025 RMK AO2=
KRNH 042239Z AUTO 17007KT 10SM CLR M10/M20 A3043 RMK AO2=
KRPD 042235Z AUTO 19005KT 10SM CLR M10/M17 A3044 RMK AO2
     T11051175=
KRRL 042235Z AUTO 24004KT 10SM CLR M12/M18 A3043 RMK AO2=
KSPF 042235Z AUTO 26009KT 10SM CLR 16/M14 A3001 RMK AO2=
KSTE 042235Z AUTO 25004KT 10SM CLR M12/M19 A3046 RMK AO2=
KSUW 042235Z AUTO 20008KT 10SM CLR M09/M20 A3040 RMK AO2=
KCAV 042235Z AUTO 16011KT 10SM CLR M08/M12 A3041 RMK AO2=
KCBF 042235Z AUTO 18014G18KT 10SM CLR 00/M13 A3037 RMK AO2=
KCCY 042235Z AUTO 17008KT 10SM CLR M11/M14 A3046 RMK AO2=
KCIN 042235Z AUTO 17012KT 10SM CLR M03/M10 A3039 RMK AO2=
KCNC 042235Z AUTO 18005KT 10SM CLR M03/M18 A3047 RMK AO2=
KCSQ 042235Z AUTO 17009KT 10SM CLR M02/M17 A3042 RMK AO2=
KDEH 042235Z AUTO 21003KT 10SM CLR M11/M18 A3048 RMK AO2=
KDNS 042235Z AUTO 16011G16KT 10SM CLR M02/M12 A3037 RMK AO2=
KEBS 042235Z AUTO 15010KT 10SM CLR M08/M13 A3042 RMK AO2=
KEOK 042235Z AUTO 00000KT 10SM CLR M05/M17 A3054 RMK AO2=
KFFL 042235Z AUTO 00000KT 10SM CLR M05/M17 A3053 RMK AO2=
KFSW 042235Z AUTO 10003KT 10SM CLR M06/M17 A3053 RMK AO2=
KGGI 042235Z AUTO 15006KT 10SM CLR M08/M15 A3049 RMK AO2=
KHNR 042235Z AUTO 16012G18KT 10SM CLR M02/M13 A3041 RMK AO2=
KICL 042235Z AUTO 17010KT 10SM CLR M01/M17 A3042 RMK AO2=
KIFA 042235Z AUTO 15009KT 10SM CLR M11/M16 A3045 RMK AO2=
KIIB 042235Z AUTO 00000KT 10SM CLR M10/M15 A3050 RMK AO1=
KIKV 042235Z AUTO 13005KT 10SM CLR M06/M13 A3046 RMK AO2=
KLRJ 042235Z AUTO 18014KT 10SM CLR M03/M12 A3032 RMK AO2=
KMPZ 042235Z AUTO 00000KT 10SM CLR M06/M15 A3054 RMK AO2=
####018000894####
SAUS70 KWBC 042240 RRA
METAR
KMUT 042235Z AUTO 00000KT 10SM CLR M07/M17 A3056 RMK AO2=
KMXO 042235Z AUTO 00000KT 10SM CLR M11/M18 A3052 RMK AO2=
KOLZ 042235Z AUTO 19004KT 10SM CLR M11/M16 A3050 RMK AO2=
KOOA 042235Z AUTO 14006KT 10SM CLR M04/M15 A3050 RMK AO2=
KORC 042235Z AUTO 17011KT 10SM CLR M04/M10 A3030 RMK AO2=
KPEA 042235Z AUTO 11006KT 10SM CLR M05/M13 A3049 RMK AO2=
KPRO 042235Z AUTO 13009KT 10SM CLR M03/M13 A3043 RMK AO2=
KRDK 042235Z AUTO 17013KT 10SM CLR 00/M16 A3040 RMK AO2=
KSDA 042235Z AUTO 15012KT 10SM CLR 00/M13 A3042 RMK AO2=
KSHL 042235Z AUTO 18014KT 10SM CLR M05/M11 A3032 RMK AO2=
KSLB 042235Z AUTO 16015KT 10SM CLR M05/M11 A3033 RMK AO2=
KTNU 042235Z AUTO 14007KT 10SM CLR M07/M12 A3048 RMK AO2=
KTVK 042235Z AUTO 16006KT 10SM CLR M04/M18 A3048 RMK AO2 P0106=
KUNU 042235Z AUTO 00000KT 10SM CLR M13/M19 A3049 RMK AO2
     T11321195=
####018000209####
SAUS80 KWBC 042240
METAR
KCKP 042235Z AUTO 17012KT 10SM CLR M03/M12 A3034 RMK AO2=
KTKV 042235Z AUTO 00000KT 10SM CLR M09/M18 A3038 RMK AO2=
KVTI 042235Z AUTO 15003KT 10SM CLR M10/M17 A3052 RMK AO2=
####018000392####
SPUS70 KWBC 042240
SPECI
KJST 042237Z AUTO 27015G20KT 1/4SM +SN FZFG BKN005 BKN010 OVC016
     M11/M13 A3007 RMK AO2 P0000=
KBEH 042238Z AUTO 36004KT 1/2SM SN SCT007 BKN021 OVC025 M09/M12
     A3047 RMK AO2 SNB14 P0000=
KBLF 042238Z AUTO 29009KT 1 1/4SM -SN BKN012 BKN020 OVC025 M11/M14
     A3019 RMK AO2 P0000=
KLHQ 042238Z AUTO 33011KT 10SM BKN031 M10/M17 A3041 RMK AO2=
####018000424####
SAAL31 KWBC 042200 RRB
METAR
DAAG 042230Z 34007KT 9999 FEW026 14/09 Q1006=
DAAT 042230Z 03002KT CAVOK 12/M11 Q1021=
DABB 042230Z 26008KT CAVOK 10/08 Q1008=
DABC 042230Z 00000KT 9999 FEW030 08/05 Q1010=
DABS 042230Z 24012KT 9999 FEW040 SCT230 11/02 Q1012=
DAON 042230Z 22012KT 9999 BKN026 12/09 Q1007=
DAOO 042230Z 24003KT CAVOK 10/09 Q1006=
DAUH 042230Z 14006KT 8000 SKC 14/12 Q1011=
DAUZ 042230Z NIL=
####018000075####
SAPM31 MPTO 042300
METAR
MPTO 042300Z 04006KT 9999 SCT018 29/21 Q1011=
####018000164####
SARA34 RUMS 042230 CCA
METAR COR UNBB 042230Z 25011G16MPS 0700 R24/1600 -SN +BLSN
 BKN010 M08/M09 Q1010 RESN TEMPO 0300 +SHSN BLSN VV003
 RMK QFE736 24421045=
####018000081####
SPUS17 KAWN 042239 RRC
PABA SP 2235 AWOS 14 SCT M26 OVC 10 -26/-34/2807/000=
####018001398####
SARA31 KWBC 042200 RRJ
METAR
UEEE 042230Z 00000MPS 0250 R23L/0700D FG VV002 M44/M49 Q1026 NOSIG
     RMK QBB080 QFE761 23490145=
UHHH 042230Z 26007MPS CAVOK M17/M19 Q1015 NOSIG RMK QFE755/1006
     23810555=
UHMA 042230Z 33006MPS 1800 PRFZFG BKN080 M36/M38 Q1013 TEMPO 1200
     PRFZFG RMK QFE756/1008 8870//60=
UHMM 042230Z NIL=
UHMP 042230Z NIL=
UHPP 042230Z 33002MPS 9999 BKN/// M10/M14 Q0998 NOSIG RMK
     QFE745/0994 MT OBS SC040=
UHSS 042230Z 36002MPS 6000 NSC M18/M20 Q1011 NOSIG RMK QFE757/1009
     01810560=
UHWW 042230Z 34003MPS 9999 SCT200 M06/M10 Q1018 NOSIG RMK
     QFE763/1017 7581//55=
UIAA 042230Z 00000MPS 1200 BR FEW003 M29/M33 Q1018 TEMPO 0500 FG
     FEW002 RMK QFE705 29420250=
UIBB 042230Z 17004MPS 5000 OVC200 M13/M14 Q1009 NOSIG RMK
     QFE714/0952 30390132=
UIII 042230Z 10003MPS CAVOK M17/M19 Q1014 NOSIG RMK QFE718/0958
     12810360=
UIUU 042230Z 25002MPS 9999 NSC M29/M31 Q1020 NOSIG RMK QFE720/0961
     26410560=
ULAA 042230Z NIL=
UNAA 042230Z VRB02MPS 1300 R02/P1500N BR FEW003 OVC100 M09/M10
     Q1011 NOSIG RMK QFE736 028///40=
UNNT 042230Z 23008G14MPS 6000 -SHSN DRSN BKN016CB M10/M14 Q1007
     NOSIG RMK QFE745/0994 25390139=
USNN 042230Z 26005MPS P6000 -SN OVC066 M25/M27 Q0996 NOSIG RMK
     QFE741 SC042=
UUEE 042230Z 29005MPS 9999 BKN018 M06/M08 Q1002 NOSIG RMK 75420236
     25000000=
####018000091####
SAFR32 KWBC 042230 RRA
METAR
LFSF 042230Z AUTO 00000KT 0650NDV // NCD M02/M03 Q0996=
####018000688####
SARS31 KWBC 042200 RRC
METAR
UELL 042230Z 00000MPS 9999 SCT200 M35/M37 Q1013 NOSIG RMK QFE685
     08490832=
UEST 042230Z NIL=
ULLI 042230Z 25002MPS 4100 BR BKN008 OVC066 M10/M11 Q1006 78090072
     BECMG 2000 BR BKN007=
ULMM 042230Z 15002MPS CAVOK M29/M33 Q1016 NOSIG RMK QFE755
     14850140=
UOHH 042230Z NIL=
UOOO 042230Z 07007MPS 9999 DRSN SKC M32/M36 Q1002 TEMPO 0700 FG
     SCT003 RMK QFE737 0139//40=
UUDD 042230Z 29005MPS 9999 BKN011 M04/M05 Q1002 32590140 82490138
     NOSIG=
UUEE 042230Z 29005MPS 9999 BKN018 M06/M08 Q1002 NOSIG RMK 75420236
     25000000=
UUEM 042230Z NIL=
UUWW 042230Z 28004MPS 9999 OVC016 M05/M06 Q1002 24451037 NOSIG=
####018000097####
SAEM31 KWBC 042230 RRB
METAR
LATI 042230Z 10006KT 9999 RA SCT035 OVC060 12/12 Q1009 NOSIG=
####018000835####
SARS41 KWBC 042200 RRB
METAR
UUBP 042230Z NIL=
UUEE 042230Z 29005MPS 9999 BKN018 M06/M08 Q1002 NOSIG RMK 75420236
     25000000=
UUEM 042230Z NIL=
UUOO 042230Z 16002MPS 2000 SN OVC006 M04/M04 Q1006 TEMPO 0600 FZDZ
     FZFG VV002 RMK 13494030=
UUWW 042230Z 28004MPS 9999 OVC016 M05/M06 Q1002 24451037 NOSIG=
UWGG 042230Z VRB02MPS 0600 R18R/1000VP1500U +SHSN VV003 M06/M07
     Q1002 NOSIG RMK QBB110 QFE745 18850538=
UWKD 042230Z NIL=
UWKE 042230Z NIL=
UWLW 042230Z NIL=
UWOO 042230Z NIL=
UWPP 042230Z NIL=
UWSS 042230Z 18006MPS CAVOK M08/M09 Q1014 NOSIG RMK QFE748
     12800255=
UWUU 042230Z 20004MPS 9999 SCT040 OVC100 M11/M14 Q1010 WS RWY14L
     NOSIG RMK QFE747/0996 14811052=
UWWW 042230Z 21006MPS 9999 FEW033 SCT100 OVC200 M11/M13 Q1012
     NOSIG RMK QFE748/0997 23//99// 15450545=
####018000148####
SAFR41 KWBC 042230 RRA
METAR
LFPV 042230Z 13006KT 100V180 8000 -RA NSC 03/02 Q0991=
LFSC 042230Z AUTO 20003KT 0050NDV // NCD M02/M03 Q0998=
####018000905####
SARS32 KWBC 042200 RRB
METAR
URKA 042230Z NIL=
URKK 042230Z 03002MPS CAVOK 03/01 Q1012 NOSIG RMK QFE756 SC070=
URKM 042230Z NIL=
URMM 042230Z 09003MPS 3000 BR OVC003 M01/M02 Q1015 NOSIG RMK
     QBB110 G/~Z SC070=
URMM 042230Z 09003MPS 3000 BR OVC003 M01/M02 Q1015 NOSIG RMK
     QBB110 G/ Z SC070=
URMM 042230Z 09003MPS 3000 BR OVC003 M01/M02 Q1015 NOSIG RMK
     QBB110 g/~z SC070=
URMN 042230Z NIL=
URMT 042230Z 12004MPS 9999 BKN010 M02/M03 Q1013 NOSIG RMK QFE721
     SC065=
URRR 042230Z 09004MPS CAVOK M01/M02 Q1012 NOSIG RMK SC060=
URSS 042230Z 09003MPS 9999 OVC100 07/M00 Q1013 NOSIG RMK G/O
     QFE759 06CLRD70=
URSS 042230Z 09003MPS 9999 OVC100 07/M00 Q1013 NOSIG RMK g/o
     QFE759 06CLRD70=
URWA 042230Z 10004MPS 9999 OVC022 M04/M06 Q1022 NOSIG RMK SC06=
URWI 042230Z NIL=
URWW 042230Z 19004G06MPS 9999 OVC004 M04/M04 Q1017 NOSIG RMK
     SC065=
####018000173####
SAXX99 KWBC 042200 CCD
METAR
UNBB 042230Z 25011G16MPS 0700 R24/1600 -SN +BLSN BKN010 M08/M09
     Q1010 RESN TEMPO 0300 +SHSN BLSN VV003 RMK QFE736
     24421045=
####018000709####
SARS33 KWBC 042200 RRC
METAR
USCC 042230Z NIL=
USDD 042230Z 03003MPS 6000 -SN OVC070 M32/M35 Q1002 NOSIG RMK
     QFE746=
USMU 042230Z NIL=
USNN 042230Z 26005MPS P6000 -SN OVC066 M25/M27 Q0996 NOSIG RMK
     QFE741 SC042=
USPP 042230Z 23005MPS 3000 -SN BKN012 OVC096 M08/M09 Q1002 NOSIG
     RMK QFE741/0988 21390132=
USRK 042230Z NIL=
USRR 042230Z 30003MPS 7000 SCT018 OVC070 M30/M33 Q0996 TEMPO 2000
     SHSN BKN007 RMK QFE742 25////45=
USSS 042230Z 25005MPS 3200 -SHSN SCT016 OVC067 M10/M12 Q1002 TEMPO
     0800 +SHSN VV003 RMK QFE731 26920360=
USTR 042230Z 00000MPS 2600 SHSN BKN015CB OVC070 M16/M18 Q1002
     TEMPO 1500 SHSN BKN005 RMK QFE742/0989 03450345 12750029=
####018001077####
SAXX99 KWBC 042200 RRX
METAR
UERP 042230Z NIL=
UERR 042230Z NIL=
UESO 042230Z NIL=
UHNN 042230Z 28001MPS 9999 FEW200 M27/M29 Q1014 NOSIG RMK QFE754
     298///40=
UHSH 042230Z 28005MPS CAVOK M21/M22 Q1011 RMK QFE755 31890534=
ULDD 042230Z NIL=
ULKK 042230Z NIL=
ULOL 042230Z NIL=
ULOO 042230Z NIL=
ULWW 042230Z NIL=
UMKK 042230Z 10003MPS 3500 BR OVC013 M03/M04 Q1002 NOSIG RMK QFE
     750 SC065=
UNBB 042230Z 25011G16MPS 0900 R24/1600 -SN +BLSN BKN010 M08/M09
     Q1010 RESN TEMPO 0300 +SHSN BLSN VV003 RMK QFE736
     24421045=
UNEE 042230Z 20006G11MPS 3400 -SHSN DRSN OVC012CB M07/M10 Q1005
     TEMPO 1000 RMK QFE731 23454045=
UNKL 042230Z 00000MPS 9999 FEW040 BKN083 M05/M11 Q1006 NOSIG RMK
     QFE729 29////35=
UNOO 042230Z 24008MPS 6000 -SN BLSN BKN014 OVC066 M09/M11 Q1001
     TEMPO 19010MPS 0700 +SN BLSN 25421040 RMK QFE743=
UNWW 042230Z 21009G14MPS 1000 R19/1300 SN BLSN OVC006 M07/M08
     Q1009 NOSIG RMK QFE730 QBB180 19831050=
UOII 042230Z NIL=
URML 042230Z NIL=
UWLL 042230Z NIL=
UWOR 042230Z NIL=
####018000103####
SAAK41 KNKA 042239
SPECI PPIZ 042236Z AUTO 04008KT 4SM HZ BKN004 M39/ A2992 RMK AO2 
    TSNO $=
####018000309####
SAID31 WIII 042230
METAR WIMM 042230Z 00000KT 9000 SCT017 24/22 Q1009 NOSIG= 
METAR WADD 042230Z 26022KT 9999 SCT017 27/23 Q1005 NOSIG= 
METAR WAAA 042230Z VRB01KT 6000 R13//////N SCT018 BKN090 24/23 Q1008=
 
METAR WIII NIL=
METAR WIHH NIL=
METAR WABB NIL=
METAR WARR NIL=
METAR WIDD NIL=
####018000370####
SAUS20 KNKA 042239
METAR KCKI 042235Z AUTO 28007KT 02/M13 A3026 RMK AO2 PWINO=
METAR KDCM 042235Z AUTO 32005KT 10SM SCT065 00/M12 A3029 RMK AO2=
METAR KEOE 042235Z AUTO 33013G19KT 290V360 10SM CLR 00/M15 A3034 
     RMK AO2=
METAR KMNI 042235Z AUTO 30004KT 10SM CLR 02/M16 A3028 RMK AO2=
METAR KW99 042239Z AUTO 29004KT 10SM OVC080 M04/M14 A3021 RMK AO2
=
####018000177####
SAEE31 LOWM 042230
METAR UACK 042230Z NIL=
METAR UACP 042230Z NIL=
METAR UAII 042230Z NIL=
METAR UADD 042230Z NIL=
METAR UASK 042230Z NIL=
METAR UASP 042230Z NIL=
